,City,State,Zip,Bank,BankState,NAICS,ApprovalDate,ApprovalFY,Term,NoEmp,NewExist,CreateJob,RetainedJob,FranchiseCode,UrbanRural,RevLineCr,LowDoc,MIS_Status,GrAppv,SBA_Appv,NAICS2,DiffJobs
0,EVANSVILLE,IN,47711,FIFTH THIRD BANK,IN,451120,1997-02-28,1997-01-01,84,4,2.0,0,0,0,0,N,Y,P I F,60000.0,48000.0,45,0
1,NEW PARIS,IN,46526,1ST SOURCE BANK,OH,722410,1997-02-28,1997-01-01,60,2,2.0,0,0,0,0,N,Y,P I F,40000.0,32000.0,72,0
2,BLOOMINGTON,MN,47401,WELLS FARGO BANK NATL ASSOC,IL,621210,1997-02-28,1997-01-01,180,7,1.0,0,0,0,0,N,N,P I F,287000.0,215250.0,62,0
3,BROKEN ARROW,OK,74012,BANK OF AMERICA NATL ASSOC,OK,0,1997-02-28,1997-01-01,60,2,1.0,0,0,0,0,N,Y,P I F,35000.0,28000.0,0,0
4,ORLANDO,FL,32801,BANK OF AMERICA NATL ASSOC,FL,0,1997-02-28,1997-01-01,240,14,1.0,7,7,0,0,N,N,P I F,229000.0,229000.0,0,0
5,PLAINVILLE,CT,6062,BANK OF AMERICA NATL ASSOC,CT,332721,1997-02-28,1997-01-01,120,19,1.0,0,0,0,0,N,N,P I F,517000.0,387750.0,33,0
6,UNION,NJ,7083,BANK OF AMERICA NATL ASSOC,NJ,0,1980-06-02,1980-01-01,45,45,2.0,0,0,0,0,N,N,CHGOFF,600000.0,499998.0,0,0
7,SUMMERFIELD,FL,34491,BANK OF AMERICA NATL ASSOC,NC,811118,1997-02-28,1997-01-01,84,1,2.0,0,0,0,0,N,Y,P I F,45000.0,36000.0,81,0
8,PORT SAINT JOE,FL,32456,BANCO POPULAR NORTH AMERICA,FL,721310,1997-02-28,1997-01-01,297,2,2.0,0,0,0,0,N,N,P I F,305000.0,228750.0,72,0
9,GLASTONBURY,CT,6073,BANK OF AMERICA NATL ASSOC,CT,0,1997-02-28,1997-01-01,84,3,2.0,0,0,0,0,N,Y,P I F,70000.0,56000.0,0,0
10,CHARLOTTE,NC,28256,BANK OF AMERICA NATL ASSOC,NC,811111,1997-02-28,1997-01-01,84,1,2.0,0,0,0,0,N,Y,P I F,70000.0,56000.0,81,0
11,CHICAGO,IL,60605,JPMORGAN CHASE BANK NATL ASSOC,IL,235950,1997-02-28,1997-01-01,60,24,1.0,0,0,0,0,N,N,P I F,300000.0,225000.0,23,0
12,APEX,NC,27502,BANK OF AMERICA NATL ASSOC,NC,445299,2006-02-07,2006-01-01,162,2,2.0,0,0,1,1,N,N,P I F,253400.0,190050.0,44,0
13,SLATERSVILLE,RI,2876,BANK OF AMERICA NATL ASSOC,RI,0,1997-02-28,1997-01-01,120,2,2.0,0,0,0,0,N,N,P I F,370000.0,277500.0,0,0
14,WINSTON-SALEM,NC,27106,WELLS FARGO BANK NATL ASSOC,NC,0,1997-02-28,1997-01-01,240,1,1.0,30,0,0,0,N,N,P I F,225000.0,225000.0,0,-30
15,OKLAHOMA CITY,OK,73112,BANCFIRST,OK,421330,1997-02-28,1997-01-01,12,5,2.0,0,0,0,0,N,N,P I F,350000.0,262500.0,42,0
16,MIDLAND,TX,79701,JPMORGAN CHASE BANK NATL ASSOC,TX,0,1997-02-28,1997-01-01,60,5,1.0,0,0,0,0,N,Y,P I F,70000.0,56000.0,0,0
17,CENTREVILLE,VA,20120,BANK OF AMERICA NATL ASSOC,VA,0,1997-02-28,1997-01-01,60,16,1.0,0,0,0,0,N,Y,P I F,100000.0,80000.0,0,0
18,PLANO,TX,75093,JPMORGAN CHASE BANK NATL ASSOC,TX,0,1997-02-28,1997-01-01,84,12,2.0,0,0,1,0,N,Y,P I F,57500.0,46000.0,0,0
19,KNOXVILLE,TN,37922,FIRST TENNESSEE BANK NATL ASSO,TN,0,1997-02-28,1997-01-01,120,4,2.0,0,0,0,0,N,Y,P I F,50000.0,40000.0,0,0
20,DUMAS,TX,79029,HAPPY STATE BANK,TX,0,1997-02-28,1997-01-01,300,12,2.0,0,0,0,0,N,N,P I F,615000.0,461250.0,0,0
21,CORAL SPRINGS,FL,33065,BANK OF AMERICA NATL ASSOC,NC,624410,1997-02-28,1997-01-01,87,2,1.0,0,0,0,0,N,N,P I F,70000.0,56000.0,62,0
22,JOHNSTON,RI,2919,CITIZENS BANK NATL ASSOC,RI,0,1997-02-28,1997-01-01,114,6,1.0,0,0,0,0,N,N,P I F,75000.0,56250.0,0,0
23,EULESS,TX,76040,JPMORGAN CHASE BANK NATL ASSOC,TX,0,1997-02-28,1997-01-01,144,90,1.0,0,0,0,0,N,N,P I F,1250000.0,937500.0,0,0
24,LITTLE ROCK,AR,72223,SIMMONS FIRST NATIONAL BANK,AR,722211,2006-02-07,2006-01-01,126,7,1.0,0,0,0,1,N,N,P I F,137300.0,116705.0,72,0
25,SAINT PETER,MN,56082,FIRST NATIONAL BANK MINNESOTA,MN,451110,1997-02-28,1997-01-01,60,2,1.0,0,0,0,0,N,N,P I F,39500.0,29625.0,45,0
26,INDEPENDENCE,MO,64055,BANK OF AMERICA NATL ASSOC,MO,0,1997-02-28,1997-01-01,60,2,2.0,0,0,0,0,-,N,P I F,50000.0,25000.0,0,0
27,MARSHFIELD,WI,2050,BMO HARRIS BK NATL ASSOC,WI,0,1997-02-28,1997-01-01,240,3,1.0,0,0,0,0,N,Y,P I F,75000.0,60000.0,0,0
28,CAMARILLO,CA,93010,PACIFIC WESTERN BANK,CA,611110,2006-02-07,2006-01-01,83,18,2.0,5,23,0,1,Y,N,P I F,100000.0,50000.0,61,18
29,ANDERSON,IN,29621,STAR FINANCIAL BANK,IN,445310,1997-02-28,1997-01-01,240,1,2.0,5,0,0,0,N,N,P I F,291000.0,291000.0,44,-5
30,MIAMI,FL,33186,BANK OF AMERICA NATL ASSOC,NC,238140,2006-02-07,2006-01-01,84,4,1.0,0,4,0,1,Y,N,P I F,35000.0,17500.0,23,4
31,DALLAS,TX,75243,JPMORGAN CHASE BANK NATL ASSOC,TX,621210,1997-02-28,1997-01-01,102,12,1.0,0,0,0,0,N,N,P I F,600000.0,450000.0,62,0
32,NEW ORLEANS,LA,70130,JPMORGAN CHASE BANK NATL ASSOC,LA,532490,2006-02-07,2006-01-01,60,3,1.0,0,0,0,1,N,N,P I F,50000.0,42500.0,53,0
33,WASHINGTON,DC,52353,BBCN BANK,CA,454210,1997-02-28,1997-01-01,84,2,2.0,0,0,0,0,N,N,P I F,30000.0,22500.0,45,0
34,LEANDER,TX,78641,JPMORGAN CHASE BANK NATL ASSOC,TX,541611,2006-02-07,2006-01-01,80,2,1.0,4,6,0,2,Y,N,P I F,25000.0,12500.0,54,2
35,ROANOKE,VA,24015,WELLS FARGO BANK NATL ASSOC,VA,0,1997-02-28,1997-01-01,84,2,1.0,0,0,0,0,N,Y,P I F,60000.0,48000.0,0,0
36,KINSMAN,OH,44428,ANDOVER BANK,OH,0,1997-02-28,1997-01-01,137,2,1.0,0,0,0,0,N,Y,CHGOFF,47000.0,37600.0,0,0
37,NORTH EASTON,MA,2356,SANTANDER BANK NATL ASSOC,MA,0,1997-02-28,1997-01-01,84,9,1.0,0,0,0,0,N,Y,P I F,70000.0,56000.0,0,0
38,SPRINGFIELD,MO,37172,U.S. BANK NATIONAL ASSOCIATION,MO,453110,2006-02-07,2006-01-01,84,4,1.0,1,4,0,1,-,N,P I F,20000.0,17000.0,45,3
39,LEWISBURG,TN,37091,BANK OF AMERICA NATL ASSOC,TN,311611,1997-02-28,1997-01-01,180,7,1.0,0,0,0,0,-,N,P I F,245000.0,183750.0,31,0
40,SPRINGFIELD,MO,62702,U.S. BANK NATIONAL ASSOCIATION,MO,0,1997-02-28,1997-01-01,84,3,1.0,0,0,0,0,-,N,P I F,225000.0,168750.0,0,0
41,LOUISVILLE,KY,40208,"PNC BANK, NATIONAL ASSOCIATION",KY,0,1997-02-28,1997-01-01,126,5,1.0,0,0,0,0,-,N,P I F,40000.0,30000.0,0,0
42,LELAND,NC,38756,BANK OF AMERICA NATL ASSOC,NC,332996,1997-02-28,1997-01-01,120,2,2.0,0,0,0,0,N,Y,P I F,100000.0,80000.0,33,0
43,EDINBURGH,IN,46124,FIFTH THIRD BANK,IN,0,1980-06-11,1980-01-01,120,16,2.0,0,0,0,0,Y,N,CHGOFF,200000.0,150000.0,0,0
44,Newburgh,NY,12550,KEYBANK NATIONAL ASSOCIATION,NY,0,1996-10-04,1997-01-01,84,3,1.0,0,0,0,0,-,N,P I F,25000.0,12500.0,0,0
45,Dover (census name for Dover C,MA,2030,BANK OF AMERICA NATL ASSOC,MA,0,1997-03-25,1997-01-01,12,20,1.0,0,0,0,0,-,N,P I F,100000.0,50000.0,0,0
46,SMITHVILLE,MO,44677,FIRST NATIONAL BANK,MO,235930,1997-02-28,1997-01-01,84,1,1.0,0,0,0,0,N,Y,P I F,71000.0,56800.0,23,0
47,Chicago,IL,60628,"PNC BANK, NATIONAL ASSOCIATION",DE,0,1997-03-25,1997-01-01,84,4,1.0,0,0,0,0,-,N,P I F,25000.0,12500.0,0,0
48,Marina del Ray,CA,90292,WELLS FARGO BANK NATL ASSOC,SD,0,1997-03-25,1997-01-01,84,6,1.0,0,0,0,0,Y,N,P I F,25000.0,12500.0,0,0
49,WINSOR MILL,MD,21244,BBCN BANK,CA,441120,2006-02-07,2006-01-01,84,1,2.0,0,1,0,1,-,N,P I F,10000.0,8500.0,44,1
50,SPOTSYLVANIA,VA,22553,UNION FIRST MARKET BANK,VA,621310,1997-02-28,1997-01-01,60,7,2.0,0,0,0,0,N,Y,P I F,35000.0,28000.0,62,0
51,Fall River,MA,2720,WEBSTER BANK NATL ASSOC,CT,235510,1997-03-25,1997-01-01,12,1,1.0,0,0,0,0,-,N,P I F,10000.0,5000.0,23,0
52,AKRON,OH,44303,CITIZENS BANK NATL ASSOC,OH,722410,1997-02-28,1997-01-01,120,5,1.0,0,0,0,0,N,Y,P I F,99963.0,79970.0,72,0
53,Boston,MA,2116,BANK OF AMERICA NATL ASSOC,MA,621210,1997-03-26,1997-01-01,12,1,1.0,0,0,0,0,-,N,P I F,25000.0,12500.0,62,0
54,SWARTHMORE,PA,19081,CITIZENS BANK NATL ASSOC,RI,448130,1997-02-28,1997-01-01,42,2,1.0,0,0,0,0,N,Y,P I F,15000.0,12000.0,44,0
55,Castro Valley,CA,94546,BANK OF AMERICA NATL ASSOC,CA,0,1997-03-26,1997-01-01,84,2,1.0,0,0,0,0,-,N,P I F,15000.0,7500.0,0,0
56,PERRYSBURG,OH,43551,THE HUNTINGTON NATIONAL BANK,OH,0,1997-02-28,1997-01-01,96,1,2.0,0,0,0,0,N,Y,P I F,60000.0,48000.0,0,0
57,Beaverton,OR,97008,KEYBANK NATIONAL ASSOCIATION,OR,332911,1997-03-28,1997-01-01,84,3,1.0,0,0,0,0,-,N,P I F,25000.0,12500.0,33,0
58,CLINTON (CENSUS NAME FOR CLINT,ME,4927,"MERRILL BANK, A DIVISION OF",CT,236115,2006-02-07,2006-01-01,167,9,1.0,0,9,0,1,-,N,CHGOFF,1350000.0,1012500.0,23,9
59,SHAWNEE MISSION,KS,66204,COMMERCE BANK,KS,512110,1997-02-28,1997-01-01,84,5,1.0,0,0,0,0,N,Y,P I F,86252.0,69002.0,51,0
60,Spring Lake,MI,49417,THE HUNTINGTON NATIONAL BANK,OH,713930,1997-03-31,1997-01-01,7,10,1.0,0,0,0,0,-,N,CHGOFF,25000.0,12500.0,71,0
61,Greenville,NC,27858,SELECT BANK & TRUST COMPANY,NC,541810,1997-03-28,1997-01-01,84,8,1.0,0,0,0,0,-,N,P I F,10000.0,5000.0,54,0
62,LOS ANGELES,CA,60014,BANK OF AMERICA NATL ASSOC,CA,315212,2006-02-07,2006-01-01,36,20,2.0,20,20,0,1,-,N,P I F,35000.0,17500.0,31,0
63,SANTA ANA,CA,92703,WELLS FARGO BANK NATL ASSOC,CA,0,1997-02-28,1997-01-01,300,50,1.0,0,0,0,0,-,N,P I F,745000.0,558750.0,0,0
64,Grass Valley,CA,0,PLUMAS BANK,CA,0,1997-03-31,1997-01-01,37,7,1.0,0,0,0,0,-,N,CHGOFF,20000.0,10000.0,0,0
65,WASILLA,AK,99654,WELLS FARGO BANK NATL ASSOC,AK,314999,2006-02-07,2006-01-01,83,2,1.0,0,2,0,1,Y,N,P I F,30000.0,15000.0,31,2
66,KIRKLAND,WA,98033,BANK OF AMERICA NATL ASSOC,WA,448120,1997-02-28,1997-01-01,12,10,1.0,0,0,0,0,-,N,P I F,30000.0,15000.0,44,0
67,BURNET,TX,78611,WELLS FARGO BANK NATL ASSOC,TX,444220,2006-02-07,2006-01-01,26,4,2.0,1,5,0,2,Y,N,CHGOFF,20000.0,10000.0,44,4
68,CHESAPEAKE,VA,23220,BANK OF AMERICA NATL ASSOC,VA,0,1997-02-28,1997-01-01,240,18,1.0,10,0,0,0,N,N,P I F,183000.0,183000.0,0,-10
69,Patterson,NY,95363,MANUFACTURERS & TRADERS TR CO,NY,541940,1997-04-01,1997-01-01,84,2,1.0,0,0,0,0,-,N,P I F,20000.0,10000.0,54,0
70,Fresno,CA,93612,WESTAMERICA BANK,CA,811111,1997-04-01,1997-01-01,84,3,1.0,0,0,0,0,-,N,P I F,10000.0,5000.0,81,0
71,GRAND JUNCTION,CO,81506,WELLS FARGO BANK NATL ASSOC,CO,621210,2006-02-07,2006-01-01,264,9,1.0,0,9,0,1,-,N,P I F,1535000.0,1151250.0,62,9
72,YUBA CITY,CA,95992,UMPQUA BANK,CA,0,1997-02-28,1997-01-01,60,3,1.0,0,0,0,0,N,N,P I F,40000.0,32000.0,0,0
73,Lawrence,MA,1840,"TD BANK, NATIONAL ASSOCIATION",DE,311812,1997-04-02,1997-01-01,60,9,1.0,0,0,0,0,-,N,P I F,100000.0,50000.0,31,0
74,CANTON,OH,48390,CITIZENS BANK NATL ASSOC,OH,0,1997-02-28,1997-01-01,72,1,2.0,0,0,0,0,-,N,P I F,384000.0,288000.0,0,0
75,Boston,MA,2108,BANK OF AMERICA NATL ASSOC,MA,0,1997-04-03,1997-01-01,24,20,1.0,0,0,0,0,-,N,P I F,50000.0,25000.0,0,0
76,Victor,NY,59875,MANUFACTURERS & TRADERS TR CO,NY,0,1997-04-03,1997-01-01,84,1,1.0,0,0,0,2,-,N,P I F,25000.0,12500.0,0,0
77,IRVINE,CA,92618,BANK OF AMERICA NATL ASSOC,CA,423710,2006-02-07,2006-01-01,36,18,1.0,1,19,0,1,Y,N,P I F,300000.0,150000.0,42,18
78,FORT WASHINGTON,MD,19034,BANK OF AMERICA NATL ASSOC,CA,524128,1997-02-28,1997-01-01,84,5,2.0,0,0,0,0,N,Y,P I F,35000.0,28000.0,52,0
79,Sheridan,WY,82801,"PNC BANK, NATIONAL ASSOCIATION",DE,213112,1997-04-03,1997-01-01,84,1,1.0,0,0,0,0,-,N,P I F,10000.0,5000.0,21,0
80,NORTH HILLS,CA,91343,BBCN BANK,CA,514199,2006-02-07,2006-01-01,84,1,2.0,0,1,0,1,-,N,P I F,5000.0,4250.0,51,1
81,PEARL,MS,39208,TRUSTMARK NATIONAL BANK,MS,0,1997-02-28,1997-01-01,72,5,2.0,0,0,0,0,N,Y,P I F,23000.0,18400.0,0,0
82,Wilmington,NC,1887,CAPITAL ONE NATL ASSOC,VA,0,1997-04-04,1997-01-01,12,3,1.0,0,0,0,0,-,N,P I F,100000.0,50000.0,0,0
83,SEATTLE,WA,98109,BANK OF AMERICA NATL ASSOC,WA,453910,2006-02-07,2006-01-01,5,1,2.0,3,4,0,1,-,N,CHGOFF,28300.0,24055.0,45,1
84,PLEASANT GROVE,UT,84062,ZIONS FIRST NATIONAL BANK,UT,323117,1997-02-28,1997-01-01,240,20,1.0,8,8,0,0,N,N,P I F,208000.0,208000.0,32,0
85,Manchester,NH,3101,"TD BANK, NATIONAL ASSOCIATION",DE,0,1997-04-04,1997-01-01,60,4,1.0,0,0,0,0,-,N,P I F,44650.0,22325.0,0,0
86,Leicester (census name Leicest,MA,1611,BANK OF AMERICA NATL ASSOC,MA,0,1997-04-07,1997-01-01,12,4,1.0,0,0,0,0,-,N,P I F,25000.0,12500.0,0,0
87,Pueblo,CO,81005,CALIFORNIA BANK & TRUST,CA,0,1997-04-07,1997-01-01,84,3,1.0,0,0,0,0,-,N,P I F,15000.0,7500.0,0,0
88,Orangeburg,SC,29118,WELLS FARGO BANK NATL ASSOC,SD,0,1997-04-07,1997-01-01,84,3,1.0,0,0,0,0,-,N,P I F,25000.0,12500.0,0,0
89,THORNTON,CO,80602,WELLS FARGO BANK NATL ASSOC,CO,561612,2006-02-07,2006-01-01,54,4,1.0,8,4,0,2,Y,N,CHGOFF,30000.0,15000.0,56,-4
90,VINTON,IA,24179,FARMERS SAVINGS BANK & TRUST,IA,0,1997-02-28,1997-01-01,240,17,1.0,10,0,0,0,N,N,P I F,357000.0,357000.0,0,-10
91,Redondo Beach,CA,90278,CALIFORNIA BANK & TRUST,CA,0,1997-04-07,1997-01-01,84,1,1.0,0,0,0,0,-,N,P I F,25000.0,12500.0,0,0
92,Waterville,ME,98858,"TD BANK, NATIONAL ASSOCIATION",DE,422720,1997-04-08,1997-01-01,84,7,1.0,0,0,0,0,-,N,P I F,10000.0,5000.0,42,0
93,Pittsburgh,PA,15214,"PNC BANK, NATIONAL ASSOCIATION",DE,422810,1997-04-08,1997-01-01,84,2,1.0,0,0,0,0,-,N,P I F,20000.0,10000.0,42,0
94,BELLE CHASSE,LA,70037,CAPITAL ONE NATL ASSOC,LA,541810,2006-02-07,2006-01-01,120,16,2.0,16,1,0,0,-,N,P I F,150000.0,127500.0,54,-15
95,Vancouver,WA,98663,KEYBANK NATIONAL ASSOCIATION,OR,0,1997-04-08,1997-01-01,84,3,1.0,0,0,0,0,-,N,P I F,10000.0,5000.0,0,0
96,CEDAR RAPIDS,IA,52402,WELLS FARGO BANK NATL ASSOC,IA,451120,1997-02-28,1997-01-01,87,6,1.0,0,0,0,0,N,Y,P I F,75000.0,60000.0,45,0
97,Clackamas,OR,97015,KEYBANK NATIONAL ASSOCIATION,CA,421940,1997-04-08,1997-01-01,84,2,1.0,0,0,0,0,-,N,P I F,10000.0,5000.0,42,0
98,Cotuit,MA,2635,EASTERN BANK,MA,0,1997-04-10,1997-01-01,300,5,1.0,0,0,0,0,-,N,P I F,60000.0,30000.0,0,0
99,Garden Grove,CA,92844,CALIFORNIA BANK & TRUST,CA,0,1997-04-11,1997-01-01,84,3,1.0,0,0,0,0,-,N,P I F,10000.0,5000.0,0,0
100,PROVIDENCE,RI,2906,CITIZENS BANK NATL ASSOC,RI,0,1997-04-14,1997-01-01,12,32,1.0,0,0,0,0,-,N,P I F,10000.0,5000.0,0,0
101,Seekonk (Town of),MA,2771,BANK OF AMERICA NATL ASSOC,MA,454311,1997-04-15,1997-01-01,12,5,1.0,0,0,0,0,-,N,P I F,50000.0,25000.0,45,0
102,Valencia,CA,91321,WELLS FARGO BANK NATL ASSOC,CA,445310,1997-04-21,1997-01-01,84,9,1.0,0,0,0,0,-,N,P I F,25000.0,12500.0,44,0
103,Moses Lake,WA,98837,AMERICANWEST BANK,WA,445310,1997-04-21,1997-01-01,84,6,1.0,0,0,0,0,-,N,CHGOFF,10000.0,5000.0,44,0
104,MANHATTAN,KS,66502,COMMUNITY FIRST NATIONAL BANK,KS,0,1997-02-28,1997-01-01,84,5,2.0,0,0,0,0,N,Y,P I F,50000.0,40000.0,0,0
105,Kansas City,MO,64116,COMMERCE BANK,MO,0,1997-04-28,1997-01-01,84,5,1.0,0,0,0,0,-,N,P I F,20000.0,10000.0,0,0
106,GREENWOOD,IN,46142,JPMORGAN CHASE BANK NATL ASSOC,IN,451220,1997-02-28,1997-01-01,66,2,2.0,0,0,1,0,N,Y,P I F,60000.0,48000.0,45,0
107,Narragansett (census name Narr,RI,2882,BANK OF AMERICA NATL ASSOC,NC,0,1997-04-29,1997-01-01,12,5,1.0,0,0,0,0,-,N,P I F,50000.0,25000.0,0,0
108,MAYNARD,MA,1754,BANK OF AMERICA NATL ASSOC,MA,0,1997-02-28,1997-01-01,60,2,2.0,0,0,0,0,N,Y,P I F,45000.0,36000.0,0,0
109,Atkinson,NH,3811,BANK OF AMERICA NATL ASSOC,RI,0,1997-05-01,1997-01-01,12,3,1.0,0,0,0,0,-,N,P I F,22000.0,11000.0,0,0
110,SOUTH BEND,IN,46637,1ST SOURCE BANK,IN,0,1997-03-03,1997-01-01,161,20,2.0,0,0,1,0,N,N,CHGOFF,2000000.0,750000.0,0,0
111,Atkinson,NH,3811,BANK OF AMERICA NATL ASSOC,RI,0,1997-05-01,1997-01-01,60,3,1.0,0,0,0,0,-,N,P I F,28000.0,14000.0,0,0
112,BALTIMORE,MD,21224,MANUFACTURERS & TRADERS TR CO,MD,0,1997-02-28,1997-01-01,180,2,1.0,0,0,0,0,N,Y,P I F,98500.0,78800.0,0,0
113,Arcadia,CA,91006,EAST WEST BANK,CA,0,1997-05-02,1997-01-01,84,4,1.0,0,0,0,0,-,N,P I F,10000.0,5000.0,0,0
114,TIGARD,OR,97224,WELLS FARGO BANK NATL ASSOC,OR,0,1997-02-28,1997-01-01,60,31,1.0,0,0,0,0,N,N,P I F,450000.0,337500.0,0,0
115,Wareham,MA,2571,BANK OF AMERICA NATL ASSOC,MA,441222,1997-05-02,1997-01-01,12,5,1.0,0,0,0,0,-,N,P I F,50000.0,25000.0,44,0
116,JACKSON,MS,49201,TRUSTMARK NATIONAL BANK,MS,0,1997-02-28,1997-01-01,240,3,2.0,0,0,0,0,N,Y,P I F,83000.0,66400.0,0,0
117,Boston,MA,2131,BANK OF AMERICA NATL ASSOC,MA,453110,1997-05-02,1997-01-01,12,3,1.0,0,0,0,0,-,N,P I F,30000.0,15000.0,45,0
118,HUNTINGTON,WV,25701,JPMORGAN CHASE BANK NATL ASSOC,IL,0,1997-02-28,1997-01-01,71,19,2.0,0,0,1,0,N,N,CHGOFF,180000.0,135000.0,0,0
119,Wappapello,MO,0,WELLS FARGO BANK NATL ASSOC,SD,451120,1997-05-02,1997-01-01,4,3,1.0,0,0,0,0,-,N,CHGOFF,20000.0,10000.0,45,0
120,Olney,MD,20832,MANUFACTURERS & TRADERS TR CO,NY,445230,1997-05-05,1997-01-01,84,20,1.0,0,0,0,0,-,N,P I F,50000.0,25000.0,44,0
121,MERIDIAN,ID,83642,U.S. BANK NATIONAL ASSOCIATION,ID,0,1997-02-28,1997-01-01,300,12,1.0,0,0,0,0,-,N,P I F,290000.0,217500.0,0,0
122,Watertown (Town of),MA,2172,BANK OF AMERICA NATL ASSOC,RI,0,1997-05-06,1997-01-01,12,3,1.0,0,0,0,0,-,N,P I F,10000.0,5000.0,0,0
123,OVERLAND PARK,KS,66213,BANK OF AMERICA NATL ASSOC,KS,722110,2006-02-07,2006-01-01,60,8,2.0,0,0,0,1,N,N,P I F,95000.0,80750.0,72,0
124,SUN CITY,AZ,85351,WELLS FARGO BANK NATL ASSOC,CA,621210,1997-02-28,1997-01-01,120,6,1.0,0,0,0,0,-,N,P I F,345000.0,258750.0,62,0
125,Alhambra,CA,91803,CALIFORNIA BANK & TRUST,CA,0,1997-05-06,1997-01-01,84,16,1.0,0,0,0,0,-,N,P I F,25000.0,12500.0,0,0
126,BOISE,ID,83714,WELLS FARGO BANK NATL ASSOC,ID,421310,1997-02-28,1997-01-01,96,7,1.0,0,0,0,0,N,N,P I F,230000.0,172500.0,42,0
127,MT PLEASANT,SC,48858,ZIONS FIRST NATIONAL BANK,UT,722211,2006-02-07,2006-01-01,93,50,2.0,0,0,1,2,N,N,P I F,150000.0,127500.0,72,0
128,DILLON,MT,80435,STATE BK & TR CO A DIVISION OF,MT,722410,1997-02-28,1997-01-01,288,3,1.0,0,0,0,0,-,N,P I F,1230000.0,749992.0,72,0
129,Des Moines,IA,60310,FIRST AMERICAN BANK,IA,421110,1997-05-09,1997-01-01,84,3,1.0,0,0,0,0,-,N,P I F,50000.0,25000.0,42,0
130,PASADENA,CA,91011,BANK OF AMERICA NATL ASSOC,CA,722310,2006-02-07,2006-01-01,84,60,1.0,0,0,0,1,N,N,P I F,50000.0,25000.0,72,0
131,GARDEN GROVE,CA,92644,BANK OF AMERICA NATL ASSOC,CA,811111,1997-02-28,1997-01-01,84,1,2.0,0,0,1,0,-,N,P I F,95000.0,76000.0,81,0
132,Sebring,OH,33870,THE HUNTINGTON NATIONAL BANK,OH,233210,1997-05-09,1997-01-01,84,1,1.0,0,0,0,0,-,N,P I F,25000.0,12500.0,23,0
133,Briggsdale,CO,80611,WELLS FARGO BANK NATL ASSOC,SD,0,1997-05-14,1997-01-01,84,1,1.0,0,0,0,0,-,N,P I F,10000.0,5000.0,0,0
134,THE COLONY,TX,75056,JPMORGAN CHASE BANK NATL ASSOC,TX,0,1997-02-28,1997-01-01,84,1,2.0,0,0,1,0,-,N,P I F,76300.0,61040.0,0,0
135,California,MD,22741,COMMERCE BANK,MO,0,1997-05-16,1997-01-01,84,1,1.0,0,0,0,0,-,N,P I F,20000.0,10000.0,0,0
136,JACKSONVILLE,FL,28540,BANK OF AMERICA NATL ASSOC,FL,0,1997-02-28,1997-01-01,12,19,1.0,0,0,0,0,N,N,P I F,200000.0,150000.0,0,0
137,Canton (Town of),MA,2021,WELLS FARGO BANK NATL ASSOC,SD,235310,1997-05-16,1997-01-01,84,8,1.0,0,0,0,0,-,N,P I F,25000.0,12500.0,23,0
138,CRANSTON,RI,2920,CITIZENS BANK NATL ASSOC,RI,0,1997-05-19,1997-01-01,60,6,1.0,0,0,0,0,-,N,P I F,20000.0,10000.0,0,0
139,NEW BRAUNFELS,TX,78132,FIRST COMM. BANK NATL ASSOC,TX,0,1997-02-28,1997-01-01,84,8,2.0,0,0,0,0,-,N,P I F,1000000.0,750000.0,0,0
140,WICHITA,KS,67213,INTRUST BANK NATL ASSOC,KS,0,1997-02-28,1997-01-01,84,5,2.0,0,0,0,0,N,Y,P I F,83400.0,66720.0,0,0
141,Las Vegas,NV,89102,"BEAL BANK, S.S.B.",CA,0,1997-05-20,1997-01-01,84,2,1.0,0,0,0,0,-,N,P I F,10000.0,5000.0,0,0
142,READING (TOWN OF),MA,1867,CITIZENS BANK NATL ASSOC,MA,0,1997-05-21,1997-01-01,84,4,0.0,0,0,0,0,-,N,P I F,100000.0,50000.0,0,0
143,BRANDON,MS,33511,TRUSTMARK NATIONAL BANK,MS,713940,2006-02-07,2006-01-01,84,5,2.0,0,0,0,1,N,N,P I F,275000.0,206250.0,71,0
144,EL CERRITO,CA,94530,WELLS FARGO BANK NATL ASSOC,CA,441120,1997-02-28,1997-01-01,120,10,1.0,0,0,0,0,-,N,P I F,50000.0,37500.0,44,0
145,Cambridge,MA,2130,THE HUNTINGTON NATIONAL BANK,OH,541310,1997-05-22,1997-01-01,12,1,1.0,0,0,0,0,-,N,P I F,100000.0,50000.0,54,0
146,Reading (Town of),MA,1867,BANK OF AMERICA NATL ASSOC,NC,334113,1997-05-23,1997-01-01,12,4,1.0,0,0,0,0,-,N,P I F,100000.0,50000.0,33,0
147,HOUSTON,TX,77055,JPMORGAN CHASE BANK NATL ASSOC,TX,0,1997-02-28,1997-01-01,180,6,1.0,0,0,0,0,-,N,P I F,157500.0,118125.0,0,0
148,NORTH PROVIDENCE,RI,2904,CITIZENS BANK NATL ASSOC,RI,541940,1997-05-23,1997-01-01,12,18,1.0,0,0,0,0,-,N,P I F,100000.0,50000.0,54,0
149,CHARLOTTE,NC,28273,BANK OF AMERICA NATL ASSOC,NC,0,1997-02-28,1997-01-01,60,7,2.0,0,0,0,0,N,Y,P I F,65000.0,52000.0,0,0
150,Lynnfield (Town of),MA,1940,BANK OF AMERICA NATL ASSOC,NC,0,1997-05-23,1997-01-01,12,5,1.0,0,0,0,0,-,N,P I F,25000.0,12500.0,0,0
151,TOLEDO,OH,43608,THE HUNTINGTON NATIONAL BANK,OH,0,1997-02-28,1997-01-01,120,4,1.0,0,0,0,0,-,N,P I F,31600.0,15800.0,0,0
152,Charlotte,NC,28204,WELLS FARGO BANK NATL ASSOC,NC,541810,1997-05-29,1997-01-01,84,12,1.0,0,0,0,0,-,N,P I F,25000.0,12500.0,54,0
153,CHICO,CA,95926,BANK OF THE WEST,CA,0,1997-02-28,1997-01-01,300,5,1.0,0,0,0,0,N,N,P I F,270000.0,202500.0,0,0
154,Northboro (RR name for Northbo,MA,1532,BANK OF AMERICA NATL ASSOC,NC,0,1997-06-05,1997-01-01,60,7,1.0,0,0,0,0,-,N,P I F,20000.0,10000.0,0,0
155,TOLEDO,OH,43608,THE HUNTINGTON NATIONAL BANK,OH,0,1997-02-28,1997-01-01,60,4,1.0,0,0,0,0,-,N,P I F,10500.0,5250.0,0,0
156,Provincetown (Town of),MA,2657,BANK OF AMERICA NATL ASSOC,NC,0,1997-06-09,1997-01-01,12,3,1.0,0,0,0,0,-,N,P I F,10000.0,5000.0,0,0
157,CORAL GABLES,FL,33134,BANK OF AMERICA NATL ASSOC,FL,541310,1997-02-28,1997-01-01,240,18,1.0,15,0,0,0,N,N,P I F,500000.0,500000.0,54,-15
158,New York,NY,10019,MANUFACTURERS & TRADERS TR CO,NY,0,1997-06-12,1997-01-01,84,2,1.0,0,0,0,0,-,N,P I F,20000.0,10000.0,0,0
159,PHOENIX,AZ,85024,WELLS FARGO BANK NATL ASSOC,IL,0,1997-02-28,1997-01-01,84,1,2.0,0,0,0,0,-,N,P I F,60000.0,48000.0,0,0
160,Upper Marlboro (Marlboro),MD,20772,WELLS FARGO BANK NATL ASSOC,SD,0,1997-06-12,1997-01-01,84,10,1.0,0,0,0,0,-,N,P I F,25000.0,12500.0,0,0
161,CHARLOTTE,NC,28206,BANK OF AMERICA NATL ASSOC,NC,441120,1997-02-28,1997-01-01,300,1,1.0,0,0,0,0,-,N,P I F,221000.0,165750.0,44,0
162,RED BLUFF,CA,96080,UMPQUA BANK,CA,541330,1997-06-12,1997-01-01,84,5,1.0,0,0,0,0,-,N,P I F,25000.0,12500.0,54,0
163,GLEN GARDER,NJ,8826,"TD BANK, NATIONAL ASSOCIATION",NJ,811111,1997-02-28,1997-01-01,240,6,2.0,0,0,0,0,-,N,P I F,700000.0,525000.0,81,0
164,Ignacio,CO,81137,WELLS FARGO BANK NATL ASSOC,SD,0,1997-06-12,1997-01-01,84,3,1.0,0,0,0,0,-,N,P I F,25000.0,12500.0,0,0
165,Worcester,MA,1606,"TD BANK, NATIONAL ASSOCIATION",DE,0,1997-06-12,1997-01-01,12,2,1.0,0,0,0,0,-,N,P I F,40000.0,20000.0,0,0
166,DEL MAR,CA,92014,WELLS FARGO BANK NATL ASSOC,CA,621210,1997-02-28,1997-01-01,108,2,1.0,0,0,0,0,-,N,P I F,112000.0,84000.0,62,0
167,PETALUMA,CA,94954,WELLS FARGO BANK NATL ASSOC,CA,422810,1997-02-28,1997-01-01,102,10,1.0,0,0,0,0,-,N,P I F,80000.0,64000.0,42,0
168,Denver,CO,80202,KEYBANK NATIONAL ASSOCIATION,OH,0,1997-06-13,1997-01-01,84,9,1.0,0,0,0,0,-,N,P I F,25000.0,12500.0,0,0
169,OREGON,OH,53575,THE HUNTINGTON NATIONAL BANK,OH,0,1997-02-28,1997-01-01,180,1,1.0,0,0,0,0,N,N,P I F,135000.0,101250.0,0,0
170,Lawrence,MA,1841,"TD BANK, NATIONAL ASSOCIATION",DE,722410,1997-06-16,1997-01-01,180,2,0.0,0,0,0,0,-,N,P I F,70000.0,35000.0,72,0
171,BOHEMIA,NY,11716,BANK OF AMERICA NATL ASSOC,NY,0,1980-06-18,1980-01-01,10,22,2.0,0,0,0,0,N,N,CHGOFF,125000.0,112500.0,0,0
172,New Haven,CT,6530,WEBSTER BANK NATL ASSOC,CT,541430,1997-06-17,1997-01-01,12,1,1.0,0,0,0,0,-,N,P I F,75000.0,37500.0,54,0
173,Salem,OR,3079,"TD BANK, NATIONAL ASSOCIATION",DE,421810,1997-06-18,1997-01-01,12,1,1.0,0,0,0,0,-,N,P I F,100000.0,50000.0,42,0
174,LOVELAND,CO,80537,JPMORGAN CHASE BANK NATL ASSOC,OH,0,1997-02-28,1997-01-01,240,6,1.0,6,4,0,0,N,N,P I F,108000.0,108000.0,0,-2
175,WARWICK (RR NAME APPONAUG,RI,2889,BANK OF AMERICA NATL ASSOC,NC,0,1997-06-19,1997-01-01,13,1,1.0,0,0,0,0,-,N,P I F,20000.0,10000.0,0,0
176,Guilford (census name for Guil,CT,6437,BANK OF AMERICA NATL ASSOC,RI,0,1997-06-20,1997-01-01,12,3,1.0,0,0,0,0,-,N,P I F,20000.0,10000.0,0,0
177,Boston,MA,2116,BANK OF AMERICA NATL ASSOC,MA,512110,1997-06-20,1997-01-01,12,3,1.0,0,0,0,0,-,N,P I F,25000.0,12500.0,51,0
178,Boston,MA,2114,BANK OF AMERICA NATL ASSOC,MA,812320,1997-06-23,1997-01-01,60,40,1.0,0,0,0,0,-,N,P I F,25000.0,12500.0,81,0
179,FISHERS (CORPORATE NAME FOR FI,IN,46037,STAR FINANCIAL BANK,IN,332117,2006-02-07,2006-01-01,90,72,2.0,1,3,0,1,-,N,P I F,331200.0,248400.0,33,2
180,LAKE OSWEGO,OR,97034,U.S. BANK NATIONAL ASSOCIATION,OR,454110,1997-02-28,1997-01-01,120,1,2.0,0,0,0,0,-,N,P I F,300000.0,225000.0,45,0
181,Walpole,MA,2081,"TD BANK, NATIONAL ASSOCIATION",MA,453110,1997-06-23,1997-01-01,60,4,1.0,0,0,0,0,-,N,P I F,20000.0,10000.0,45,0
182,CRANSTON,RI,2910,CITIZENS BANK NATL ASSOC,RI,331513,1997-02-28,1997-01-01,96,55,1.0,0,0,0,0,N,N,P I F,400000.0,300000.0,33,0
183,TONAWANDA,NY,14150,MANUFACTURERS & TRADERS TR CO,NY,0,1997-02-28,1997-01-01,240,9,2.0,0,0,0,0,N,N,P I F,100000.0,75000.0,0,0
184,LINCOLN,NE,2865,UNION BANK AND TRUST COMPANY,NE,0,1997-06-27,1997-01-01,60,4,1.0,0,0,0,0,-,N,P I F,48000.0,24000.0,0,0
185,PROVIDENCE,RI,2908,CITIZENS BANK NATL ASSOC,RI,514210,1997-07-02,1997-01-01,36,1,0.0,0,0,0,0,-,N,P I F,10000.0,5000.0,51,0
186,NEWBURYPORT,MA,1950,DANVERSBANK,MA,541921,1997-02-28,1997-01-01,60,1,2.0,0,0,1,0,N,Y,P I F,31000.0,24800.0,54,0
187,PROVIDENCE,RI,2907,CITIZENS BANK NATL ASSOC,RI,0,1997-07-08,1997-01-01,12,5,1.0,0,0,0,0,-,N,P I F,50000.0,25000.0,0,0
188,LAS CRUCES,NM,88012,WELLS FARGO BANK NATL ASSOC,NM,238190,2006-02-07,2006-01-01,12,20,2.0,0,20,0,1,-,N,P I F,50000.0,25000.0,23,20
189,Berkley,MI,2779,"PNC BANK, NATIONAL ASSOCIATION",DE,235510,1997-07-08,1997-01-01,12,7,1.0,0,0,0,0,-,N,P I F,40000.0,20000.0,23,0
190,Litchfield,OH,3052,"PNC BANK, NATIONAL ASSOCIATION",OH,0,1997-07-09,1997-01-01,19,2,1.0,0,0,0,0,-,N,P I F,100000.0,50000.0,0,0
191,JESUP,GA,50648,FARMERS STATE BANK,IA,0,1997-02-28,1997-01-01,16,2,1.0,0,0,0,0,N,Y,CHGOFF,50000.0,40000.0,0,0
192,Cambridge,MA,2141,THE HUNTINGTON NATIONAL BANK,OH,235110,1997-07-10,1997-01-01,12,12,1.0,0,0,0,0,-,N,P I F,50000.0,25000.0,23,0
193,GARDEN GROVE,CA,92841,BANK OF AMERICA NATL ASSOC,CA,541810,2006-02-07,2006-01-01,60,7,1.0,3,10,0,1,Y,N,P I F,50000.0,25000.0,54,7
194,WINSTON-SALEM,NC,27106,WELLS FARGO BANK NATL ASSOC,NC,0,1997-02-28,1997-01-01,120,30,1.0,0,0,0,0,N,N,P I F,136000.0,102000.0,0,0
195,Quincy,MA,2269,ASSOCIATED BANK NATL ASSOC,MA,0,1997-07-16,1997-01-01,12,25,1.0,0,0,0,0,-,N,P I F,50000.0,25000.0,0,0
196,PROVIDENCE,RI,2909,CITIZENS BANK NATL ASSOC,RI,331524,1997-07-16,1997-01-01,12,20,1.0,0,0,0,0,-,N,P I F,15000.0,7500.0,33,0
197,COVENTRY (WASHINGTON),RI,2816,CITIZENS BANK NATL ASSOC,RI,541310,1997-07-21,1997-01-01,12,7,1.0,0,0,0,0,-,N,P I F,100000.0,50000.0,54,0
198,Holden (Holden Center),MA,1520,BANK OF AMERICA NATL ASSOC,NC,624410,1997-07-21,1997-01-01,60,32,1.0,0,0,0,0,Y,N,P I F,20000.0,10000.0,62,0
199,TONAWANDA,NY,14150,MANUFACTURERS & TRADERS TR CO,NY,0,1997-02-28,1997-01-01,84,9,2.0,0,0,0,0,N,N,P I F,100000.0,75000.0,0,0
200,Holbrook,NY,2343,CAPITAL ONE NATL ASSOC,NY,0,1997-07-24,1997-01-01,12,1,1.0,0,0,0,0,-,N,P I F,25000.0,12500.0,0,0
201,Boston,MA,2119,BANK OF AMERICA NATL ASSOC,MA,0,1997-07-25,1997-01-01,12,1,1.0,0,0,0,0,-,N,P I F,100000.0,50000.0,0,0
202,Hartford,CT,6106,"TD BANK, NATIONAL ASSOCIATION",DE,311812,1997-08-26,1997-01-01,3,19,1.0,0,0,0,0,-,N,P I F,70000.0,35000.0,31,0
203,EAST PROVIDENCE,RI,2914,CITIZENS BANK NATL ASSOC,RI,442210,1997-08-27,1997-01-01,12,4,1.0,0,0,0,0,-,N,P I F,25000.0,12500.0,44,0
204,Cohasset,MN,2025,AMERICAN BANK OF THE NORTH,MN,0,1997-08-28,1997-01-01,12,1,1.0,0,0,0,0,-,N,P I F,50000.0,25000.0,0,0
205,RENO,NV,89502,NEVADA ST. DEVEL CORP,NV,561440,2006-02-07,2006-01-01,27,10,1.0,11,10,0,1,Y,N,CHGOFF,50000.0,25000.0,56,-1
206,LE SUEUR,MN,56058,FIRST FARMERS & MERCHANTS BANK,MN,0,1997-02-28,1997-01-01,149,6,1.0,0,0,0,0,N,N,P I F,100000.0,75000.0,0,0
207,Swansea (Swansea Village),MA,2777,BANK OF AMERICA NATL ASSOC,NC,541310,1997-08-29,1997-01-01,12,4,1.0,0,0,0,0,-,N,P I F,50000.0,25000.0,54,0
208,VIRGINIA BEACH,VA,23455,BANK OF AMERICA NATL ASSOC,VA,711510,2006-02-07,2006-01-01,84,1,2.0,2,1,0,1,-,N,P I F,10000.0,8500.0,71,-1
209,Holyoke,MA,1040,PEOPLE'S UNITED BANK,CT,0,1997-08-29,1997-01-01,12,30,1.0,0,0,0,0,-,N,P I F,25000.0,12500.0,0,0
210,BUFFALO,NY,14201,MANUFACTURERS & TRADERS TR CO,NY,0,1997-02-28,1997-01-01,180,1,2.0,0,0,0,0,N,N,P I F,150000.0,112500.0,0,0
211,Weston (Town of),MA,2193,BANK OF AMERICA NATL ASSOC,NC,0,1997-09-19,1997-01-01,12,10,0.0,0,0,0,0,-,N,P I F,100000.0,50000.0,0,0
212,SEATTLE,WA,98109,BANK OF AMERICA NATL ASSOC,WA,453910,2006-02-07,2006-01-01,41,1,2.0,3,4,0,1,-,N,CHGOFF,74000.0,62900.0,45,1
213,Winchester (Town of),MA,1890,BANK OF AMERICA NATL ASSOC,RI,0,1997-09-24,1997-01-01,12,2,1.0,0,0,0,0,-,N,P I F,25000.0,12500.0,0,0
214,LA CROSSE,WI,51064,PARK BANK,WI,0,1997-02-28,1997-01-01,246,1,2.0,0,0,0,0,N,N,P I F,73500.0,58800.0,0,0
215,Langhorne,PA,19047,MANUFACTURERS & TRADERS TR CO,NY,0,1997-09-26,1997-01-01,60,2,1.0,0,0,0,0,-,N,P I F,55000.0,27500.0,0,0
216,POMPANO BEACH,FL,33060,BANK OF AMERICA NATL ASSOC,NC,0,1997-02-28,1997-01-01,240,2,2.0,0,0,0,0,N,N,P I F,184000.0,138000.0,0,0
217,Hartford,CT,6010,"TD BANK, NATIONAL ASSOCIATION",DE,445310,1997-09-29,1997-01-01,12,1,1.0,0,0,0,0,-,N,P I F,20000.0,10000.0,44,0
218,Bourne,MA,2532,BANK OF AMERICA NATL ASSOC,MA,235420,1997-09-29,1997-01-01,12,7,1.0,0,0,0,0,-,N,P I F,50000.0,25000.0,23,0
219,Boston,MA,2116,BANK OF AMERICA NATL ASSOC,MA,0,1997-09-29,1997-01-01,12,50,1.0,0,0,0,0,-,N,P I F,20000.0,10000.0,0,0
220,BELLEVIEW,FL,34420,BANK OF AMERICA NATL ASSOC,NC,0,1997-02-28,1997-01-01,12,1,1.0,0,0,0,0,N,Y,CHGOFF,25000.0,20000.0,0,0
221,YULEE,FL,32097,SYNOVUS BANK,FL,0,1997-02-28,1997-01-01,297,3,2.0,0,0,0,0,N,N,P I F,330000.0,247500.0,0,0
222,Watertown (Town of),MA,2172,BANK OF AMERICA NATL ASSOC,RI,0,1997-10-09,1998-01-01,12,2,1.0,0,0,0,0,-,N,P I F,10000.0,5000.0,0,0
223,West Reading,PA,19611,MANUFACTURERS & TRADERS TR CO,PA,0,1997-10-10,1998-01-01,18,3,0.0,0,0,0,0,-,N,P I F,20000.0,10000.0,0,0
224,SANTA ROSA,CA,95401,UMPQUA BANK,CA,722110,2006-02-07,2006-01-01,60,20,2.0,0,0,0,1,N,N,CHGOFF,250000.0,187500.0,72,0
225,ROSEVILLE,CA,55113,WELLS FARGO BANK NATL ASSOC,CA,421310,1997-02-28,1997-01-01,42,10,2.0,0,0,0,0,N,Y,P I F,65000.0,52000.0,42,0
226,Wrentham (census name Wrentham,MA,2093,BANK OF AMERICA NATL ASSOC,RI,541511,1997-10-10,1998-01-01,12,5,1.0,0,0,0,0,-,N,P I F,25000.0,12500.0,54,0
227,Hartford,CT,6114,"TD BANK, NATIONAL ASSOCIATION",DE,235210,1997-10-14,1998-01-01,27,5,1.0,0,0,0,0,-,N,P I F,10000.0,5000.0,23,0
228,Brookline (Town of),MA,2146,BANK OF AMERICA NATL ASSOC,RI,0,1997-10-29,1998-01-01,12,1,1.0,0,0,0,0,-,N,P I F,5000.0,2500.0,0,0
229,MERIDEN,CT,6450,BANK OF AMERICA NATL ASSOC,CT,235510,1997-11-03,1998-01-01,12,6,1.0,0,0,0,0,-,N,P I F,100000.0,50000.0,23,0
230,AVON,IN,6001,WELLS FARGO BANK NATL ASSOC,OH,0,1997-02-28,1997-01-01,60,3,2.0,0,0,0,0,N,Y,P I F,60000.0,48000.0,0,0
231,Middletown,OH,6457,MANUFACTURERS & TRADERS TR CO,NY,0,1997-11-17,1998-01-01,12,3,1.0,0,0,0,0,-,N,P I F,15000.0,7500.0,0,0
232,CHANDLER,AZ,85225,JPMORGAN CHASE BANK NATL ASSOC,IL,337110,2006-02-07,2006-01-01,60,4,1.0,0,4,0,1,-,N,P I F,25000.0,12500.0,33,4
233,WHITE PLAINS  *102,NY,10603,HSBC BK USA NATL ASSOC,NY,0,1980-06-19,1980-01-01,120,60,2.0,0,0,0,0,N,N,CHGOFF,500000.0,450000.0,0,0
234,SEVERNA PARK,MD,21146,MANUFACTURERS & TRADERS TR CO,MD,621210,1997-02-28,1997-01-01,60,1,2.0,0,0,0,0,N,Y,P I F,35000.0,28000.0,62,0
235,Belmont (Town of),MA,2178,BANK OF AMERICA NATL ASSOC,RI,0,1997-11-28,1998-01-01,12,3,1.0,0,0,0,0,-,N,P I F,20000.0,10000.0,0,0
236,CARLSBAD,CA,92011,WESTERN COMMERCE BANK,CA,541990,2006-02-07,2006-01-01,60,2,1.0,0,2,0,1,-,N,P I F,45000.0,22500.0,54,2
237,ROCHESTER,NY,14623,MANUFACTURERS & TRADERS TR CO,NY,624410,1997-02-28,1997-01-01,240,24,1.0,2,24,0,0,N,N,P I F,218000.0,218000.0,62,22
238,WEST READING,PA,19611,VIST BANK,PA,0,1997-12-01,1998-01-01,84,46,1.0,0,0,1,0,-,N,P I F,100000.0,50000.0,0,0
239,North Haven (Town of),CT,6473,BANK OF AMERICA NATL ASSOC,RI,0,1997-12-04,1998-01-01,12,9,1.0,0,0,0,0,-,N,P I F,75000.0,37500.0,0,0
240,WEST READING,PA,19611,VIST BANK,PA,0,1997-12-04,1998-01-01,60,46,1.0,0,0,1,0,-,N,P I F,100000.0,50000.0,0,0
241,SAN DIEGO,CA,92113,CDC SMALL BUS. FINAN CORP,CA,488410,2006-02-07,2006-01-01,57,8,1.0,0,8,0,1,-,N,CHGOFF,246800.0,185100.0,48,8
242,RICHMOND HILL,NY,31324,JPMORGAN CHASE BANK NATL ASSOC,GA,0,1997-02-28,1997-01-01,60,1,1.0,0,0,0,0,N,Y,P I F,21200.0,16960.0,0,0
243,WEST READING,PA,19611,VIST BANK,PA,0,1997-12-04,1998-01-01,60,46,1.0,0,0,1,0,-,N,P I F,100000.0,50000.0,0,0
244,Lowell,MI,1851,THE HUNTINGTON NATIONAL BANK,OH,0,1997-12-08,1998-01-01,12,5,1.0,0,0,0,0,-,N,P I F,50000.0,25000.0,0,0
245,MEDFORD,OR,8055,PEOPLE'S BANK OF COMMERCE,OR,453991,1997-02-28,1997-01-01,120,4,2.0,0,0,0,0,N,Y,P I F,61500.0,49200.0,45,0
246,Blackstone,MA,1504,BANK OF AMERICA NATL ASSOC,RI,421690,1997-12-09,1998-01-01,104,1,0.0,0,0,0,0,-,N,P I F,30000.0,15000.0,42,0
247,BEAVERTON,OR,97005,U.S. BANK NATIONAL ASSOCIATION,OR,541940,2006-02-07,2006-01-01,120,5,1.0,0,5,0,1,-,N,P I F,419600.0,314700.0,54,5
248,HAWLEY,MN,56549,STATE BANK OF HAWLEY,MN,541613,2006-02-07,2006-01-01,82,1,1.0,0,1,0,2,Y,N,P I F,50000.0,25000.0,54,1
249,SOUTHWEST HARBOR,ME,4679,BAR HARBOR BANK & TRUST,ME,0,1997-02-28,1997-01-01,298,5,1.0,0,0,0,0,N,N,P I F,515000.0,386250.0,0,0
250,Braintree (Town of),MA,2184,BANK OF AMERICA NATL ASSOC,RI,512110,1998-01-15,1998-01-01,14,12,1.0,0,0,0,0,-,N,P I F,50000.0,25000.0,51,0
251,Lancaster,PA,17603,MANUFACTURERS & TRADERS TR CO,PA,0,1998-01-15,1998-01-01,12,22,1.0,0,0,0,0,-,N,P I F,80000.0,40000.0,0,0
252,DOVER,NH,3820,CITIZENS BANK NATL ASSOC,NH,311320,2006-02-07,2006-01-01,84,1,1.0,3,4,0,2,Y,N,P I F,66000.0,33000.0,31,1
253,GREAT BARRINGTON,MA,1230,BERKSHIRE BANK,MA,448140,1997-02-28,1997-01-01,60,1,2.0,0,0,0,0,N,Y,P I F,60000.0,48000.0,44,0
254,Reading,PA,19611,MANUFACTURERS & TRADERS TR CO,PA,0,1998-01-15,1998-01-01,12,6,0.0,0,0,0,0,-,N,P I F,100000.0,50000.0,0,0
255,Reading,PA,19606,MANUFACTURERS & TRADERS TR CO,PA,0,1998-01-20,1998-01-01,61,7,1.0,0,0,0,0,-,N,P I F,100000.0,50000.0,0,0
256,SPRINGFIELD,MO,65804,U.S. BANK NATIONAL ASSOCIATION,MO,541110,1997-02-28,1997-01-01,84,2,2.0,0,0,0,0,N,Y,P I F,30000.0,24000.0,54,0
257,BOSTON,MA,2109,CITIZENS BANK NATL ASSOC,RI,0,1998-01-22,1998-01-01,12,6,1.0,0,0,0,0,-,N,P I F,50000.0,25000.0,0,0
258,CONWAY,AR,72032,BANK OF AMERICA NATL ASSOC,AR,0,1997-02-28,1997-01-01,120,25,2.0,0,0,0,0,N,N,P I F,128000.0,76800.0,0,0
259,Acton,MA,1720,BANK OF AMERICA NATL ASSOC,CA,541511,1998-01-30,1998-01-01,12,5,1.0,0,0,0,0,-,N,P I F,75000.0,37500.0,54,0
260,Rutland (census name for Rutla,MA,1543,BANK OF AMERICA NATL ASSOC,RI,0,1998-02-05,1998-01-01,127,4,0.0,0,0,0,0,Y,N,P I F,75000.0,37500.0,0,0
261,Springfield,MO,1103,LIBERTY BANK,MO,448310,1998-02-05,1998-01-01,58,3,1.0,0,0,0,0,-,N,P I F,100000.0,50000.0,44,0
262,NASHVILLE,TN,37210,BANK OF AMERICA NATL ASSOC,TN,0,1997-02-28,1997-01-01,12,12,1.0,0,0,0,0,N,N,P I F,200000.0,150000.0,0,0
263,TORRINGTON,CT,6790,BANK OF AMERICA NATL ASSOC,CT,0,1998-02-09,1998-01-01,44,1,1.0,0,0,0,0,Y,N,P I F,15000.0,7500.0,0,0
264,TOLLESON,AZ,85353,JPMORGAN CHASE BANK NATL ASSOC,IL,484121,2006-02-07,2006-01-01,32,1,1.0,1,1,0,1,Y,N,CHGOFF,45000.0,22500.0,48,0
265,OGDEN,UT,84403,ZIONS FIRST NATIONAL BANK,UT,0,1997-02-28,1997-01-01,240,1,1.0,10,10,1,0,N,N,P I F,363000.0,363000.0,0,0
266,Braintree (Town of),MA,2184,BANK OF AMERICA NATL ASSOC,RI,0,1998-02-10,1998-01-01,45,5,1.0,0,0,0,0,-,N,P I F,40000.0,20000.0,0,0
267,Haverhill,MA,1830,"TD BANK, NATIONAL ASSOCIATION",DE,454110,1998-02-11,1998-01-01,72,2,1.0,0,0,0,0,-,N,P I F,55000.0,27500.0,45,0
268,BROOKLYN,NY,11231,JPMORGAN CHASE BANK NATL ASSOC,IL,0,1997-02-28,1997-01-01,85,25,1.0,0,0,0,0,N,N,P I F,250000.0,187500.0,0,0
269,BOSTON,MA,2132,CITIZENS BANK NATL ASSOC,RI,421940,1998-02-11,1998-01-01,48,2,0.0,0,0,0,0,-,N,P I F,60000.0,30000.0,42,0
270,Murray,UT,84107,MOUNTAIN AMERICA FCU,UT,0,1998-02-13,1998-01-01,60,20,1.0,0,0,0,0,-,N,P I F,100000.0,50000.0,0,0
271,COLO. SPRINGS,CO,80918,PIKES PEAK REGIONAL DEVEL CORP,CO,0,1997-02-28,1997-01-01,300,3,2.0,0,0,0,0,N,N,P I F,365000.0,273750.0,0,0
272,Logan,UT,84321,"PNC BANK, NATIONAL ASSOCIATION",UT,421910,1998-02-17,1998-01-01,120,1,1.0,0,0,0,0,-,N,P I F,50000.0,25000.0,42,0
273,Phoenix,AZ,85007,WELLS FARGO BANK NATL ASSOC,CA,322291,1998-02-23,1998-01-01,84,20,1.0,0,0,0,0,-,N,P I F,50000.0,25000.0,32,0
274,Bridgewater (census name for B,MA,2324,BANK OF AMERICA NATL ASSOC,RI,235210,1998-02-24,1998-01-01,12,4,0.0,0,0,0,0,-,N,P I F,50000.0,25000.0,23,0
275,FARGO,ND,58102,DAKOTA CERT. DEVEL CO,ND,561450,1997-02-28,1997-01-01,60,8,1.0,0,0,0,0,N,Y,P I F,60000.0,48000.0,56,0
276,Denver,CO,80221,KEYBANK NATIONAL ASSOCIATION,OH,0,1998-02-25,1998-01-01,84,18,1.0,0,0,0,0,-,N,P I F,27500.0,13750.0,0,0
277,Quincy,MA,2171,ASSOCIATED BANK NATL ASSOC,MA,422320,1998-03-02,1998-01-01,31,7,0.0,0,0,0,0,-,N,P I F,75000.0,37500.0,42,0
278,LAKEVILLE,MN,55044,U.S. BANK NATIONAL ASSOCIATION,MN,0,1997-02-28,1997-01-01,58,5,1.0,0,0,0,0,N,Y,P I F,25020.0,20016.0,0,0
279,Rochester,NY,14607,MANUFACTURERS & TRADERS TR CO,NY,235310,1998-03-05,1998-01-01,12,2,1.0,0,0,0,0,-,N,P I F,100000.0,50000.0,23,0
280,Temple,TX,19560,COMPASS BANK,AL,0,1998-03-06,1998-01-01,58,7,1.0,0,0,0,0,-,N,P I F,35000.0,17500.0,0,0
281,WEST JORDAN,UT,84088,ZIONS FIRST NATIONAL BANK,UT,331521,1997-02-28,1997-01-01,240,22,1.0,8,8,0,0,N,N,P I F,248000.0,248000.0,33,0
282,Lincoln (census name for Linco,ME,4457,KEYBANK NATIONAL ASSOCIATION,OH,621310,1998-03-06,1998-01-01,120,2,0.0,0,0,0,0,-,N,P I F,50000.0,25000.0,62,0
283,BURT,IA,50522,EMPIRE ST. CERT. DEVEL CORP,IA,112210,1997-02-28,1997-01-01,112,2,1.0,0,0,0,0,N,N,P I F,262000.0,196500.0,11,0
284,York,PA,3909,MANUFACTURERS & TRADERS TR CO,NY,0,1998-03-06,1998-01-01,120,9,0.0,0,0,0,0,-,N,P I F,48000.0,24000.0,0,0
285,Boston,MA,2134,BANK OF AMERICA NATL ASSOC,MA,812320,1998-03-09,1998-01-01,84,7,1.0,0,0,0,0,-,N,P I F,17000.0,8500.0,81,0
286,PORTLAND,OR,4101,U.S. BANK NATIONAL ASSOCIATION,OR,0,1997-03-03,1997-01-01,240,10,1.0,2,10,0,0,N,N,P I F,210000.0,210000.0,0,8
287,Portland,OR,4101,KEYBANK NATIONAL ASSOCIATION,OR,448130,1998-03-10,1998-01-01,60,1,0.0,0,0,0,0,-,N,P I F,20000.0,10000.0,44,0
288,SCHAUMBURG,IL,60193,JPMORGAN CHASE BANK NATL ASSOC,IL,0,1997-02-28,1997-01-01,84,30,1.0,0,0,0,0,N,N,P I F,200000.0,150000.0,0,0
289,Kingston,NY,12401,KEYBANK NATIONAL ASSOCIATION,OH,0,1998-03-10,1998-01-01,12,15,1.0,0,0,0,0,-,N,P I F,30000.0,15000.0,0,0
290,HASBROUCK HEIGHTS,NJ,7606,BANK OF AMERICA NATL ASSOC,IL,441120,1997-02-28,1997-01-01,36,2,1.0,0,0,0,0,-,N,P I F,25000.0,12500.0,44,0
291,East Bridgewater,MA,2333,BANK OF AMERICA NATL ASSOC,RI,0,1998-03-10,1998-01-01,38,12,1.0,0,0,0,0,-,N,P I F,25000.0,12500.0,0,0
292,Saugerties,NY,12477,KEYBANK NATIONAL ASSOCIATION,NY,0,1998-03-12,1998-01-01,84,6,0.0,0,0,0,0,-,N,P I F,85000.0,42500.0,0,0
293,NEW YORK,NY,10022,JPMORGAN CHASE BANK NATL ASSOC,NY,541820,1997-02-28,1997-01-01,36,4,1.0,0,0,0,0,Y,N,P I F,35000.0,17500.0,54,0
294,Kingston,NY,12401,KEYBANK NATIONAL ASSOCIATION,OH,0,1998-03-13,1998-01-01,36,15,1.0,0,0,0,0,-,N,P I F,36000.0,18000.0,0,0
295,BATESVILLE,AR,38606,BANK OF AMERICA NATL ASSOC,AR,0,1997-02-28,1997-01-01,84,10,1.0,0,0,0,0,N,Y,P I F,90000.0,72000.0,0,0
296,Scotia,NY,12302,CAPITAL ONE NATL ASSOC,NY,0,1998-03-26,1998-01-01,60,3,0.0,0,0,0,0,-,N,P I F,25000.0,12500.0,0,0
297,COLO. SPRINGS,CO,80907,PIKES PEAK REGIONAL DEVEL CORP,CO,0,1997-02-28,1997-01-01,300,3,2.0,0,0,0,0,N,N,P I F,419000.0,314250.0,0,0
298,Pound Ridge,NY,10576,KEYBANK NATIONAL ASSOCIATION,OH,421990,1998-03-26,1998-01-01,12,2,1.0,0,0,0,0,-,N,P I F,100000.0,50000.0,42,0
299,Milton,VT,5468,BMO HARRIS BK NATL ASSOC,IL,441120,1998-03-26,1998-01-01,36,10,1.0,0,0,0,0,-,N,P I F,100000.0,50000.0,44,0
300,JACKSONVILLE,FL,28546,BANK OF AMERICA NATL ASSOC,FL,624310,1997-02-28,1997-01-01,73,214,1.0,0,0,0,0,N,N,P I F,1000000.0,750000.0,62,0
301,WILLIAMSTOWN,NJ,8094,"TD BANK, NATIONAL ASSOCIATION",VT,0,1997-02-28,1997-01-01,36,7,1.0,0,0,0,0,-,N,P I F,25000.0,20000.0,0,0
302,SOUTH PORTLAND,ME,4106,BANK OF AMERICA NATL ASSOC,ME,233320,1998-04-02,1998-01-01,42,2,0.0,0,0,0,0,Y,N,P I F,99000.0,49500.0,23,0
303,BRISTOL,RI,2809,CITIZENS BANK NATL ASSOC,RI,0,1998-04-03,1998-01-01,47,20,1.0,0,0,0,0,Y,N,P I F,25000.0,12500.0,0,0
304,RICHMOND,VA,23224,BANK OF AMERICA NATL ASSOC,VA,0,1997-02-28,1997-01-01,84,9,2.0,0,0,0,0,N,Y,P I F,100000.0,80000.0,0,0
305,Westwood,KS,2090,BANK OF AMERICA NATL ASSOC,NJ,0,1998-04-03,1998-01-01,12,2,0.0,0,0,0,0,-,N,P I F,20000.0,10000.0,0,0
306,NEW YORK,NY,10001,JPMORGAN CHASE BANK NATL ASSOC,NY,0,1998-04-07,1998-01-01,12,10,1.0,0,0,0,0,-,N,P I F,100000.0,50000.0,0,0
307,NEW YORK,NY,10014,JPMORGAN CHASE BANK NATL ASSOC,NY,512110,1997-02-28,1997-01-01,36,1,1.0,0,0,0,0,Y,N,P I F,35000.0,17500.0,51,0
308,Holbrook,NY,11741,CAPITAL ONE NATL ASSOC,NY,454312,1998-04-08,1998-01-01,60,4,1.0,0,0,0,0,-,N,P I F,23000.0,11500.0,45,0
309,EDINBURG,TX,78539,LONE STAR NATIONAL BANK,TX,0,1997-02-28,1997-01-01,12,17,1.0,0,0,0,0,N,Y,P I F,100000.0,80000.0,0,0
310,West Seneca,NY,14224,MANUFACTURERS & TRADERS TR CO,NY,421990,1998-04-10,1998-01-01,84,8,0.0,0,0,0,0,-,N,P I F,50000.0,25000.0,42,0
311,UNION GROVE,WI,53182,COMMUNITY STATE BANK,WI,421810,1997-02-28,1997-01-01,84,6,1.0,0,0,0,0,N,Y,P I F,100000.0,80000.0,42,0
312,West Seneca,NY,14224,MANUFACTURERS & TRADERS TR CO,NY,421990,1998-04-10,1998-01-01,60,8,0.0,0,0,0,0,-,N,P I F,15000.0,7500.0,42,0
313,Fulton,NY,13069,MANUFACTURERS & TRADERS TR CO,NY,0,1998-04-10,1998-01-01,60,1,0.0,0,0,0,0,-,N,P I F,28500.0,14250.0,0,0
314,Cape Elizabeth (Town of),ME,4107,KEYBANK NATIONAL ASSOCIATION,OH,0,1998-04-13,1998-01-01,12,25,1.0,0,0,0,0,-,N,P I F,100000.0,50000.0,0,0
315,CRANSTON,RI,2910,CITIZENS BANK NATL ASSOC,RI,0,1998-04-15,1998-01-01,12,4,1.0,0,0,0,0,Y,N,P I F,75000.0,37500.0,0,0
316,CHESTERTOWN,NY,21620,"TD BANK, NATIONAL ASSOCIATION",MD,0,1997-02-28,1997-01-01,60,2,2.0,0,0,0,0,N,Y,P I F,35000.0,28000.0,0,0
317,Tuckahoe,NY,10707,"CITIBANK, N.A.",OH,0,1998-04-17,1998-01-01,60,3,0.0,0,0,0,0,-,N,P I F,20000.0,10000.0,0,0
318,Newburgh,NY,12550,KEYBANK NATIONAL ASSOCIATION,NY,235110,1998-04-17,1998-01-01,11,7,1.0,0,0,0,0,-,N,CHGOFF,45000.0,22500.0,23,0
319,JUNCTION CITY,KS,66441,INTRUST BANK NATL ASSOC,KS,541511,1997-02-28,1997-01-01,84,3,2.0,0,0,0,0,N,Y,P I F,35000.0,28000.0,54,0
320,Wilmington,NC,5361,CAPITAL ONE NATL ASSOC,VA,0,1998-04-17,1998-01-01,60,17,0.0,0,0,0,0,-,N,P I F,25000.0,12500.0,0,0
321,NEW YORK,NY,10044,JPMORGAN CHASE BANK NATL ASSOC,NY,0,1997-02-28,1997-01-01,48,1,1.0,0,0,0,0,-,N,P I F,20000.0,10000.0,0,0
322,Clyde,TX,14433,"FIRST BANK TEXAS, SSB",OH,0,1998-04-17,1998-01-01,60,10,0.0,0,0,0,0,-,N,P I F,50000.0,25000.0,0,0
323,WHITE PLAINS,NY,10603,JPMORGAN CHASE BANK NATL ASSOC,NY,0,1997-02-28,1997-01-01,36,1,1.0,0,0,0,0,Y,N,P I F,15000.0,7500.0,0,0
324,Cape Elizabeth (Town of),ME,4107,KEYBANK NATIONAL ASSOCIATION,OH,0,1998-04-17,1998-01-01,48,25,1.0,0,0,0,0,-,N,P I F,50000.0,25000.0,0,0
325,PORTSMOUTH,NH,2871,CITIZENS BANK NATL ASSOC,NH,0,1997-02-28,1997-01-01,12,7,1.0,0,0,0,0,-,N,P I F,50000.0,25000.0,0,0
326,Pepperell,MA,1463,BANK OF AMERICA NATL ASSOC,RI,0,1998-04-28,1998-01-01,84,1,1.0,0,0,0,0,-,N,P I F,25000.0,12500.0,0,0
327,Boston,MA,2124,BANK OF AMERICA NATL ASSOC,MA,0,1998-04-30,1998-01-01,134,4,1.0,0,0,0,0,-,N,P I F,50000.0,25000.0,0,0
328,GOUVERNEUR,NY,13642,COMMUNITY BANK NATL ASSOC,NY,722320,2006-02-07,2006-01-01,84,7,2.0,0,0,0,2,N,N,P I F,47000.0,39950.0,72,0
329,Marcellus,NY,13108,KEYBANK NATIONAL ASSOCIATION,OH,0,1998-05-01,1998-01-01,60,5,0.0,0,0,0,0,-,N,P I F,30000.0,15000.0,0,0
330,EDWARDS,CO,61528,U.S. BANK NATIONAL ASSOCIATION,CO,811310,2006-02-07,2006-01-01,240,4,1.0,2,2,0,2,-,N,P I F,161000.0,161000.0,81,0
331,LEWISTOWN,MT,83501,WELLS FARGO BANK NATL ASSOC,MT,811112,1997-02-28,1997-01-01,180,12,2.0,0,0,0,2,N,N,P I F,241000.0,180750.0,81,0
332,CONRAD,MT,59425,STOCKMAN BANK OF MONTANA,MT,722410,1997-02-28,1997-01-01,180,6,1.0,0,0,0,2,N,Y,P I F,85000.0,68000.0,72,0
333,South Burlington,VT,5403,PEOPLE'S UNITED BANK,CT,0,1998-05-06,1998-01-01,60,7,1.0,0,0,0,0,-,N,P I F,63000.0,31500.0,0,0
334,DALLAS,TX,75243,JPMORGAN CHASE BANK NATL ASSOC,TX,0,1997-02-28,1997-01-01,84,4,1.0,0,0,0,0,N,Y,P I F,40000.0,32000.0,0,0
335,Milton,VT,5468,BMO HARRIS BK NATL ASSOC,IL,321920,1998-05-08,1998-01-01,15,6,1.0,0,0,0,0,-,N,CHGOFF,25000.0,12500.0,32,0
336,Saratoga Springs,UT,12866,MOUNTAIN AMERICA FCU,UT,0,1998-05-08,1998-01-01,84,3,1.0,0,0,0,0,-,N,P I F,65000.0,32500.0,0,0
337,BOISE,ID,83703,WELLS FARGO BANK NATL ASSOC,ID,0,1997-02-28,1997-01-01,84,8,2.0,0,0,0,0,N,Y,P I F,52500.0,42000.0,0,0
338,Orchard Park,NY,14127,MANUFACTURERS & TRADERS TR CO,NY,624410,1998-05-08,1998-01-01,120,4,0.0,0,0,0,0,-,N,P I F,32000.0,16000.0,62,0
339,ROSWELL,GA,30075,BRANCH BK. & TR CO,GA,0,1997-02-28,1997-01-01,288,9,1.0,0,0,0,0,-,N,P I F,625000.0,468750.0,0,0
340,Sodus,NY,14551,KEYBANK NATIONAL ASSOCIATION,OH,112920,1998-05-13,1998-01-01,180,4,0.0,0,0,0,0,-,N,P I F,75000.0,37500.0,11,0
341,Worcester,MA,1603,"TD BANK, NATIONAL ASSOCIATION",DE,451211,1998-05-15,1998-01-01,79,2,1.0,0,0,0,0,-,N,P I F,10000.0,5000.0,45,0
342,IRVING,TX,75062,JPMORGAN CHASE BANK NATL ASSOC,TX,336212,1997-02-28,1997-01-01,84,2,1.0,0,0,0,0,-,N,P I F,250000.0,187500.0,33,0
343,COLUMBUS,OH,43223,JPMORGAN CHASE BANK NATL ASSOC,OH,422720,1997-02-28,1997-01-01,60,3,1.0,0,0,0,0,-,N,P I F,20000.0,10000.0,42,0
344,Watertown (Town of),MA,2172,BANK OF AMERICA NATL ASSOC,RI,0,1998-05-18,1998-01-01,12,3,1.0,0,0,0,2,-,N,P I F,10000.0,5000.0,0,0
345,ANAHEIM,CA,92805,WELLS FARGO BANK NATL ASSOC,CA,561730,2006-02-07,2006-01-01,240,45,1.0,20,0,0,1,-,N,P I F,401000.0,401000.0,56,-20
346,LINCOLN PARK,MI,7035,CITIZENS BANK NATL ASSOC,RI,235410,1997-02-28,1997-01-01,53,2,2.0,0,0,1,0,-,N,CHGOFF,50100.0,40080.0,23,0
347,Bethlehem,PA,18018,MANUFACTURERS & TRADERS TR CO,PA,0,1998-05-19,1998-01-01,39,4,1.0,0,0,0,0,-,N,P I F,100000.0,50000.0,0,0
348,Albany,NY,12203,KEYBANK NATIONAL ASSOCIATION,NY,541110,1998-05-20,1998-01-01,60,1,1.0,0,0,0,0,-,N,P I F,15000.0,7500.0,54,0
349,ELLICOTT CITY,MD,21043,MANUFACTURERS & TRADERS TR CO,MD,0,1997-02-28,1997-01-01,6,6,1.0,0,0,0,0,Y,N,P I F,550000.0,495000.0,0,0
350,Barrington,IL,2806,BARRINGTON BK & TR COMPANY NAT,IL,235910,1998-05-20,1998-01-01,12,20,1.0,0,0,0,0,-,N,P I F,100000.0,50000.0,23,0
351,BATTLE MOUNTAIN,NV,89820,BANK OF AMERICA NATL ASSOC,NV,713950,1997-02-28,1997-01-01,255,14,2.0,0,0,0,0,N,N,CHGOFF,665000.0,498750.0,71,0
352,West Sand Lake,NY,12196,KEYBANK NATIONAL ASSOCIATION,OH,445310,1998-05-21,1998-01-01,60,4,0.0,0,0,0,0,-,N,P I F,45000.0,22500.0,44,0
353,Amherst,NY,3031,MANUFACTURERS & TRADERS TR CO,OH,333314,1998-05-26,1998-01-01,60,18,1.0,0,0,0,0,N,N,P I F,100000.0,50000.0,33,0
354,ROCK HILL,SC,29732,BANK OF AMERICA NATL ASSOC,SC,811111,2006-02-07,2006-01-01,55,1,2.0,0,0,1,1,N,N,CHGOFF,149000.0,126650.0,81,0
355,Bethlehem,PA,18018,MANUFACTURERS & TRADERS TR CO,PA,0,1998-05-26,1998-01-01,12,4,1.0,0,0,0,0,Y,N,P I F,100000.0,50000.0,0,0
356,South China,ME,4358,KEYBANK NATIONAL ASSOCIATION,OH,448120,1998-05-27,1998-01-01,60,2,1.0,0,0,0,0,N,N,P I F,30000.0,15000.0,44,0
357,Nashua,NH,3060,"TD BANK, NATIONAL ASSOCIATION",DE,0,1998-05-28,1998-01-01,60,1,2.0,0,0,0,0,N,N,P I F,20000.0,10000.0,0,0
358,Weymouth (Town of),MA,2188,BANK OF AMERICA NATL ASSOC,RI,0,1998-05-29,1998-01-01,12,1,2.0,0,0,0,0,Y,N,P I F,40000.0,20000.0,0,0
359,South China,ME,4358,KEYBANK NATIONAL ASSOCIATION,OH,448120,1998-06-01,1998-01-01,60,2,2.0,0,0,0,0,Y,N,P I F,20000.0,10000.0,44,0
360,Niskayuna (Town of),NY,12309,KEYBANK NATIONAL ASSOCIATION,OH,235410,1998-06-01,1998-01-01,12,1,1.0,0,0,0,0,Y,N,P I F,30000.0,15000.0,23,0
361,Arlington (Town of),MA,2174,BANK OF AMERICA NATL ASSOC,NC,451140,1998-06-02,1998-01-01,133,10,1.0,0,0,0,0,-,N,P I F,25000.0,12500.0,45,0
362,Clifton Park,NY,12065,KEYBANK NATIONAL ASSOCIATION,OH,0,1998-06-04,1998-01-01,12,9,1.0,0,0,0,0,Y,N,P I F,100000.0,50000.0,0,0
363,Boston,MA,2136,BANK OF AMERICA NATL ASSOC,MA,233320,1998-06-05,1998-01-01,12,3,2.0,0,0,0,0,Y,N,P I F,30000.0,15000.0,23,0
364,ORLANDO,FL,32822,BANK OF AMERICA NATL ASSOC,FL,811121,2006-02-07,2006-01-01,95,1,2.0,0,1,0,1,-,N,CHGOFF,105000.0,89250.0,81,1
365,North Branch,MN,12766,ASSOCIATED BANK NATL ASSOC,WI,454311,1998-06-12,1998-01-01,35,2,2.0,0,0,0,0,N,N,CHGOFF,23000.0,11500.0,45,0
366,TRAVERSE CITY,MI,49684,THE HUNTINGTON NATIONAL BANK,MI,541512,2006-02-07,2006-01-01,12,10,1.0,0,0,0,1,Y,N,P I F,1000000.0,750000.0,54,0
367,Cheektowaga (Town of),NY,14223,KEYBANK NATIONAL ASSOCIATION,OH,0,1998-06-12,1998-01-01,60,1,2.0,0,0,0,0,Y,N,P I F,37000.0,18500.0,0,0
368,Buffalo,NY,14211,MANUFACTURERS & TRADERS TR CO,NY,541213,1998-06-15,1998-01-01,60,1,2.0,0,0,0,0,Y,N,P I F,10000.0,5000.0,54,0
369,Buffalo,NY,14211,MANUFACTURERS & TRADERS TR CO,NY,541213,1998-06-15,1998-01-01,84,1,2.0,0,0,0,0,N,N,P I F,10000.0,5000.0,54,0
370,Orchard Park,NY,14127,MANUFACTURERS & TRADERS TR CO,NY,561730,1998-06-17,1998-01-01,84,4,1.0,0,0,0,0,N,N,P I F,23000.0,11500.0,56,0
371,Chicopee,MA,1020,"TD BANK, NATIONAL ASSOCIATION",DE,0,1998-06-18,1998-01-01,12,15,1.0,0,0,0,0,Y,N,P I F,100000.0,50000.0,0,0
372,Boston,MA,2111,BANK OF AMERICA NATL ASSOC,MA,0,1998-06-19,1998-01-01,59,1,1.0,0,0,0,0,Y,N,P I F,25000.0,12500.0,0,0
373,MUSKEGON,MI,49444,MICHIGAN COMMERCE BANK,MI,621111,2006-02-07,2006-01-01,5,4,1.0,2,4,0,1,Y,N,CHGOFF,25000.0,12500.0,62,2
374,Mexico,MO,13114,COMMERCE BANK,MO,444130,1998-06-23,1998-01-01,62,9,2.0,0,0,0,0,Y,N,P I F,25000.0,12500.0,44,0
375,OCEAN CITY,NJ,21842,"PNC BANK, NATIONAL ASSOCIATION",DE,451110,2006-02-07,2006-01-01,57,5,1.0,4,5,0,1,-,N,CHGOFF,30000.0,15000.0,45,1
376,Atkinson,NH,3811,BANK OF AMERICA NATL ASSOC,RI,0,1998-06-23,1998-01-01,57,2,2.0,0,0,0,0,Y,N,P I F,35000.0,17500.0,0,0
377,DECATUR,GA,35601,BANK OF AMERICA NATL ASSOC,AL,713940,2006-02-07,2006-01-01,12,3,2.0,3,0,0,1,Y,N,P I F,60800.0,30400.0,71,-3
378,South Portland,ME,4106,"TD BANK, NATIONAL ASSOCIATION",DE,624410,1998-06-24,1998-01-01,120,9,1.0,0,0,0,0,N,N,P I F,65000.0,32500.0,62,0
379,BELGRADE,MT,59714,FLATHEAD BANK OF BIGFORK,MT,333131,2006-02-07,2006-01-01,12,28,1.0,0,0,0,2,Y,N,P I F,333330.0,299997.0,33,0
380,Boothbay Harbor,ME,4538,KEYBANK NATIONAL ASSOCIATION,OH,0,1998-06-25,1998-01-01,12,1,2.0,0,0,0,0,Y,N,P I F,15000.0,7500.0,0,0
381,LACEY,WA,98513,BANK OF AMERICA NATL ASSOC,WA,541940,1998-06-25,1998-01-01,72,2,2.0,0,0,0,0,N,N,P I F,100000.0,50000.0,54,0
382,Rockland,ME,14841,KEYBANK NATIONAL ASSOCIATION,OH,0,1998-06-29,1998-01-01,13,2,1.0,0,0,0,0,Y,N,CHGOFF,85000.0,42500.0,0,0
383,Brocton,NY,14716,KEYBANK NATIONAL ASSOCIATION,OH,0,1998-06-29,1998-01-01,84,1,1.0,0,0,0,0,N,N,P I F,40000.0,20000.0,0,0
384,ALBANY,NY,12205,BANK OF AMERICA NATL ASSOC,NY,0,1998-06-29,1998-01-01,84,10,2.0,0,0,1,0,N,N,P I F,100000.0,50000.0,0,0
385,RIDGELAND,MS,39157,TRUSTMARK NATIONAL BANK,MS,541613,2006-02-07,2006-01-01,68,1,2.0,1,1,0,1,-,N,CHGOFF,5000.0,4250.0,54,0
386,Rochester,NY,14626,MANUFACTURERS & TRADERS TR CO,NY,0,1998-06-29,1998-01-01,36,23,2.0,0,0,0,0,N,N,P I F,25000.0,12500.0,0,0
387,BOSTON,MA,2111,CITIZENS BANK NATL ASSOC,RI,722110,2006-02-07,2006-01-01,84,11,2.0,0,0,0,1,N,N,P I F,450000.0,337500.0,72,0
388,Hudson,WI,12534,ASSOCIATED BANK NATL ASSOC,WI,454311,1998-06-29,1998-01-01,60,7,1.0,0,0,0,0,Y,N,P I F,100000.0,50000.0,45,0
389,Hudson,WI,12534,ASSOCIATED BANK NATL ASSOC,WI,454311,1998-06-30,1998-01-01,60,7,1.0,0,0,0,0,N,N,P I F,60000.0,30000.0,45,0
390,Brocton,NY,14716,KEYBANK NATIONAL ASSOCIATION,OH,0,1998-06-30,1998-01-01,60,1,1.0,0,0,0,0,Y,N,P I F,10000.0,5000.0,0,0
391,Fairbanks,AK,99709,KEYBANK NATIONAL ASSOCIATION,OH,235210,1998-06-30,1998-01-01,6,10,1.0,0,0,0,0,Y,N,P I F,66500.0,33250.0,23,0
392,Spencerport,NY,14559,MANUFACTURERS & TRADERS TR CO,NY,0,1998-07-02,1998-01-01,60,3,2.0,0,0,0,0,N,N,P I F,25000.0,12500.0,0,0
393,PORTLAND,OR,4102,U.S. BANK NATIONAL ASSOCIATION,OR,0,1998-07-07,1998-01-01,48,2,2.0,0,0,0,0,N,N,P I F,48000.0,24000.0,0,0
394,PLEASANT GROVE,UT,84062,ZIONS FIRST NATIONAL BANK,UT,531390,2006-02-07,2006-01-01,54,5,1.0,5,5,0,2,Y,N,CHGOFF,30000.0,15000.0,53,0
395,LAS VEGAS,NV,89147,BANK OF AMERICA NATL ASSOC,NV,541350,2006-02-07,2006-01-01,84,1,1.0,0,1,0,2,Y,N,P I F,10000.0,5000.0,54,1
396,CICERO,NY,13039,CITIZENS BANK NATL ASSOC,NY,0,1998-07-17,1998-01-01,84,6,1.0,0,0,0,0,N,N,P I F,25000.0,12500.0,0,0
397,East Merrimack,NH,3054,KEYBANK NATIONAL ASSOCIATION,OH,0,1998-07-17,1998-01-01,12,5,1.0,0,0,0,0,Y,N,P I F,100000.0,50000.0,0,0
398,ALLENTOWN,PA,18104,"PNC BANK, NATIONAL ASSOCIATION",PA,524210,2006-02-07,2006-01-01,120,3,1.0,3,3,0,2,-,N,P I F,578500.0,433875.0,52,0
399,HUGHSON,CA,95326,SUCCESS CAP. EXPANSION & DEVEL,CA,722211,2006-02-07,2006-01-01,123,1,2.0,5,6,1,1,-,N,P I F,177000.0,132750.0,72,1
400,Buffalo,NY,14211,MANUFACTURERS & TRADERS TR CO,NY,444130,1998-07-17,1998-01-01,60,5,2.0,0,0,1,0,N,N,P I F,20000.0,10000.0,44,0
401,CLEVELAND,OH,64734,CITIZENS BANK NATL ASSOC,OH,238990,2006-02-07,2006-01-01,73,6,1.0,0,6,0,1,-,N,P I F,25000.0,12500.0,23,6
402,ORCHARD PARK,NY,14127,MANUFACTURERS & TRADERS TR CO,NY,0,1998-07-17,1998-01-01,82,6,2.0,0,0,0,0,Y,N,P I F,250000.0,125000.0,0,0
403,LYNBROOK,NY,11563,BANK OF AMERICA NATL ASSOC,NY,722110,2006-02-07,2006-01-01,60,3,2.0,4,3,0,1,-,N,CHGOFF,5000.0,4250.0,72,-1
404,Boston,MA,2124,BANK OF AMERICA NATL ASSOC,MA,0,1998-07-17,1998-01-01,12,5,1.0,0,0,0,0,Y,N,P I F,60000.0,30000.0,0,0
405,East Merrimack,NH,3054,KEYBANK NATIONAL ASSOCIATION,OH,0,1998-09-10,1998-01-01,12,5,1.0,0,0,0,0,Y,N,P I F,100000.0,50000.0,0,0
406,MOUNTVILLE,PA,17554,"COMMERCE BANK, A DIVISION OF",PA,0,1980-06-27,1980-01-01,120,57,2.0,0,0,0,0,N,N,CHGOFF,600000.0,499998.0,0,0
407,KENNEBUNK (CENSUS NAME FO,ME,4043,KEYBANK NATIONAL ASSOCIATION,OH,0,1998-08-18,1998-01-01,48,3,1.0,0,0,0,0,N,N,P I F,80000.0,40000.0,0,0
408,Cobleskill,NY,12043,KEYBANK NATIONAL ASSOCIATION,OH,0,1998-09-11,1998-01-01,60,5,2.0,0,0,0,0,Y,N,P I F,100000.0,50000.0,0,0
409,BUFFALO,NY,14213,MANUFACTURERS & TRADERS TR CO,NY,0,1998-08-03,1998-01-01,84,3,2.0,0,0,0,0,Y,N,P I F,76500.0,38250.0,0,0
410,SLIDELL,LA,70458,JPMORGAN CHASE BANK NATL ASSOC,LA,722110,2006-02-07,2006-01-01,60,40,2.0,40,0,0,0,-,N,P I F,120000.0,102000.0,72,-40
411,Albany,NY,12208,KEYBANK NATIONAL ASSOCIATION,NY,0,1998-08-07,1998-01-01,144,2,2.0,0,0,1,0,N,N,P I F,95000.0,47500.0,0,0
412,SEATTLE,WA,98168,BANK OF AMERICA NATL ASSOC,WA,811121,2006-02-07,2006-01-01,84,4,1.0,0,4,0,2,Y,N,P I F,25000.0,12500.0,81,4
413,OAKLAND,CA,94601,WELLS FARGO BANK NATL ASSOC,CA,445110,2006-02-07,2006-01-01,83,6,1.0,0,6,0,1,Y,N,P I F,30000.0,15000.0,44,6
414,Portland,OR,1041,KEYBANK NATIONAL ASSOCIATION,OR,0,1998-08-18,1998-01-01,84,3,1.0,0,0,0,0,Y,N,P I F,50000.0,25000.0,0,0
415,Scotia,NY,12302,CAPITAL ONE NATL ASSOC,NY,621310,1998-08-25,1998-01-01,60,5,2.0,0,0,0,0,Y,N,P I F,50000.0,25000.0,62,0
416,ST. JOHN,IN,58369,CITIZENS COMMUNITY CU,ND,113310,2006-02-07,2006-01-01,46,11,1.0,1,12,0,2,-,N,CHGOFF,53000.0,26500.0,11,11
417,Fairport,NY,14450,MANUFACTURERS & TRADERS TR CO,NY,0,1998-08-26,1998-01-01,18,1,1.0,0,0,0,0,N,N,CHGOFF,25000.0,12500.0,0,0
418,SAFETY HARBOR,FL,34695,BANK OF AMERICA NATL ASSOC,NC,812112,2006-02-07,2006-01-01,120,4,1.0,4,0,0,2,-,N,P I F,104000.0,88400.0,81,-4
419,NORCROSS,GA,30093,BANK OF AMERICA NATL ASSOC,GA,811192,2006-02-07,2006-01-01,240,1,1.0,4,0,0,1,-,N,P I F,1197000.0,1197000.0,81,-4
420,Amherst,NY,3031,MANUFACTURERS & TRADERS TR CO,OH,0,1998-08-27,1998-01-01,60,1,2.0,0,0,0,0,N,N,P I F,50000.0,25000.0,0,0
421,Dedham (Town of),MA,2026,BANK OF AMERICA NATL ASSOC,RI,0,1998-08-27,1998-01-01,12,3,1.0,0,0,1,0,Y,N,P I F,50000.0,25000.0,0,0
422,MANCHESTER,NH,6040,CITIZENS BANK NATL ASSOC,NH,541519,2006-02-07,2006-01-01,84,3,1.0,5,3,0,1,N,N,P I F,300000.0,150000.0,54,-2
423,Bridgton (census name for Brid,ME,4009,KEYBANK NATIONAL ASSOCIATION,OH,0,1998-08-27,1998-01-01,60,1,1.0,0,0,0,0,Y,N,P I F,15000.0,7500.0,0,0
424,Boston,MA,2134,BANK OF AMERICA NATL ASSOC,MA,0,1998-09-02,1998-01-01,12,5,1.0,0,0,0,0,Y,N,P I F,100000.0,15000.0,0,0
425,Rochester,NY,14621,MANUFACTURERS & TRADERS TR CO,NY,337110,1998-09-15,1998-01-01,60,3,1.0,0,0,0,0,Y,N,P I F,100000.0,50000.0,33,0
426,OCEAN CITY,NJ,21842,"PNC BANK, NATIONAL ASSOCIATION",DE,451110,2006-02-07,2006-01-01,57,5,1.0,4,5,0,1,-,N,CHGOFF,20000.0,10000.0,45,1
427,East Syracuse,NY,13057,MANUFACTURERS & TRADERS TR CO,NY,0,1998-09-15,1998-01-01,84,3,2.0,0,0,0,0,N,N,P I F,100000.0,50000.0,0,0
428,SAN DIEGO,CA,92117,CDC SMALL BUS. FINAN CORP,CA,488510,2006-02-07,2006-01-01,240,5,1.0,3,5,0,1,-,N,P I F,240000.0,240000.0,48,2
429,Watertown,NY,13601,MANUFACTURERS & TRADERS TR CO,NY,454210,1998-09-15,1998-01-01,60,10,1.0,0,0,0,0,N,N,P I F,70000.0,35000.0,45,0
430,East Syracuse,NY,13057,MANUFACTURERS & TRADERS TR CO,NY,0,1998-09-18,1998-01-01,60,3,2.0,0,0,0,0,Y,N,P I F,20000.0,10000.0,0,0
431,CARBONDALE,IL,81623,ALPINE BANK,IL,339999,2006-02-07,2006-01-01,46,1,1.0,0,1,0,2,Y,N,CHGOFF,15000.0,7500.0,33,1
432,Amherst,NY,3031,MANUFACTURERS & TRADERS TR CO,OH,0,1998-09-18,1998-01-01,60,4,2.0,0,0,0,0,N,N,P I F,100000.0,50000.0,0,0
433,Litchfield,OH,3052,"PNC BANK, NATIONAL ASSOCIATION",OH,0,1998-09-21,1998-01-01,84,2,2.0,0,0,0,0,N,N,P I F,50000.0,25000.0,0,0
434,Jamestown,NY,14701,CAPITAL ONE NATL ASSOC,OH,446110,1998-09-25,1998-01-01,84,11,1.0,0,0,0,0,N,N,P I F,95000.0,47500.0,44,0
435,GORHAM (CENSUS NAME FOR G,ME,4038,KEYBANK NATIONAL ASSOCIATION,OH,336991,1998-09-30,1998-01-01,66,1,2.0,0,0,0,0,N,N,P I F,25000.0,12500.0,33,0
436,HOUSTON,TX,77027,JPMORGAN CHASE BANK NATL ASSOC,TX,522310,2006-02-07,2006-01-01,36,4,1.0,0,4,0,1,Y,N,CHGOFF,25000.0,12500.0,52,4
437,BRADFORD,PA,2808,"PNC BANK, NATIONAL ASSOCIATION",DE,484110,2006-02-07,2006-01-01,36,1,2.0,0,1,0,2,Y,N,P I F,30000.0,15000.0,48,1
438,Skowhegan (census name for Sko,ME,4976,KEYBANK NATIONAL ASSOCIATION,OH,444130,1998-10-27,1999-01-01,12,7,2.0,0,0,0,0,Y,N,P I F,50000.0,25000.0,44,0
439,CALDWELL,ID,83605,ZIONS FIRST NATIONAL BANK,ID,238110,2006-02-07,2006-01-01,14,4,1.0,3,7,0,2,-,N,P I F,75000.0,37500.0,23,4
440,Caribou,ME,4736,KEYBANK NATIONAL ASSOCIATION,DE,713940,1998-11-04,1999-01-01,32,5,1.0,0,0,0,0,N,N,CHGOFF,32500.0,16250.0,71,0
441,HOPKINS,MN,55343,U.S. BANK NATIONAL ASSOCIATION,MN,488999,2006-02-07,2006-01-01,80,4,1.0,0,4,1,1,Y,N,P I F,30000.0,15000.0,48,4
442,BURLINGTON,VT,5401,MERCHANTS BANK,VT,448310,1998-11-09,1999-01-01,84,4,1.0,0,0,0,0,N,N,P I F,63000.0,31500.0,44,0
443,OCEANSIDE,CA,92054,BANK OF AMERICA NATL ASSOC,CA,518210,2006-02-07,2006-01-01,84,5,1.0,1,5,0,1,Y,N,P I F,30000.0,15000.0,51,4
444,Seattle,WA,98101,KEYBANK NATIONAL ASSOCIATION,OH,0,1998-11-09,1999-01-01,83,2,2.0,0,0,0,0,Y,N,P I F,20000.0,10000.0,0,0
445,BURLINGTON,VT,5401,MERCHANTS BANK,VT,448310,1998-11-10,1999-01-01,60,4,1.0,0,0,0,0,Y,N,P I F,40000.0,20000.0,44,0
446,OCEANSIDE,CA,92054,BANK OF AMERICA NATL ASSOC,CA,518210,2006-02-07,2006-01-01,60,5,1.0,1,5,0,1,-,N,P I F,55000.0,27500.0,51,4
447,Bellingham,WA,98226,KEYBANK NATIONAL ASSOCIATION,WA,0,1998-11-16,1999-01-01,84,1,1.0,0,0,0,0,N,N,P I F,50000.0,25000.0,0,0
448,Colville,WA,99114,KEYBANK NATIONAL ASSOCIATION,OH,0,1998-11-16,1999-01-01,11,11,1.0,0,0,0,0,Y,N,CHGOFF,75000.0,37500.0,0,0
449,Newburgh,NY,12550,KEYBANK NATIONAL ASSOCIATION,NY,621310,1998-11-17,1999-01-01,60,2,1.0,0,0,0,0,N,N,P I F,35000.0,17500.0,62,0
450,New Hartford,NY,13413,MANUFACTURERS & TRADERS TR CO,NY,453220,1998-11-25,1999-01-01,84,2,1.0,0,0,0,0,N,N,P I F,35000.0,17500.0,45,0
452,Dover,OH,3820,MANUFACTURERS & TRADERS TR CO,OH,327390,1998-12-03,1999-01-01,60,8,1.0,0,0,0,0,N,N,P I F,150000.0,75000.0,32,0
453,Albany,NY,12203,KEYBANK NATIONAL ASSOCIATION,NY,0,1998-12-03,1999-01-01,48,5,1.0,0,0,0,0,N,N,P I F,65000.0,32500.0,0,0
454,Friday Harbor,WA,98250,HERITAGE BANK,WA,541710,1998-12-11,1999-01-01,70,2,1.0,0,0,0,0,Y,N,P I F,110000.0,55000.0,54,0
455,ROCHESTER,NY,14615,MANUFACTURERS & TRADERS TR CO,NY,0,1980-07-01,1980-01-01,138,10,1.0,0,0,0,0,N,N,CHGOFF,195642.0,140400.0,0,0
456,LAKE OSWEGO,OR,97034,U.S. BANK NATIONAL ASSOCIATION,OR,311811,1998-12-11,1999-01-01,12,11,1.0,0,0,0,0,Y,N,P I F,15000.0,7500.0,31,0
457,Nashua,NH,3060,"TD BANK, NATIONAL ASSOCIATION",DE,0,1998-12-16,1999-01-01,60,13,1.0,0,0,0,0,Y,N,P I F,40000.0,20000.0,0,0
458,Hollis,NY,3049,"TD BANK, NATIONAL ASSOCIATION",DE,0,1998-12-28,1999-01-01,60,9,1.0,0,0,0,0,N,N,P I F,50000.0,25000.0,0,0
459,CASPER,WY,82601,WELLS FARGO BANK NATL ASSOC,WY,311991,2006-02-07,2006-01-01,60,2,2.0,1,3,0,1,-,N,P I F,30000.0,15000.0,31,2
460,Lockport,NY,14094,"PNC BANK, NATIONAL ASSOCIATION",DE,0,1999-01-09,1999-01-01,84,5,1.0,0,0,0,0,N,N,P I F,120000.0,60000.0,0,0
461,Rockland,ME,4841,KEYBANK NATIONAL ASSOCIATION,OH,0,1999-01-11,1999-01-01,180,3,1.0,0,0,0,2,N,N,P I F,127000.0,63500.0,0,0
462,ATLANTA,GA,30354,BANK OF AMERICA NATL ASSOC,GA,812210,2006-02-07,2006-01-01,240,6,1.0,2,6,0,1,-,N,P I F,263000.0,263000.0,81,4
463,Sharon (Town of),MA,2067,BANK OF AMERICA NATL ASSOC,RI,0,1999-03-04,1999-01-01,84,24,1.0,0,0,0,0,N,N,P I F,150000.0,75000.0,0,0
464,Tarrytown,NY,10591,KEYBANK NATIONAL ASSOCIATION,OH,541512,1999-02-23,1999-01-01,60,4,1.0,0,0,0,0,Y,N,P I F,100000.0,50000.0,54,0
465,Mahopac,NY,10541,KEYBANK NATIONAL ASSOCIATION,OH,311920,1999-03-04,1999-01-01,40,8,1.0,0,0,0,0,N,N,P I F,25000.0,12500.0,31,0
466,BEDFORD,NH,3110,CITIZENS BANK NATL ASSOC,NH,0,1999-03-15,1999-01-01,60,6,1.0,0,0,0,0,Y,N,P I F,50000.0,25000.0,0,0
467,CORNISH,ME,4020,"TD BANK, NATIONAL ASSOCIATION",ME,0,1999-03-19,1999-01-01,180,6,2.0,0,0,0,2,N,N,P I F,80000.0,40000.0,0,0
468,Portland,OR,4102,KEYBANK NATIONAL ASSOCIATION,OR,452990,1999-03-23,1999-01-01,72,5,2.0,0,0,0,0,N,N,P I F,85000.0,42500.0,45,0
469,LINDON,UT,84042,ZIONS FIRST NATIONAL BANK,UT,441229,2006-02-07,2006-01-01,240,3,1.0,2,2,0,2,-,N,P I F,264000.0,264000.0,44,0
470,NEW WINDSOR (CENSUS NAME,NY,12553,KEYBANK NATIONAL ASSOCIATION,OH,812310,1999-04-01,1999-01-01,60,4,2.0,0,0,0,0,N,N,P I F,38000.0,19000.0,81,0
471,SPRINGFIELD,MO,65804,U.S. BANK NATIONAL ASSOCIATION,MO,453998,2006-02-07,2006-01-01,52,5,1.0,0,0,1,1,N,N,CHGOFF,250000.0,187500.0,45,0
472,Nashua,NH,3060,"TD BANK, NATIONAL ASSOCIATION",DE,541330,1999-04-09,1999-01-01,60,5,2.0,0,0,0,0,N,N,P I F,65000.0,32500.0,54,0
473,PLAINVIEW,TX,11803,WELLS FARGO BANK NATL ASSOC,TX,541921,1999-04-12,1999-01-01,60,10,1.0,0,0,0,0,Y,N,P I F,70000.0,35000.0,54,0
474,Nashua,NH,3060,"TD BANK, NATIONAL ASSOCIATION",DE,541330,1999-04-12,1999-01-01,60,5,2.0,0,0,0,0,Y,N,P I F,53000.0,26500.0,54,0
475,Middletown,OH,10941,MANUFACTURERS & TRADERS TR CO,NY,0,1999-04-14,1999-01-01,60,3,2.0,0,0,0,0,N,N,P I F,55000.0,27500.0,0,0
476,WARWICK (RR NAME APPONAUG),RI,2886,CITIZENS BANK NATL ASSOC,RI,811111,2006-02-07,2006-01-01,240,5,2.0,3,5,0,2,-,N,P I F,298000.0,298000.0,81,2
477,Lee,ME,4455,KEYBANK NATIONAL ASSOCIATION,DE,0,1999-04-15,1999-01-01,180,12,1.0,0,0,0,2,N,N,P I F,115000.0,57500.0,0,0
478,Amherst,NY,3031,MANUFACTURERS & TRADERS TR CO,OH,0,1999-05-14,1999-01-01,60,3,1.0,0,0,0,0,Y,N,P I F,75000.0,37500.0,0,0
479,STERLING CITY,TX,76951,1ST NATL BK OF STERLING CITY,TX,339999,2006-02-07,2006-01-01,120,3,1.0,0,0,0,2,N,N,P I F,127000.0,107950.0,33,0
480,CHICAGO,IL,60634,JPMORGAN CHASE BANK NATL ASSOC,IL,0,1980-06-25,1980-01-01,87,20,1.0,0,0,0,0,N,N,CHGOFF,350000.0,315000.0,0,0
481,HOLBROOK,NY,11741,BANK OF AMERICA NATL ASSOC,NY,0,1999-05-19,1999-01-01,25,5,1.0,0,0,0,0,Y,N,CHGOFF,100000.0,50000.0,0,0
482,Ellenville,NY,12428,KEYBANK NATIONAL ASSOCIATION,OH,812310,1999-07-21,1999-01-01,48,2,2.0,0,0,0,1,N,N,P I F,22000.0,11000.0,81,0
483,Ontario,CA,14516,MANUFACTURERS & TRADERS TR CO,CA,321920,1999-07-21,1999-01-01,60,4,2.0,0,0,0,1,Y,N,P I F,35000.0,17500.0,32,0
484,East Baldwin (RR name Mattocks,ME,4091,KEYBANK NATIONAL ASSOCIATION,OH,453110,1999-07-27,1999-01-01,240,5,1.0,0,0,0,2,N,N,P I F,93600.0,46800.0,45,0
485,Waterville,ME,4901,"TD BANK, NATIONAL ASSOCIATION",DE,512110,1999-08-03,1999-01-01,84,5,1.0,0,0,0,2,N,N,P I F,100000.0,50000.0,51,0
486,Croghan,NY,13660,KEYBANK NATIONAL ASSOCIATION,NY,451130,1999-08-03,1999-01-01,240,40,1.0,0,0,0,1,N,N,P I F,72000.0,36000.0,45,0
487,WOODLAWN,OH,21244,HAMILTON CNTY DEVEL COMPANY IN,OH,722211,2006-02-07,2006-01-01,60,10,2.0,0,0,0,2,N,N,P I F,126000.0,107100.0,72,0
488,BLOOMINGDALE,IL,60108,BANK OF AMERICA NATL ASSOC,IL,0,1980-06-30,1980-01-01,66,2,2.0,0,0,0,0,N,N,CHGOFF,120000.0,108000.0,0,0
489,Syracuse,NY,13209,MANUFACTURERS & TRADERS TR CO,NY,0,1999-09-07,1999-01-01,60,10,1.0,0,0,0,1,Y,N,P I F,25000.0,12500.0,0,0
490,Amenia,NY,12501,KEYBANK NATIONAL ASSOCIATION,OH,713940,1999-08-30,1999-01-01,32,6,2.0,0,0,0,1,N,N,CHGOFF,55000.0,27500.0,71,0
491,Topsham (census name for Topsh,ME,4086,KEYBANK NATIONAL ASSOCIATION,OH,0,1999-09-13,1999-01-01,60,5,1.0,0,0,0,2,N,N,P I F,52000.0,26000.0,0,0
492,BELLINGHAM,WA,98225,U.S. BANK NATIONAL ASSOCIATION,WA,512191,2006-02-07,2006-01-01,87,2,1.0,0,2,0,2,-,N,CHGOFF,60200.0,51170.0,51,2
493,Topsham (census name for Topsh,ME,4086,KEYBANK NATIONAL ASSOCIATION,OH,0,1999-09-13,1999-01-01,60,5,1.0,0,0,0,2,Y,N,P I F,50000.0,25000.0,0,0
494,Sackets Harbor,NY,13685,KEYBANK NATIONAL ASSOCIATION,OH,722110,1999-10-06,2000-01-01,84,6,1.0,0,0,0,1,N,N,P I F,50800.0,25400.0,72,0
495,Hooksett (census name for Hook,NH,3106,KEYBANK NATIONAL ASSOCIATION,OH,421910,1999-11-04,2000-01-01,240,3,1.0,0,0,0,1,N,N,P I F,65000.0,32500.0,42,0
496,Hamburg,NY,14075,MANUFACTURERS & TRADERS TR CO,NY,333518,1999-11-23,2000-01-01,65,1,1.0,0,0,0,1,N,N,CHGOFF,78800.0,39400.0,33,0
497,OGUNQUIT,ME,3907,KENNEBUNK SAVINGS BANK,ME,0,1997-03-03,1997-01-01,60,8,1.0,0,0,0,0,N,Y,P I F,10000.0,8000.0,0,0
498,AUBURN,WA,4210,BANK OF AMERICA NATL ASSOC,CA,451110,1999-12-08,2000-01-01,84,3,1.0,0,0,0,1,N,N,P I F,105000.0,52500.0,45,0
499,Pittsford,NY,14534,MANUFACTURERS & TRADERS TR CO,NY,453110,1999-12-14,2000-01-01,84,8,2.0,0,0,0,1,N,N,P I F,25000.0,12500.0,45,0
500,CAMBRIDGE,MA,2139,BANK OF AMERICA NATL ASSOC,MA,511110,1997-03-03,1997-01-01,84,11,1.0,0,0,0,0,N,N,P I F,85000.0,68000.0,51,0
501,Kingfield,ME,4947,KEYBANK NATIONAL ASSOCIATION,OH,0,1999-12-13,2000-01-01,60,2,2.0,0,0,0,2,N,N,P I F,14000.0,7000.0,0,0
502,SAINT LOUIS,MO,63158,U.S. BANK NATIONAL ASSOCIATION,OH,522310,2006-02-07,2006-01-01,42,7,1.0,0,7,0,1,Y,N,CHGOFF,30000.0,15000.0,52,7
503,NANTUCKET,MA,2554,BANK OF AMERICA NATL ASSOC,MA,452990,1997-03-03,1997-01-01,84,8,2.0,0,0,0,0,N,Y,P I F,40000.0,32000.0,45,0
504,Cumberland Center,ME,4021,KEYBANK NATIONAL ASSOCIATION,OH,0,2000-01-01,2000-01-01,24,1,2.0,0,0,0,2,N,N,CHGOFF,20000.0,10000.0,0,0
505,CHICAGO,IL,60659,JPMORGAN CHASE BANK NATL ASSOC,IL,424920,2006-02-07,2006-01-01,93,5,1.0,0,5,0,1,-,N,CHGOFF,290000.0,217500.0,42,5
506,Waterville,ME,4901,"TD BANK, NATIONAL ASSOCIATION",DE,235110,2000-01-04,2000-01-01,47,20,1.0,0,0,0,2,Y,N,CHGOFF,35000.0,17500.0,23,0
507,AVON,IN,6001,WELLS FARGO BANK NATL ASSOC,OH,0,1997-03-03,1997-01-01,84,1,2.0,0,0,0,0,N,Y,P I F,50000.0,40000.0,0,0
508,Mount Kisco,NY,10549,KEYBANK NATIONAL ASSOCIATION,NY,0,2000-01-31,2000-01-01,60,2,2.0,0,0,1,1,N,N,P I F,120000.0,60000.0,0,0
509,NEPTUNE BEACH,FL,32266,BANK OF AMERICA NATL ASSOC,FL,722110,2006-02-07,2006-01-01,91,15,1.0,0,7,0,1,-,N,CHGOFF,143000.0,121550.0,72,7
510,TULSA,OK,74116,BANK OF AMERICA NATL ASSOC,OK,0,1997-03-03,1997-01-01,144,14,1.0,0,0,0,0,N,N,P I F,1508300.0,739067.0,0,0
511,Derry (census name for Derry C,NH,3038,KEYBANK NATIONAL ASSOCIATION,OH,0,2000-02-01,2000-01-01,84,7,2.0,0,0,0,1,N,N,P I F,20000.0,10000.0,0,0
512,SANDPOINT,ID,83864,PANHANDLE STATE BANK,ID,448140,2006-02-07,2006-01-01,83,12,1.0,3,15,0,2,Y,N,P I F,30000.0,15000.0,44,12
513,Selkirk,NY,12158,KEYBANK NATIONAL ASSOCIATION,OH,0,2000-02-04,2000-01-01,48,1,2.0,0,0,0,1,N,N,P I F,15000.0,7500.0,0,0
514,BLOCK ISLAND,RI,2807,WASHINGTON TR CO OF WESTERLY,RI,722410,1997-03-03,1997-01-01,120,30,1.0,0,0,0,0,N,Y,P I F,50000.0,40000.0,72,0
515,Syracuse,NY,13203,MANUFACTURERS & TRADERS TR CO,NY,722410,2000-02-16,2000-01-01,84,55,2.0,0,0,0,1,N,N,P I F,102000.0,51000.0,72,0
516,LAKEWOOD CENTER (CENSUS NAME L,WA,98499,BBCN BANK,WA,511210,2006-02-07,2006-01-01,58,12,1.0,5,12,0,2,Y,N,CHGOFF,30000.0,15000.0,51,7
517,Rochester,NY,14621,MANUFACTURERS & TRADERS TR CO,NY,332322,2000-02-22,2000-01-01,60,6,1.0,0,0,0,1,N,N,P I F,144000.0,72000.0,33,0
518,CRANSTON,RI,2920,CITIZENS BANK NATL ASSOC,RI,713940,1997-03-03,1997-01-01,60,2,2.0,0,0,1,0,N,Y,P I F,84000.0,67200.0,71,0
519,Tonawanda (city),NY,14223,KEYBANK NATIONAL ASSOCIATION,OH,0,2000-03-20,2000-01-01,72,10,2.0,0,0,0,1,N,N,P I F,62000.0,31000.0,0,0
520,OKLAHOMA CITY,OK,73132,BANCFIRST,OK,812310,1997-03-03,1997-01-01,84,5,1.0,0,0,0,0,N,Y,P I F,70000.0,56000.0,81,0
521,ATHENS,GA,54411,BANK OF AMERICA NATL ASSOC,GA,0,1997-03-03,1997-01-01,120,10,1.0,0,0,0,0,N,Y,P I F,18250.0,14600.0,0,0
522,HUNTINGTON PARK,CA,90255,BBCN BANK,CA,445210,2006-02-07,2006-01-01,59,1,2.0,0,1,0,1,-,N,CHGOFF,10000.0,8500.0,44,1
523,CAMBRIDGE,MA,2139,BANK OF AMERICA NATL ASSOC,MA,511110,1997-03-03,1997-01-01,240,16,1.0,4,12,0,0,N,N,P I F,196000.0,196000.0,51,8
524,WATERVILLE,ME,4901,KEYBANK NATIONAL ASSOCIATION,ME,0,2000-04-13,2000-01-01,180,4,1.0,0,0,0,2,N,N,P I F,100000.0,50000.0,0,0
525,MILWAUKEE,WI,53219,U.S. BANK NATIONAL ASSOCIATION,WI,484110,2006-02-07,2006-01-01,84,1,2.0,1,1,0,1,-,N,P I F,5000.0,4250.0,48,0
526,NEW WINDSOR,NY,10958,MANUFACTURERS & TRADERS TR CO,NY,0,2000-04-21,2000-01-01,60,1,2.0,0,0,0,1,Y,N,P I F,100000.0,50000.0,0,0
527,NEW BALTIMORE,MI,48047,CITIZENS BANK NATL ASSOC,RI,812310,1997-03-03,1997-01-01,120,5,2.0,0,0,0,0,N,N,P I F,240000.0,180000.0,81,0
528,Kingston,NY,12401,KEYBANK NATIONAL ASSOCIATION,OH,524210,2000-04-21,2000-01-01,84,3,2.0,0,0,0,1,N,N,P I F,120000.0,60000.0,52,0
529,RINGGOLD,GA,30736,BBCN BANK,GA,811111,2006-02-07,2006-01-01,57,6,1.0,0,6,0,1,-,N,CHGOFF,20000.0,17000.0,81,6
530,Rockland,ME,4841,KEYBANK NATIONAL ASSOCIATION,OH,532120,2000-04-24,2000-01-01,66,2,2.0,0,0,0,2,N,N,P I F,150000.0,75000.0,53,0
531,SEATTLE,WA,98121,BANK OF AMERICA NATL ASSOC,WA,0,1997-03-03,1997-01-01,144,2,2.0,0,0,0,0,-,N,P I F,135000.0,101250.0,0,0
532,Whitesboro,NY,13492,ADIRONDACK BANK,NY,0,2000-05-03,2000-01-01,60,12,1.0,0,0,0,1,Y,N,P I F,100000.0,50000.0,0,0
533,Cohoes,NY,12047,KEYBANK NATIONAL ASSOCIATION,OH,0,2000-05-09,2000-01-01,60,10,2.0,0,0,0,1,N,N,P I F,135000.0,67500.0,0,0
534,WACO,TX,76705,AMER BANK NATL ASSOC,TX,236118,2006-02-07,2006-01-01,1,11,1.0,0,11,0,1,Y,N,CHGOFF,30000.0,15000.0,23,11
535,LOUISVILLE,KY,40291,"PNC BANK, NATIONAL ASSOCIATION",KY,621310,1997-03-03,1997-01-01,74,3,2.0,0,0,0,0,N,Y,P I F,65000.0,52000.0,62,0
536,Windham,ME,12496,KEYBANK NATIONAL ASSOCIATION,OH,512131,2000-05-17,2000-01-01,120,3,1.0,0,0,0,1,N,N,P I F,112000.0,56000.0,51,0
537,LOS ANGELES,CA,90047,BANK OF AMERICA NATL ASSOC,CA,624120,2006-02-07,2006-01-01,36,2,2.0,2,4,0,1,Y,N,CHGOFF,35000.0,17500.0,62,2
538,CLEVELAND HEIGHTS,OH,44118,THE HUNTINGTON NATIONAL BANK,OH,561510,1997-03-03,1997-01-01,60,7,1.0,0,0,0,0,-,N,P I F,150000.0,112500.0,56,0
539,Oxford (sta.) (Welchville),ME,4270,KEYBANK NATIONAL ASSOCIATION,OH,0,2000-06-12,2000-01-01,240,2,1.0,0,0,0,2,N,N,P I F,70000.0,35000.0,0,0
540,WARNER ROBINS,GA,31088,BANK OF AMERICA NATL ASSOC,GA,445299,2006-02-07,2006-01-01,49,2,2.0,7,0,1,2,-,N,CHGOFF,125000.0,106250.0,44,-7
541,Feura Bush,NY,12067,KEYBANK NATIONAL ASSOCIATION,OH,0,2000-06-19,2000-01-01,60,7,2.0,0,0,0,1,Y,N,P I F,50000.0,25000.0,0,0
542,MISSOULA,MT,59802,FIRST SECURITY BK OF MISSOULA,MT,524210,2006-02-07,2006-01-01,60,1,2.0,0,1,0,1,Y,N,P I F,15000.0,7500.0,52,1
543,CROTON,OH,43013,HEARTLAND BANK,OH,234110,1997-03-03,1997-01-01,84,6,1.0,0,0,0,0,N,Y,P I F,66000.0,52800.0,23,0
544,Ontario,CA,14519,MANUFACTURERS & TRADERS TR CO,CA,0,2000-06-21,2000-01-01,60,3,1.0,0,0,0,1,N,N,P I F,35600.0,17800.0,0,0
545,MANCHESTER,NH,3104,CITIZENS BANK NATL ASSOC,NH,541110,1997-03-03,1997-01-01,240,6,1.0,3,3,0,0,N,N,P I F,83000.0,83000.0,54,0
546,Wappingers Falls,NY,12590,MANUFACTURERS & TRADERS TR CO,NY,621391,2000-07-05,2000-01-01,32,3,2.0,0,0,0,1,Y,N,CHGOFF,50000.0,25000.0,62,0
547,SAN MARCOS,CA,78666,WELLS FARGO BANK NATL ASSOC,CA,0,1997-03-03,1997-01-01,149,1,2.0,0,0,0,0,-,N,CHGOFF,267000.0,200250.0,0,0
548,Watertown,NY,13601,MANUFACTURERS & TRADERS TR CO,NY,0,2000-07-11,2000-01-01,84,2,2.0,0,0,0,1,N,N,P I F,51000.0,25500.0,0,0
549,ARLINGTON,TX,20001,JPMORGAN CHASE BANK NATL ASSOC,TX,722211,2006-02-07,2006-01-01,84,1,2.0,5,5,0,2,-,N,P I F,425000.0,318750.0,72,0
550,JOHNSTON,RI,2919,CITIZENS BANK NATL ASSOC,RI,235810,1997-03-03,1997-01-01,120,4,1.0,0,0,0,0,N,Y,P I F,90000.0,72000.0,23,0
551,MAPLEWOOD,MN,55109,WELLS FARGO BANK NATL ASSOC,MN,0,1997-03-03,1997-01-01,103,2,1.0,0,0,0,0,-,N,P I F,140000.0,70000.0,0,0
552,Kenmore,NY,14217,MANUFACTURERS & TRADERS TR CO,NY,561720,2000-08-14,2000-01-01,60,112,1.0,0,0,0,1,N,N,P I F,45500.0,22750.0,56,0
553,ROCKLIN,CA,95765,SBA - EDF ENFORCEMENT ACTION,CA,812320,2006-02-07,2006-01-01,77,3,2.0,3,0,1,1,-,N,CHGOFF,327300.0,245475.0,81,-3
554,Little Falls,NJ,13365,"COMMERCE BANK, A DIVISION OF",DE,722110,2000-08-15,2000-01-01,84,14,1.0,0,0,0,1,N,N,P I F,76500.0,38250.0,72,0
555,PARKER,CO,80134,WELLS FARGO BANK NATL ASSOC,CO,0,1997-03-03,1997-01-01,48,5,1.0,0,0,0,0,-,N,P I F,120000.0,90000.0,0,0
556,North Bangor,NY,12966,KEYBANK NATIONAL ASSOCIATION,OH,0,2000-08-16,2000-01-01,240,12,2.0,0,0,0,1,N,N,P I F,110000.0,55000.0,0,0
557,SAN JOSE,CA,95132,WELLS FARGO BANK NATL ASSOC,CA,561730,2006-02-07,2006-01-01,42,1,1.0,0,1,0,1,-,N,P I F,5000.0,4250.0,56,1
558,JAMESTOWN,NY,2835,CITIZENS BANK NATL ASSOC,NY,114111,1997-03-03,1997-01-01,84,5,1.0,0,0,0,0,N,N,P I F,125000.0,93750.0,11,0
559,Old Town,ME,4468,"TD BANK, NATIONAL ASSOCIATION",DE,421920,2000-08-24,2000-01-01,180,2,1.0,0,0,0,2,N,N,P I F,112000.0,56000.0,42,0
560,RICHMOND,VA,23226,BANK OF AMERICA NATL ASSOC,VA,451110,1997-03-03,1997-01-01,84,1,1.0,0,0,0,0,N,Y,P I F,90000.0,72000.0,45,0
561,Hooksett (census name for Hook,NH,3106,KEYBANK NATIONAL ASSOCIATION,OH,0,2000-09-11,2000-01-01,84,4,1.0,0,0,0,1,N,N,P I F,100000.0,50000.0,0,0
562,AURORA,CO,80010,WELLS FARGO BANK NATL ASSOC,IL,0,1997-03-03,1997-01-01,31,26,1.0,0,0,0,0,N,N,CHGOFF,250000.0,187500.0,0,0
563,Rochester,NY,14607,MANUFACTURERS & TRADERS TR CO,NY,421990,2000-09-13,2000-01-01,60,5,1.0,0,0,0,1,N,N,P I F,50500.0,25250.0,42,0
564,Rochester,NY,14623,MANUFACTURERS & TRADERS TR CO,NY,0,2000-09-21,2000-01-01,60,3,2.0,0,0,0,1,N,N,P I F,20000.0,10000.0,0,0
565,TUCSON,AZ,85704,BUSINESS DEVEL FINAN CORP,AZ,445299,2006-02-07,2006-01-01,74,8,2.0,8,0,1,2,-,N,CHGOFF,197000.0,147750.0,44,-8
566,Hudson,WI,3051,ASSOCIATED BANK NATL ASSOC,WI,0,2000-10-17,2001-01-01,60,23,1.0,0,0,0,1,Y,N,P I F,150000.0,75000.0,0,0
567,QUINCY,MA,62305,CITIZENS BANK NATL ASSOC,MA,312112,2006-02-07,2006-01-01,72,1,2.0,1,0,0,1,-,N,P I F,85000.0,42500.0,31,-1
568,JAMISON,PA,18929,CITIZENS BANK NATL ASSOC,RI,722110,2000-11-29,2001-01-01,120,1,2.0,0,0,0,0,N,N,P I F,150000.0,112500.0,72,0
569,CAMARILLO,CA,93010,PACIFIC WESTERN BANK,CA,524291,2001-03-12,2001-01-01,120,1,1.0,0,0,0,0,N,N,P I F,271500.0,203625.0,52,0
570,PLANO,TX,75075,JPMORGAN CHASE BANK NATL ASSOC,TX,0,1997-03-03,1997-01-01,60,6,1.0,0,0,0,0,N,Y,P I F,50000.0,40000.0,0,0
571,LOS ANGELES,CA,90013,BANK OF AMERICA NATL ASSOC,CA,422120,2001-03-13,2001-01-01,36,1,1.0,0,0,0,0,Y,N,P I F,50000.0,25000.0,42,0
572,OLYPHANT,PA,18452,"PNC BANK, NATIONAL ASSOCIATION",PA,444220,2006-02-07,2006-01-01,60,2,2.0,2,2,0,2,-,N,P I F,80000.0,40000.0,44,0
573,POWAY,CA,92064,CDC SMALL BUS. FINAN CORP,CA,512110,2001-03-13,2001-01-01,83,40,1.0,0,0,0,0,Y,N,P I F,100000.0,50000.0,51,0
574,ESCONDIDO,CA,92025,WELLS FARGO BANK NATL ASSOC,CA,443111,2001-04-06,2001-01-01,16,6,1.0,0,0,0,0,Y,N,CHGOFF,20000.0,10000.0,44,0
575,ANAHEIM,CA,92801,WELLS FARGO BANK NATL ASSOC,CA,532420,2001-04-09,2001-01-01,36,1,1.0,0,0,0,0,Y,N,P I F,30000.0,15000.0,53,0
576,SAN DIEGO,CA,92128,CDC SMALL BUS. FINAN CORP,CA,722110,2001-04-09,2001-01-01,83,10,1.0,0,0,0,0,Y,N,P I F,50000.0,25000.0,72,0
577,SAN FRANCISCO,CA,94115,WELLS FARGO BANK NATL ASSOC,CA,621111,2001-04-09,2001-01-01,84,2,1.0,0,0,0,0,Y,N,P I F,100000.0,50000.0,62,0
578,NAPPANEE,IN,46550,1ST SOURCE BANK,IN,621910,2001-04-09,2001-01-01,60,32,1.0,0,0,0,0,N,N,P I F,119000.0,59500.0,62,0
579,COLUMBUS,OH,43212,JPMORGAN CHASE BANK NATL ASSOC,OH,0,1997-03-03,1997-01-01,60,11,1.0,0,0,0,0,N,Y,P I F,50000.0,40000.0,0,0
580,MISSION VIEJO,CA,92691,WELLS FARGO BANK NATL ASSOC,CA,421690,2001-04-12,2001-01-01,36,2,1.0,0,0,0,0,Y,N,P I F,50000.0,25000.0,42,0
581,NOBLESVILLE,IN,46060,INDIANA STATEWIDE CERT. DEVEL,IN,561421,2006-02-07,2006-01-01,114,2,2.0,0,2,1,2,-,N,P I F,156000.0,117000.0,56,2
582,HOBBS,NM,88240,WESTERN COMMERCE BANK,NM,0,1997-03-03,1997-01-01,32,1,1.0,0,0,0,0,N,Y,CHGOFF,62850.0,50280.0,0,0
583,LOS ANGELES,CA,90068,BANK OF AMERICA NATL ASSOC,CA,541310,2001-04-12,2001-01-01,7,15,1.0,0,0,0,0,Y,N,P I F,100000.0,50000.0,54,0
584,JACKSON,MS,39209,TRUSTMARK NATIONAL BANK,MS,624410,1997-03-03,1997-01-01,120,10,1.0,10,0,0,0,N,N,P I F,141000.0,141000.0,62,-10
585,LAS VEGAS,NV,89119,BANK OF AMERICA NATL ASSOC,NV,422460,2001-04-12,2001-01-01,83,1,1.0,0,0,0,0,Y,N,P I F,100000.0,50000.0,42,0
586,SANTA CLARITA,CA,91390,WELLS FARGO BANK NATL ASSOC,CA,541690,2006-02-07,2006-01-01,300,1,2.0,2,1,0,1,-,N,P I F,493000.0,369750.0,54,-1
587,FRESNO,CA,93711,CALIFORNIA BANK & TRUST,CA,541110,2001-04-12,2001-01-01,84,5,1.0,0,0,0,0,N,N,P I F,50000.0,25000.0,54,0
588,TURNER,ME,4282,BANK OF AMERICA NATL ASSOC,ME,238910,2006-02-07,2006-01-01,36,1,2.0,0,1,0,2,-,N,P I F,20000.0,10000.0,23,1
589,HOLLISTER,CA,95023,MUFG UNION BANK NATL ASSOC,CA,443112,2001-04-30,2001-01-01,84,6,1.0,0,0,0,0,N,N,P I F,80000.0,40000.0,44,0
590,SAN DIEGO,CA,92130,CDC SMALL BUS. FINAN CORP,CA,541430,2001-04-30,2001-01-01,36,2,1.0,0,0,0,0,Y,N,P I F,25000.0,12500.0,54,0
591,EASTMAN,GA,31023,COLONY BANK,GA,621111,2006-02-07,2006-01-01,86,2,2.0,2,0,0,2,-,N,CHGOFF,92000.0,78200.0,62,-2
592,LITTLE CHUTE,WI,54140,ASSOCIATED BANK NATL ASSOC,WI,722410,1997-03-03,1997-01-01,180,4,1.0,0,0,0,0,N,Y,P I F,45000.0,36000.0,72,0
593,IRVINE,CA,92612,BANK OF AMERICA NATL ASSOC,CA,541511,2001-04-30,2001-01-01,4,8,1.0,0,0,0,0,Y,N,CHGOFF,100000.0,50000.0,54,0
594,FULLERTON,CA,92833,WELLS FARGO BANK NATL ASSOC,CA,611691,2001-04-30,2001-01-01,36,7,1.0,0,0,0,0,Y,N,P I F,83000.0,41500.0,61,0
595,OAKLAND,CA,94612,WELLS FARGO BANK NATL ASSOC,CA,541519,2001-04-30,2001-01-01,36,5,1.0,0,0,0,0,Y,N,P I F,50000.0,25000.0,54,0
596,SEATTLE,WA,98119,BANK OF AMERICA NATL ASSOC,WA,0,1997-03-03,1997-01-01,84,2,2.0,0,0,0,0,N,Y,P I F,25500.0,20400.0,0,0
597,SAN FRANCISCO,CA,94103,WELLS FARGO BANK NATL ASSOC,CA,541410,2001-04-30,2001-01-01,36,1,1.0,0,0,0,0,Y,N,P I F,12000.0,6000.0,54,0
598,NOVATO,CA,94947,WELLS FARGO BANK NATL ASSOC,CA,0,1997-03-03,1997-01-01,120,18,2.0,0,0,0,0,-,N,P I F,110000.0,82500.0,0,0
599,MONROVIA,CA,91016,WELLS FARGO BANK NATL ASSOC,CA,722211,2001-05-22,2001-01-01,36,20,1.0,0,0,0,0,Y,N,P I F,50000.0,25000.0,72,0
600,SANTA ANA,CA,92704,WELLS FARGO BANK NATL ASSOC,CA,422330,2001-05-22,2001-01-01,36,4,1.0,0,0,0,0,Y,N,P I F,50000.0,25000.0,42,0
601,MARIETTA,GA,30067,BANK OF AMERICA NATL ASSOC,GA,811111,1997-03-03,1997-01-01,300,7,1.0,0,0,0,0,-,N,P I F,555000.0,416250.0,81,0
602,FRESNO,CA,93704,CALIFORNIA BANK & TRUST,CA,441110,2001-05-22,2001-01-01,36,2,1.0,0,0,0,0,Y,N,P I F,10000.0,5000.0,44,0
603,ABERDEEN,SD,98520,GREAT WESTERN BANK,SD,721110,2006-02-07,2006-01-01,240,20,1.0,5,0,1,2,-,N,P I F,2000000.0,2000000.0,72,-5
604,TROY,MI,45373,CITIZENS BANK NATL ASSOC,OH,453991,1997-03-03,1997-01-01,63,10,1.0,0,0,0,0,N,Y,P I F,71000.0,56800.0,45,0
605,SAN YSIDRO,CA,92173,U.S. BANK NATIONAL ASSOCIATION,CA,327991,2001-05-22,2001-01-01,84,28,1.0,0,0,0,0,Y,N,P I F,50000.0,25000.0,32,0
606,LOS ANGELES,CA,90031,BANK OF AMERICA NATL ASSOC,CA,315212,2001-05-29,2001-01-01,36,15,1.0,0,0,0,0,Y,N,P I F,50000.0,25000.0,31,0
607,ALAMOGORDO,NM,88310,WESTERN BANK,NM,721110,2006-02-07,2006-01-01,240,1,1.0,0,1,1,2,-,N,P I F,701000.0,701000.0,72,1
608,SAN DIEGO,CA,92106,CDC SMALL BUS. FINAN CORP,CA,561431,2001-05-29,2001-01-01,83,4,1.0,0,0,1,0,Y,N,P I F,50000.0,25000.0,56,0
609,MONTEREY PARK,CA,91755,BANK OF AMERICA NATL ASSOC,CA,422410,2001-05-29,2001-01-01,84,1,1.0,0,0,0,0,Y,N,P I F,40000.0,20000.0,42,0
610,COSTA MESA,CA,92627,WELLS FARGO BANK NATL ASSOC,CA,323110,2001-06-04,2001-01-01,36,20,1.0,0,0,0,0,Y,N,P I F,100000.0,50000.0,32,0
611,BAKERSFIELD,CA,93313,MID ST. DEVEL CORP,CA,422210,2001-06-04,2001-01-01,36,15,1.0,0,0,0,0,N,N,P I F,100000.0,50000.0,42,0
612,SAN DIEGO,CA,92111,CDC SMALL BUS. FINAN CORP,CA,511210,2001-06-04,2001-01-01,36,3,1.0,0,0,0,0,Y,N,P I F,50000.0,25000.0,51,0
613,WHITEDEER,TX,79097,FIRST BANK & TRUST COMPANY,TX,0,1997-03-03,1997-01-01,66,4,1.0,0,0,0,0,N,Y,CHGOFF,50000.0,40000.0,0,0
614,TORRANCE,CA,90505,BANK OF AMERICA NATL ASSOC,CA,531210,2001-06-04,2001-01-01,56,1,1.0,0,0,0,0,Y,N,P I F,30000.0,15000.0,53,0
615,WESTMINSTER,CA,92683,BANK OF AMERICA NATL ASSOC,CA,451120,2001-06-04,2001-01-01,36,5,1.0,0,0,0,0,Y,N,P I F,50000.0,25000.0,45,0
616,LAGUNA NIGUEL,CA,92607,WELLS FARGO BANK NATL ASSOC,CA,421450,2001-06-04,2001-01-01,36,4,1.0,0,0,0,0,Y,N,P I F,50000.0,25000.0,42,0
617,POMONA,CA,91766,WELLS FARGO BANK NATL ASSOC,CA,445110,2001-06-19,2001-01-01,36,4,1.0,0,0,0,0,Y,N,P I F,100000.0,50000.0,44,0
618,ABILENE,TX,79605,PROSPERITY BANK,TX,721110,2006-02-07,2006-01-01,240,15,1.0,3,15,1,1,-,N,P I F,1352000.0,1352000.0,72,12
619,ANAHEIM,CA,92805,WELLS FARGO BANK NATL ASSOC,CA,441310,2001-06-19,2001-01-01,36,15,1.0,0,0,0,0,Y,N,P I F,100000.0,50000.0,44,0
620,ALLENTOWN,PA,18704,"PNC BANK, NATIONAL ASSOCIATION",PA,512110,1997-03-03,1997-01-01,60,4,1.0,0,0,0,0,-,N,P I F,50000.0,25000.0,51,0
621,SAN DIEGO,CA,92108,CDC SMALL BUS. FINAN CORP,CA,621112,2001-06-19,2001-01-01,36,2,1.0,0,0,0,0,Y,N,P I F,50000.0,25000.0,62,0
622,ALBUQUERQUE,NM,87112,WELLS FARGO BANK NATL ASSOC,NM,234110,1997-03-03,1997-01-01,12,8,2.0,0,0,0,0,Y,N,P I F,100000.0,75000.0,23,0
623,PLEASANTON,CA,94566,WELLS FARGO BANK NATL ASSOC,CA,621310,2001-06-19,2001-01-01,36,3,1.0,0,0,0,0,Y,N,P I F,25000.0,12500.0,62,0
624,HUNTSVILLE,AL,35810,REDSTONE FCU,AL,621210,1997-03-03,1997-01-01,240,4,1.0,0,4,0,0,N,N,P I F,85000.0,85000.0,62,4
625,CYPRESS,TX,90630,BANK OF AMERICA NATL ASSOC,CA,621310,2001-06-19,2001-01-01,120,2,1.0,0,0,0,0,Y,N,P I F,50000.0,25000.0,62,0
626,HAYWARD,CA,94541,WELLS FARGO BANK NATL ASSOC,CA,323110,2001-06-22,2001-01-01,12,1,1.0,0,0,0,0,Y,N,CHGOFF,100000.0,50000.0,32,0
627,SAN FRANCISCO,CA,94118,WELLS FARGO BANK NATL ASSOC,CA,812112,2001-06-22,2001-01-01,16,1,1.0,0,0,0,0,Y,N,CHGOFF,25000.0,12500.0,81,0
628,FREMONT,CA,94538,WELLS FARGO BANK NATL ASSOC,CA,541430,2001-06-22,2001-01-01,10,1,1.0,0,0,0,0,Y,N,CHGOFF,25000.0,12500.0,54,0
629,TULSA,OK,74129,BANK OF AMERICA NATL ASSOC,OK,0,1997-03-03,1997-01-01,63,6,1.0,0,0,1,0,N,N,P I F,90000.0,72000.0,0,0
630,LONG BEACH,CA,90807,BANK OF AMERICA NATL ASSOC,CA,233320,2001-06-25,2001-01-01,36,1,1.0,0,0,0,0,Y,N,P I F,10000.0,5000.0,23,0
631,LOS ANGELES,CA,90046,BANK OF AMERICA NATL ASSOC,CA,711510,2001-06-25,2001-01-01,22,2,1.0,0,0,0,0,Y,N,CHGOFF,50000.0,25000.0,71,0
632,SAN DIEGO,CA,92103,CDC SMALL BUS. FINAN CORP,CA,722410,2001-06-25,2001-01-01,36,23,1.0,0,0,0,0,Y,N,P I F,50000.0,25000.0,72,0
633,SAN ANSELMO,CA,94960,WELLS FARGO BANK NATL ASSOC,CA,453220,2001-06-25,2001-01-01,0,1,1.0,0,0,0,0,Y,N,CHGOFF,29000.0,14500.0,45,0
634,SAN ANSELMO,CA,94960,WELLS FARGO BANK NATL ASSOC,CA,453220,2001-06-25,2001-01-01,1,1,1.0,0,0,0,0,Y,N,CHGOFF,50000.0,25000.0,45,0
635,RAYNHAM (NORTH RAYNHAM),MA,2767,CITIZENS BANK NATL ASSOC,RI,811111,2006-02-07,2006-01-01,97,3,2.0,0,3,1,1,-,N,CHGOFF,165000.0,123750.0,81,3
636,SAN ANTONIO,TX,78230,WELLS FARGO BANK NATL ASSOC,TX,0,1997-03-03,1997-01-01,60,3,2.0,0,0,0,0,N,Y,P I F,49992.0,39994.0,0,0
637,SAN DIEGO,CA,92130,CDC SMALL BUS. FINAN CORP,CA,611420,2001-06-25,2001-01-01,84,15,1.0,0,0,0,0,Y,N,P I F,30000.0,15000.0,61,0
638,ALLENTOWN,PA,18704,"PNC BANK, NATIONAL ASSOCIATION",PA,512110,1997-03-03,1997-01-01,40,4,1.0,0,0,0,0,Y,N,P I F,35000.0,17500.0,51,0
639,SACRAMENTO,CA,95820,WELLS FARGO BANK NATL ASSOC,CA,811113,2001-06-28,2001-01-01,3,2,1.0,0,0,0,0,Y,N,CHGOFF,63000.0,31500.0,81,0
640,FOUNTAIN VALLEY,CA,92708,BANK OF AMERICA NATL ASSOC,CA,421620,2001-06-29,2001-01-01,36,2,1.0,0,0,0,0,Y,N,P I F,50000.0,25000.0,42,0
641,ORANGE,CA,92867,WELLS FARGO BANK NATL ASSOC,CA,325998,2001-06-29,2001-01-01,23,2,1.0,0,0,0,0,Y,N,CHGOFF,30000.0,15000.0,32,0
642,PHOENIX,AZ,85044,WELLS FARGO BANK NATL ASSOC,IL,611691,2006-02-07,2006-01-01,120,80,2.0,55,25,1,1,-,N,P I F,308000.0,231000.0,61,-30
643,SAN CARLOS,CA,94070,WELLS FARGO BANK NATL ASSOC,CA,332212,1997-03-03,1997-01-01,300,1,1.0,0,0,0,0,-,N,P I F,319500.0,239625.0,33,0
644,SPRING VALLEY,CA,91977,BANK OF AMERICA NATL ASSOC,CA,421940,2001-06-29,2001-01-01,36,1,1.0,0,0,0,0,Y,N,P I F,100000.0,50000.0,42,0
645,MADERA,CA,93638,CALIFORNIA BANK & TRUST,CA,513322,2001-07-03,2001-01-01,36,5,1.0,0,0,0,0,Y,N,P I F,50000.0,25000.0,51,0
646,GARDENA,CA,90248,BANK OF AMERICA NATL ASSOC,CA,421440,2001-07-03,2001-01-01,36,3,1.0,0,0,0,0,Y,N,P I F,100000.0,50000.0,42,0
647,HIALEAH,FL,33010,BANK OF AMERICA NATL ASSOC,NC,0,1971-08-13,1972-01-01,60,40,1.0,0,0,0,0,N,N,CHGOFF,100000.0,75000.0,0,0
648,SUNNYVALE,CA,94087,WELLS FARGO BANK NATL ASSOC,CA,621210,2001-07-03,2001-01-01,36,2,1.0,0,0,0,0,Y,N,P I F,100000.0,50000.0,62,0
649,NIXA,MO,65714,EMPIRE BANK,MO,541511,1997-03-03,1997-01-01,60,5,2.0,0,0,0,0,N,N,P I F,28000.0,22400.0,54,0
650,TECATE,CA,91980,CALIFORNIA BANK & TRUST,CA,484210,2001-07-06,2001-01-01,82,1,1.0,0,0,0,0,Y,N,P I F,20000.0,10000.0,48,0
651,CONCORD,CA,94520,CITIZENS BANK NATL ASSOC,NH,335999,2001-07-11,2001-01-01,36,3,1.0,0,0,0,0,Y,N,P I F,100000.0,50000.0,33,0
652,RENO,NV,89501,NEVADA ST. DEVEL CORP,NV,812112,2006-02-07,2006-01-01,120,1,2.0,8,0,1,1,-,N,P I F,221200.0,165900.0,81,-8
653,SAVANNAH,GA,31401,BANK OF AMERICA NATL ASSOC,GA,0,1997-03-03,1997-01-01,36,8,2.0,0,0,0,0,N,Y,P I F,78000.0,62400.0,0,0
654,FRESNO,CA,93720,CALIFORNIA BANK & TRUST,CA,621111,2001-07-11,2001-01-01,36,5,2.0,0,0,0,0,Y,N,P I F,50000.0,25000.0,62,0
655,SANTA ANA,CA,92707,WELLS FARGO BANK NATL ASSOC,CA,561990,2001-07-11,2001-01-01,36,3,1.0,0,0,0,0,Y,N,P I F,32000.0,16000.0,56,0
656,SAN MARCOS,CA,92069,WELLS FARGO BANK NATL ASSOC,CA,422990,2001-07-11,2001-01-01,36,5,1.0,0,0,0,0,Y,N,P I F,25000.0,12500.0,42,0
657,ALPHARETTA,GA,30004,BANK OF AMERICA NATL ASSOC,GA,441110,2006-02-07,2006-01-01,60,42,1.0,2,44,0,1,-,N,P I F,180500.0,135375.0,44,42
658,ORANGE,CA,92867,WELLS FARGO BANK NATL ASSOC,CA,235210,2001-07-11,2001-01-01,36,3,1.0,0,0,0,0,Y,N,P I F,50000.0,25000.0,23,0
659,SOUTH BEND,IN,46628,1ST SOURCE BANK,IN,447190,2006-02-07,2006-01-01,62,11,1.0,0,11,0,2,-,N,P I F,22500.0,11250.0,44,11
660,SOUTH GATE,CA,90280,BANK OF AMERICA NATL ASSOC,CA,0,1997-03-03,1997-01-01,300,1,1.0,0,0,0,0,-,N,P I F,405000.0,303750.0,0,0
661,SAN MARCOS,CA,92069,WELLS FARGO BANK NATL ASSOC,CA,453930,2001-07-11,2001-01-01,36,17,1.0,0,0,0,0,Y,N,P I F,100000.0,50000.0,45,0
662,MENASHA,WI,54952,ASSOCIATED BANK NATL ASSOC,WI,531320,2006-02-07,2006-01-01,36,17,1.0,0,17,0,2,Y,N,P I F,50000.0,25000.0,53,17
663,SUTTER CREEK,CA,95685,AMADOR ECONOMIC DEVEL CORP,CA,541330,2001-07-12,2001-01-01,36,4,1.0,0,0,0,0,Y,N,P I F,75000.0,37500.0,54,0
664,SAN DIEGO,CA,92117,CDC SMALL BUS. FINAN CORP,CA,561439,2001-07-17,2001-01-01,36,8,1.0,0,0,0,0,Y,N,P I F,80000.0,40000.0,56,0
665,LYNNWOOD,WA,98087,HERITAGE BANK,WA,722330,2006-02-07,2006-01-01,68,1,1.0,0,1,1,1,-,N,P I F,55500.0,47175.0,72,1
666,SOUTH LAKE TAHOE,CA,96150,WELLS FARGO BANK NATL ASSOC,CA,332322,2001-07-18,2001-01-01,300,7,1.0,0,0,0,0,N,N,P I F,823000.0,617250.0,33,0
667,CHICAGO,IL,60651,JPMORGAN CHASE BANK NATL ASSOC,IL,311823,1997-03-03,1997-01-01,84,16,1.0,0,0,0,0,-,N,P I F,65000.0,48750.0,31,0
668,LOS ANGELES,CA,90014,BANK OF AMERICA NATL ASSOC,CA,315211,2001-07-18,2001-01-01,12,65,1.0,0,0,0,0,Y,N,CHGOFF,100000.0,50000.0,31,0
669,MOUNTAIN VIEW,CA,94043,WELLS FARGO BANK NATL ASSOC,CA,326191,2001-07-19,2001-01-01,36,3,1.0,0,0,0,0,N,N,P I F,46000.0,23000.0,32,0
670,EL CAJON,CA,92021,CDC SMALL BUS. FINAN CORP,CA,235310,2001-07-19,2001-01-01,36,8,1.0,0,0,0,0,Y,N,P I F,100000.0,50000.0,23,0
671,BROOKLYN,NY,11226,JPMORGAN CHASE BANK NATL ASSOC,IL,424490,2006-02-07,2006-01-01,0,10,1.0,7,10,0,1,Y,N,CHGOFF,30000.0,15000.0,42,3
672,TEMECULA,CA,92592,WELLS FARGO BANK NATL ASSOC,CA,541613,2001-07-19,2001-01-01,36,2,1.0,0,0,0,0,Y,N,P I F,100000.0,50000.0,54,0
673,CUMMING,GA,30040,BANK OF AMERICA NATL ASSOC,GA,445291,2006-02-07,2006-01-01,84,3,1.0,0,3,0,2,Y,N,P I F,30000.0,15000.0,44,3
674,BRIDGTON,ME,4009,KEYBANK NATIONAL ASSOCIATION,ME,421940,1997-03-03,1997-01-01,60,9,1.0,0,0,0,0,-,N,P I F,30000.0,15000.0,42,0
675,SAN JOSE,CA,95113,WELLS FARGO BANK NATL ASSOC,CA,445299,2001-07-23,2001-01-01,120,10,1.0,0,0,1,0,N,N,P I F,225000.0,168750.0,44,0
676,SACRAMENTO,CA,95825,WELLS FARGO BANK NATL ASSOC,CA,443120,2001-07-25,2001-01-01,3,8,1.0,0,0,0,0,Y,N,CHGOFF,100000.0,50000.0,44,0
677,HOBBS,NM,88240,WESTERN COMMERCE BANK,NM,213112,2006-02-07,2006-01-01,60,7,1.0,1,7,0,2,-,N,P I F,125000.0,62500.0,21,6
678,CLEVELAND,OH,44114,CITIZENS BANK NATL ASSOC,OH,0,1980-07-08,1980-01-01,120,18,2.0,0,0,0,0,N,N,CHGOFF,275000.0,247500.0,0,0
679,IRVINE,CA,92714,BANK OF AMERICA NATL ASSOC,CA,0,1997-03-03,1997-01-01,300,10,1.0,0,0,0,0,-,N,P I F,1080000.0,749952.0,0,0
680,HUNTINGTON BEACH,CA,92646,BANK OF AMERICA NATL ASSOC,CA,422990,2001-07-26,2001-01-01,35,3,1.0,0,0,0,0,Y,N,CHGOFF,30000.0,15000.0,42,0
681,EL CAJON,CA,92020,CDC SMALL BUS. FINAN CORP,CA,337110,2006-02-07,2006-01-01,11,14,1.0,0,14,0,2,Y,N,CHGOFF,50000.0,25000.0,33,14
682,SAN DIEGO,CA,92177,CDC SMALL BUS. FINAN CORP,CA,621310,2001-07-30,2001-01-01,36,2,1.0,0,0,0,0,Y,N,P I F,20000.0,10000.0,62,0
683,TRENTON,NJ,8608,"PNC BANK, NATIONAL ASSOCIATION",NJ,541110,1997-03-03,1997-01-01,300,4,2.0,0,0,0,0,-,N,P I F,225000.0,168750.0,54,0
684,SACRAMENTO,CA,95821,WELLS FARGO BANK NATL ASSOC,CA,541430,2001-07-31,2001-01-01,83,1,1.0,0,0,0,0,Y,N,P I F,22000.0,11000.0,54,0
685,LOS ANGELES,CA,90025,BANK OF AMERICA NATL ASSOC,CA,339116,2001-07-31,2001-01-01,36,1,1.0,0,0,0,0,Y,N,P I F,12000.0,6000.0,33,0
686,MAPLEWOOD,MN,55109,WELLS FARGO BANK NATL ASSOC,MN,561730,2006-02-07,2006-01-01,240,5,1.0,1,1,0,1,-,N,P I F,147000.0,147000.0,56,0
687,SAN ANTONIO,TX,78221,WELLS FARGO BANK NATL ASSOC,TX,0,1997-03-03,1997-01-01,5,2,2.0,0,0,1,0,-,N,CHGOFF,112000.0,84000.0,0,0
688,HUNTINGTON BEACH,CA,92646,BANK OF AMERICA NATL ASSOC,CA,445310,2001-07-31,2001-01-01,60,2,1.0,0,0,0,0,N,N,P I F,50000.0,25000.0,44,0
689,LOS ANGELES,CA,90021,BANK OF AMERICA NATL ASSOC,CA,424320,2006-02-07,2006-01-01,17,20,2.0,1,20,0,1,Y,N,CHGOFF,45000.0,22500.0,42,19
690,DALLAS,TX,75201,JPMORGAN CHASE BANK NATL ASSOC,TX,0,1997-03-03,1997-01-01,120,21,2.0,0,0,1,0,-,N,P I F,190000.0,142500.0,0,0
691,INDIO,CA,92201,CDC SMALL BUS. FINAN CORP,CA,541211,2001-08-01,2001-01-01,84,9,1.0,0,0,0,0,N,N,P I F,100000.0,50000.0,54,0
692,GALVESTON,TX,77551,BANK OF AMERICA NATL ASSOC,TX,235110,2006-02-07,2006-01-01,69,3,2.0,2,3,0,1,-,N,CHGOFF,5000.0,4250.0,23,1
693,LOS ANGELES,CA,90010,BANK OF AMERICA NATL ASSOC,CA,541211,2001-08-01,2001-01-01,36,3,1.0,0,0,0,0,Y,N,P I F,85000.0,42500.0,54,0
694,LEXINGTON,KY,29073,JPMORGAN CHASE BANK NATL ASSOC,KY,0,1997-03-03,1997-01-01,84,11,1.0,0,0,0,0,-,N,P I F,424000.0,318000.0,0,0
695,SAN DIEGO,CA,92103,CDC SMALL BUS. FINAN CORP,CA,531210,2001-08-01,2001-01-01,36,10,1.0,0,0,0,0,Y,N,P I F,30000.0,15000.0,53,0
696,REDLANDS,CA,92373,1ST CENTENNIAL BANK,CA,235610,2001-08-02,2001-01-01,21,50,1.0,0,0,0,0,Y,N,CHGOFF,50000.0,25000.0,23,0
697,SUITLAND,MD,20746,BBCN BANK,CA,484110,2006-02-07,2006-01-01,120,2,1.0,0,2,0,1,-,N,P I F,459000.0,344250.0,48,2
698,SANTA MONICA,CA,90403,BANK OF AMERICA NATL ASSOC,CA,325411,2001-08-02,2001-01-01,120,1,1.0,0,0,0,0,Y,N,P I F,100000.0,50000.0,32,0
699,SAN ANTONIO,TX,78221,WELLS FARGO BANK NATL ASSOC,TX,0,1997-03-03,1997-01-01,90,2,2.0,0,0,1,0,-,N,P I F,88000.0,66000.0,0,0
700,LOS ANGELES,CA,90032,BANK OF AMERICA NATL ASSOC,CA,421450,2001-08-03,2001-01-01,83,4,1.0,0,0,0,0,Y,N,P I F,50000.0,25000.0,42,0
701,WAVELAND,MS,39576,WHITNEY BANK,MS,453910,2006-02-07,2006-01-01,86,2,1.0,2,2,0,2,-,N,CHGOFF,93000.0,79050.0,45,0
702,WESTMINSTER,CA,92683,BANK OF AMERICA NATL ASSOC,CA,235110,2001-08-03,2001-01-01,36,30,1.0,0,0,0,0,Y,N,P I F,50000.0,25000.0,23,0
703,LOS ANGELES,CA,90005,BANK OF AMERICA NATL ASSOC,CA,443112,2001-08-08,2001-01-01,36,5,1.0,0,0,0,0,Y,N,P I F,50000.0,25000.0,44,0
704,BELLE GLADE,FL,33430,BANK OF AMERICA NATL ASSOC,FL,0,1997-03-03,1997-01-01,120,12,1.0,0,0,0,0,-,N,P I F,450000.0,337500.0,0,0
705,LOS ANGELES,CA,90045,BANK OF AMERICA NATL ASSOC,CA,488510,2001-08-08,2001-01-01,60,3,1.0,0,0,0,0,N,N,P I F,100000.0,50000.0,48,0
706,OSWEGO,NY,13126,PATHFINDER BANK,NY,0,1997-03-03,1997-01-01,84,1,1.0,0,0,0,0,-,N,P I F,50000.0,25000.0,0,0
707,LOS ANGELES,CA,90045,BANK OF AMERICA NATL ASSOC,CA,541512,2001-08-08,2001-01-01,60,25,1.0,0,0,0,0,N,N,P I F,100000.0,50000.0,54,0
708,FRESNO,CA,93711,CALIFORNIA BANK & TRUST,CA,541110,2001-08-09,2001-01-01,36,1,1.0,0,0,0,0,Y,N,P I F,92000.0,46000.0,54,0
709,HUNTSVILLE,AL,35824,REDSTONE FCU,AL,325412,1997-03-03,1997-01-01,240,25,2.0,25,0,0,0,N,N,P I F,372000.0,372000.0,32,-25
710,FREMONT,CA,94536,WELLS FARGO BANK NATL ASSOC,CA,561310,2001-08-16,2001-01-01,43,3,1.0,0,0,0,0,Y,N,CHGOFF,20000.0,10000.0,56,0
711,ALBUQUERQUE,NM,87112,WELLS FARGO BANK NATL ASSOC,NM,234110,1997-03-03,1997-01-01,91,8,2.0,0,0,0,0,N,N,CHGOFF,104300.0,78225.0,23,0
712,COSTA MESA,CA,92627,WELLS FARGO BANK NATL ASSOC,CA,562910,2001-08-17,2001-01-01,83,1,1.0,0,0,0,0,Y,N,P I F,60000.0,30000.0,56,0
713,SANTEE,CA,92071,CDC SMALL BUS. FINAN CORP,CA,541214,2001-08-20,2001-01-01,36,4,1.0,0,0,0,0,N,N,P I F,40000.0,20000.0,54,0
714,MCHENRY,IL,60050,JPMORGAN CHASE BANK NATL ASSOC,IL,0,1997-03-03,1997-01-01,90,2,1.0,0,0,0,0,-,N,P I F,27000.0,21600.0,0,0
715,SAN MARCOS,CA,92069,WELLS FARGO BANK NATL ASSOC,CA,621340,2001-08-21,2001-01-01,36,1,1.0,0,0,0,0,Y,N,P I F,50000.0,25000.0,62,0
716,LOS ANGELES,CA,90014,BANK OF AMERICA NATL ASSOC,CA,315231,2001-08-22,2001-01-01,36,50,1.0,0,0,0,0,Y,N,P I F,100000.0,50000.0,31,0
717,NEWARK,NJ,43055,"PNC BANK, NATIONAL ASSOCIATION",DE,448210,1997-03-03,1997-01-01,84,3,1.0,0,0,0,0,N,Y,P I F,50000.0,40000.0,44,0
718,LOS ANGELES,CA,90045,BANK OF AMERICA NATL ASSOC,CA,722110,2001-08-27,2001-01-01,84,45,1.0,0,0,0,0,Y,N,P I F,50000.0,25000.0,72,0
719,LEWISVILLE,TX,75067,JPMORGAN CHASE BANK NATL ASSOC,TX,811192,1997-03-03,1997-01-01,288,20,1.0,0,0,0,0,-,N,P I F,1200000.0,750000.0,81,0
720,SAN FRANCISCO,CA,94104,WELLS FARGO BANK NATL ASSOC,CA,541820,2001-08-30,2001-01-01,36,1,1.0,0,0,0,0,Y,N,P I F,50000.0,25000.0,54,0
721,DANVILLE,CA,94526,OLD NATIONAL BANK,IL,453310,2001-09-04,2001-01-01,89,3,1.0,0,0,0,0,Y,N,P I F,80000.0,40000.0,45,0
722,SEATTLE,WA,98117,BANK OF AMERICA NATL ASSOC,WA,0,1997-03-03,1997-01-01,84,1,1.0,0,0,0,0,-,N,P I F,100000.0,75000.0,0,0
723,SAN DIEGO,CA,92121,CDC SMALL BUS. FINAN CORP,CA,443120,2001-09-04,2001-01-01,36,6,1.0,0,0,0,0,Y,N,P I F,50000.0,25000.0,44,0
724,CORONA,CA,91719,CDC SMALL BUS. FINAN CORP,CA,0,1997-03-03,1997-01-01,276,8,1.0,0,0,0,0,-,N,P I F,625000.0,468750.0,0,0
725,FREMONT,CA,94538,WELLS FARGO BANK NATL ASSOC,CA,421610,2001-09-07,2001-01-01,84,9,1.0,0,0,0,0,N,N,P I F,200000.0,150000.0,42,0
726,WESTERVILLE,OH,43081,JPMORGAN CHASE BANK NATL ASSOC,OH,451110,1997-03-03,1997-01-01,92,1,2.0,0,0,0,0,-,N,P I F,166500.0,124875.0,45,0
727,ESCONDIDO,CA,92025,WELLS FARGO BANK NATL ASSOC,CA,445120,2001-09-12,2001-01-01,82,2,1.0,0,0,0,0,Y,N,P I F,100000.0,50000.0,44,0
728,LOUISVILLE,KY,40219,"PNC BANK, NATIONAL ASSOCIATION",KY,811121,1997-03-03,1997-01-01,240,4,1.0,0,0,0,0,-,N,P I F,464000.0,348000.0,81,0
729,FRESNO,CA,93720,CALIFORNIA BANK & TRUST,CA,621111,2001-09-12,2001-01-01,36,3,1.0,0,0,0,0,Y,N,P I F,20000.0,10000.0,62,0
730,ALEXANDRIA,VA,56308,BANK OF AMERICA NATL ASSOC,VA,452990,1997-03-03,1997-01-01,183,3,2.0,0,0,0,0,-,N,P I F,133000.0,99750.0,45,0
731,FRESNO,CA,93720,CALIFORNIA BANK & TRUST,CA,621111,2001-09-12,2001-01-01,60,3,1.0,0,0,0,0,N,N,P I F,30000.0,15000.0,62,0
732,LAKEWOOD,CO,80226,WELLS FARGO BANK NATL ASSOC,CO,541940,1997-03-03,1997-01-01,120,2,1.0,0,0,0,0,-,N,P I F,128000.0,96000.0,54,0
733,CAPISTRANO BEACH,CA,92624,CALIFORNIA BANK & TRUST,CA,561730,2001-09-14,2001-01-01,84,97,1.0,0,0,0,0,Y,N,P I F,50000.0,25000.0,56,0
734,CANFIELD,OH,44406,THE HUNTINGTON NATIONAL BANK,OH,233210,1997-03-03,1997-01-01,60,1,1.0,0,0,0,0,Y,N,P I F,25000.0,12500.0,23,0
735,VISTA,CA,92084,CDC SMALL BUS. FINAN CORP,CA,442210,2002-11-06,2003-01-01,2,2,1.0,0,0,0,0,Y,N,CHGOFF,40000.0,20000.0,44,0
736,DOWNEY,CA,90242,BANK OF AMERICA NATL ASSOC,CA,422990,2002-11-06,2003-01-01,83,10,1.0,0,0,0,0,N,N,P I F,100000.0,50000.0,42,0
737,FORT MEYERS BEACH,FL,33931,WELLS FARGO BANK NATL ASSOC,SD,0,1997-03-03,1997-01-01,60,7,1.0,0,0,0,0,-,N,P I F,15000.0,7500.0,0,0
738,MONTE VISTA,CO,81144,COMMUNITY BANKS OF COLORADO A,CO,561730,2002-11-06,2003-01-01,36,2,1.0,0,0,0,2,Y,N,P I F,25000.0,12500.0,56,0
739,COLORADO SPRINGS,CO,80906,WELLS FARGO BANK NATL ASSOC,CO,722211,2002-12-10,2003-01-01,36,30,1.0,0,0,0,1,Y,N,P I F,50000.0,25000.0,72,0
740,FLINT,MI,48507,"FIRSTMERIT BANK, N.A.",MI,0,1997-03-03,1997-01-01,132,8,1.0,0,0,0,0,N,N,P I F,525000.0,393750.0,0,0
741,LOS ANGELES,CA,90010,BANK OF AMERICA NATL ASSOC,CA,541110,2002-12-10,2003-01-01,36,8,1.0,0,0,0,0,Y,N,P I F,50000.0,25000.0,54,0
742,MIAMI,FL,33193,BANK OF AMERICA NATL ASSOC,NC,334290,2002-12-10,2003-01-01,34,8,1.0,0,0,0,0,N,N,CHGOFF,100000.0,50000.0,33,0
743,DECATUR,GA,30030,BANK OF AMERICA NATL ASSOC,AL,0,1997-03-03,1997-01-01,60,7,1.0,0,0,0,0,-,N,P I F,155000.0,116250.0,0,0
744,EMPIRE,LA,95319,MISSISSIPPI RIVER BANK,LA,541940,2002-12-10,2003-01-01,36,8,1.0,0,0,0,2,Y,N,P I F,10000.0,5000.0,54,0
745,PALMDALE,CA,93550,CALIFORNIA BANK & TRUST,CA,621391,2002-12-10,2003-01-01,83,3,1.0,0,0,0,0,Y,N,P I F,86000.0,43000.0,62,0
746,LOS ANGELES,CA,90016,BANK OF AMERICA NATL ASSOC,CA,811420,2002-12-10,2003-01-01,14,1,1.0,0,0,0,0,Y,N,CHGOFF,42200.0,21100.0,81,0
747,LOS ANGELES,CA,90025,BANK OF AMERICA NATL ASSOC,CA,0,1997-03-03,1997-01-01,131,1,2.0,0,0,1,0,-,N,CHGOFF,346000.0,259500.0,0,0
748,POMONA,CA,91768,WELLS FARGO BANK NATL ASSOC,CA,339950,2002-12-18,2003-01-01,60,7,1.0,0,0,0,0,N,N,P I F,15000.0,7500.0,33,0
749,GARDEN GROVE,CA,92643,BANK OF AMERICA NATL ASSOC,CA,235930,1997-03-03,1997-01-01,300,45,1.0,0,0,0,0,-,N,P I F,477000.0,357750.0,23,0
750,COSTA MESA,CA,92626,WELLS FARGO BANK NATL ASSOC,CA,621111,2002-12-19,2003-01-01,36,2,1.0,0,0,0,0,Y,N,P I F,36900.0,18450.0,62,0
751,CARSON,CA,90746,BANK OF AMERICA NATL ASSOC,CA,332214,2002-12-19,2003-01-01,36,7,2.0,0,0,0,0,Y,N,P I F,100000.0,50000.0,33,0
752,GILMANTON,NH,3237,CITIZENS BANK NATL ASSOC,NH,0,1997-03-03,1997-01-01,84,2,2.0,0,0,0,0,N,Y,P I F,49000.0,39200.0,0,0
753,LA VERNE,CA,91750,WELLS FARGO BANK NATL ASSOC,CA,524298,2002-12-24,2003-01-01,36,1,1.0,0,0,0,0,Y,N,P I F,10000.0,5000.0,52,0
754,MARTINEZ,CA,94553,WELLS FARGO BANK NATL ASSOC,CA,811111,2002-12-24,2003-01-01,84,2,1.0,0,0,0,0,Y,N,P I F,50000.0,25000.0,81,0
755,DESERT HOT SPRINGS,CA,92240,BANK OF AMERICA NATL ASSOC,CA,561621,2002-12-24,2003-01-01,9,25,1.0,0,0,0,0,Y,N,CHGOFF,80000.0,40000.0,56,0
756,ORANGE,CA,92869,WELLS FARGO BANK NATL ASSOC,CA,484110,2002-12-26,2003-01-01,36,8,1.0,0,0,0,0,Y,N,P I F,50000.0,25000.0,48,0
757,SEDONA,AZ,86336,JPMORGAN CHASE BANK NATL ASSOC,AZ,561431,2002-12-27,2003-01-01,84,8,1.0,0,0,1,0,N,N,P I F,90000.0,45000.0,56,0
758,MAYWOOD,CA,90270,BANK OF AMERICA NATL ASSOC,CA,812320,1997-03-03,1997-01-01,120,2,1.0,0,0,0,0,-,N,P I F,320000.0,240000.0,81,0
759,HACIENDA HEIGHTS,CA,91745,BANK OF AMERICA NATL ASSOC,CA,928120,2002-12-27,2003-01-01,36,3,1.0,0,0,0,0,N,N,P I F,100000.0,50000.0,92,0
760,HIALEAH,FL,33010,BANK OF AMERICA NATL ASSOC,NC,928120,2002-12-27,2003-01-01,34,5,1.0,0,0,0,0,N,N,CHGOFF,100000.0,50000.0,92,0
761,PAOLI,PA,19301,CITIZENS BANK NATL ASSOC,PA,0,1997-03-03,1997-01-01,84,10,1.0,0,0,0,0,N,Y,P I F,100000.0,80000.0,0,0
762,HESPERUS,CO,81326,CALIFORNIA BANK & TRUST,CA,722110,2002-12-27,2003-01-01,78,20,1.0,0,0,0,2,Y,N,P I F,50000.0,25000.0,72,0
763,SCOTTSDALE,AZ,85254,WELLS FARGO BANK NATL ASSOC,AZ,0,1997-03-03,1997-01-01,99,25,1.0,0,0,0,0,-,N,P I F,622000.0,466500.0,0,0
764,HESPERUS,CO,81326,CALIFORNIA BANK & TRUST,CA,722110,2002-12-27,2003-01-01,60,20,1.0,0,0,0,2,N,N,P I F,50000.0,25000.0,72,0
765,MARION,IA,43302,U.S. BANK NATIONAL ASSOCIATION,IA,621310,1997-03-03,1997-01-01,60,4,2.0,0,0,0,0,N,Y,P I F,65787.0,52630.0,62,0
766,LA MESA,CA,91941,CALIFORNIA BANK & TRUST,CA,621310,2003-01-06,2003-01-01,84,10,1.0,0,0,0,0,Y,N,P I F,50000.0,25000.0,62,0
767,LOS ANGELES,CA,90036,BANK OF AMERICA NATL ASSOC,CA,445299,2003-01-06,2003-01-01,36,16,1.0,0,0,0,0,Y,N,P I F,60000.0,30000.0,44,0
768,SALT LAKE CITY,UT,84116,ZIONS FIRST NATIONAL BANK,UT,0,1997-03-03,1997-01-01,300,100,1.0,0,0,0,0,-,N,P I F,950000.0,712500.0,0,0
769,SAN BERNARDINO,CA,92408,BANK OF AMERICA NATL ASSOC,CA,325998,2003-01-06,2003-01-01,60,2,1.0,0,0,0,0,N,N,P I F,20000.0,17000.0,32,0
770,AUSTIN,TX,78705,WELLS FARGO BANK NATL ASSOC,TX,446110,1997-03-03,1997-01-01,300,6,1.0,0,0,0,0,-,N,P I F,190000.0,142500.0,44,0
771,LOS ANGELES,CA,90064,BANK OF AMERICA NATL ASSOC,CA,512210,2003-01-06,2003-01-01,36,6,2.0,0,0,0,0,Y,N,P I F,50000.0,25000.0,51,0
772,LAS VEGAS,NV,89118,BANK OF AMERICA NATL ASSOC,NV,323110,2003-01-10,2003-01-01,0,10,1.0,0,0,0,0,Y,N,CHGOFF,50000.0,25000.0,32,0
773,SANTA FE,NM,87501,BANK OF AMERICA NATL ASSOC,NM,453930,1997-03-03,1997-01-01,180,16,1.0,0,0,0,0,N,N,P I F,600000.0,450000.0,45,0
774,MONTEBELLO,CA,90640,BANK OF AMERICA NATL ASSOC,CA,448310,2003-01-13,2003-01-01,10,1,1.0,0,0,0,0,N,N,CHGOFF,30000.0,15000.0,44,0
775,DESERT CENTER,CA,92239,CALIFORNIA BANK & TRUST,CA,445120,2003-01-14,2003-01-01,48,3,1.0,0,0,0,0,N,N,P I F,20000.0,10000.0,44,0
776,EAST HAMPTON,CT,6424,CITIZENS BANK NATL ASSOC,RI,233210,1997-03-03,1997-01-01,300,1,1.0,0,0,0,0,-,N,P I F,128000.0,96000.0,23,0
777,SAN DIEGO,CA,92108,CDC SMALL BUS. FINAN CORP,CA,531312,2003-01-14,2003-01-01,36,6,1.0,0,0,0,0,Y,N,P I F,50000.0,25000.0,53,0
778,FREMONT,CA,94555,WELLS FARGO BANK NATL ASSOC,CA,0,1997-03-03,1997-01-01,120,4,1.0,0,0,0,0,-,N,P I F,170000.0,127500.0,0,0
779,SANTA ANA,CA,92704,WELLS FARGO BANK NATL ASSOC,CA,448190,2003-01-14,2003-01-01,36,2,1.0,0,0,0,0,Y,N,P I F,75000.0,37500.0,44,0
780,DALY CITY,CA,94014,WELLS FARGO BANK NATL ASSOC,CA,443112,2003-01-14,2003-01-01,17,3,1.0,0,0,0,0,Y,N,CHGOFF,50000.0,25000.0,44,0
781,LONG BEACH,CA,90804,BANK OF AMERICA NATL ASSOC,CA,621320,2003-01-14,2003-01-01,36,10,1.0,0,0,0,0,N,N,P I F,100000.0,50000.0,62,0
782,COSTA MESA,CA,92627,WELLS FARGO BANK NATL ASSOC,CA,235310,2003-01-14,2003-01-01,83,9,1.0,0,0,0,0,Y,N,P I F,40000.0,20000.0,23,0
783,ST LOUIS,MO,63132,ST. LOUIS LOCAL DEVEL CO,MO,0,1997-03-03,1997-01-01,84,10,1.0,0,0,0,1,N,N,P I F,150000.0,112500.0,0,0
784,SAN DIEGO,CA,92108,CDC SMALL BUS. FINAN CORP,CA,621111,2003-01-16,2003-01-01,36,2,1.0,0,0,0,0,N,N,P I F,100000.0,50000.0,62,0
785,GRAND RAPIDS,MI,49546,UNITED BANK OF MICHIGAN,MI,0,1997-03-03,1997-01-01,72,8,1.0,0,0,0,0,N,N,P I F,630000.0,472500.0,0,0
786,LOS ANGELES,CA,90013,BANK OF AMERICA NATL ASSOC,CA,421940,2003-01-16,2003-01-01,5,10,1.0,0,0,0,0,Y,N,CHGOFF,100000.0,50000.0,42,0
787,ALSIP,IL,60658,CITIZENS BANK NATL ASSOC,IL,0,1980-07-03,1980-01-01,84,20,2.0,0,0,0,0,N,N,CHGOFF,550000.0,495000.0,0,0
788,LITTLETON,CO,80120,WELLS FARGO BANK NATL ASSOC,CO,451110,2003-01-16,2003-01-01,36,4,1.0,0,0,0,1,Y,N,P I F,60000.0,30000.0,45,0
789,UNION BRIDGE,MD,21791,BRANCH BK. & TR CO,NC,722211,2006-02-08,2006-01-01,240,22,1.0,0,0,0,2,N,N,P I F,210000.0,157500.0,72,0
790,TUSTIN,CA,92780,WELLS FARGO BANK NATL ASSOC,CA,235210,2003-01-23,2003-01-01,7,30,1.0,0,0,0,0,Y,N,CHGOFF,50000.0,25000.0,23,0
791,LYNWOOD,CA,90262,BBCN BANK,CA,441310,2003-01-23,2003-01-01,36,11,1.0,0,0,0,0,Y,N,P I F,100000.0,50000.0,44,0
792,BLOOMFIELD,CT,48013,BANK OF AMERICA NATL ASSOC,CT,0,1980-06-30,1980-01-01,84,1,2.0,0,0,0,0,N,N,CHGOFF,235000.0,211500.0,0,0
793,GOLDEN,CO,80401,U.S. BANK NATIONAL ASSOCIATION,CO,541620,2003-01-23,2003-01-01,36,5,1.0,0,0,0,1,Y,N,P I F,100000.0,50000.0,54,0
794,SARGENT,TX,77414,BBCN BANK,CA,812990,2006-02-08,2006-01-01,84,1,2.0,1,1,0,1,-,N,P I F,5000.0,4250.0,81,0
795,SAN MARCOS,CA,92069,WELLS FARGO BANK NATL ASSOC,CA,722410,2003-01-23,2003-01-01,36,20,1.0,0,0,0,0,Y,N,P I F,50000.0,25000.0,72,0
796,LAGUNA HILLS (LEISURE WORLD),CA,92653,WELLS FARGO BANK NATL ASSOC,CA,522310,2006-02-08,2006-01-01,54,3,2.0,5,3,0,2,Y,N,CHGOFF,50000.0,25000.0,52,-2
797,LAKESIDE,CA,92040,CDC SMALL BUS. FINAN CORP,CA,336312,2003-01-28,2003-01-01,42,3,1.0,0,0,0,2,Y,N,CHGOFF,20000.0,10000.0,33,0
798,LOS ANGELES,CA,90010,BANK OF AMERICA NATL ASSOC,CA,421690,2003-01-30,2003-01-01,4,2,1.0,0,0,0,0,N,N,CHGOFF,100000.0,50000.0,42,0
799,LOS ANGELES,CA,90020,BANK OF AMERICA NATL ASSOC,CA,446120,2003-01-30,2003-01-01,18,2,1.0,0,0,0,0,Y,N,CHGOFF,45000.0,22500.0,44,0
800,HICKORY,NC,28602,COMMUNITYONE BANK NATL ASSOC,NC,238140,2006-02-08,2006-01-01,60,2,1.0,0,2,0,2,-,N,P I F,30000.0,15000.0,23,2
801,BYRON CENTER,MI,49315,THE HUNTINGTON NATIONAL BANK,MI,0,1997-03-03,1997-01-01,84,7,1.0,0,0,0,0,N,N,P I F,200000.0,150000.0,0,0
802,IRVINE,CA,92612,BANK OF AMERICA NATL ASSOC,CA,523930,2003-01-30,2003-01-01,83,4,1.0,0,0,0,0,Y,N,P I F,100000.0,50000.0,52,0
803,MOUNTAIN VIEW,CA,94043,WELLS FARGO BANK NATL ASSOC,CA,422690,1997-03-03,1997-01-01,84,10,1.0,0,0,0,0,N,N,P I F,175000.0,131250.0,42,0
804,MILLBRAE,CA,94030,WELLS FARGO BANK NATL ASSOC,CA,442299,2003-01-30,2003-01-01,36,3,2.0,0,0,0,0,Y,N,P I F,50000.0,25000.0,44,0
805,WESTBOROUGH,MA,1581,CITIZENS BANK NATL ASSOC,MA,323113,2003-01-31,2003-01-01,84,22,2.0,0,0,0,0,N,N,P I F,200000.0,100000.0,32,0
806,CAMERON PARK,CA,95682,WELLS FARGO BANK NATL ASSOC,CA,722211,2006-02-08,2006-01-01,129,5,2.0,2,5,0,1,N,N,CHGOFF,248000.0,186000.0,72,3
807,PALM DESERT,CA,92211,CDC SMALL BUS. FINAN CORP,CA,235110,2003-02-05,2003-01-01,36,23,1.0,0,0,0,0,Y,N,P I F,50000.0,25000.0,23,0
808,AMSTERDAM,NY,12010,BANK OF AMERICA NATL ASSOC,NY,423120,2006-02-08,2006-01-01,216,5,2.0,1,5,0,2,-,N,P I F,233700.0,175275.0,42,4
809,ANN ARBOR,MI,48103,"FIRSTMERIT BANK, N.A.",MI,335312,2003-02-06,2003-01-01,97,7,1.0,0,0,0,0,Y,N,P I F,150000.0,75000.0,33,0
810,LOS ANGELES,CA,90013,BANK OF AMERICA NATL ASSOC,CA,421920,2003-02-07,2003-01-01,8,5,1.0,0,0,0,0,Y,N,CHGOFF,150000.0,75000.0,42,0
811,SILER CITY,NC,27344,CAPITAL ONE NATL ASSOC,NC,721110,2006-02-08,2006-01-01,300,4,2.0,4,4,0,1,-,N,P I F,640000.0,480000.0,72,0
812,PHOENIX,AZ,85029,WELLS FARGO BANK NATL ASSOC,IL,541310,2003-02-14,2003-01-01,46,23,1.0,0,0,0,0,Y,N,P I F,100000.0,50000.0,54,0
813,FAIRVIEW,NJ,7022,BANK OF AMERICA NATL ASSOC,PA,812310,2006-02-08,2006-01-01,120,2,2.0,0,2,0,1,-,N,P I F,170000.0,85000.0,81,2
814,LOS ANGELES,CA,90003,BANK OF AMERICA NATL ASSOC,CA,811113,2003-02-19,2003-01-01,29,2,1.0,0,0,0,0,Y,N,CHGOFF,45000.0,22500.0,81,0
815,SAN LEANDRO,CA,94577,WELLS FARGO BANK NATL ASSOC,CA,448130,2006-02-08,2006-01-01,27,1,1.0,0,1,0,1,Y,N,CHGOFF,30000.0,15000.0,44,1
816,LOS ANGELES,CA,90012,BANK OF AMERICA NATL ASSOC,CA,524210,2003-02-19,2003-01-01,84,2,1.0,0,0,0,0,N,N,P I F,15000.0,7500.0,52,0
817,PEQUOT LAKES,MN,56472,AMER NATL BK OF MINNESOTA,MN,713990,2006-02-08,2006-01-01,45,1,1.0,0,1,0,2,-,N,CHGOFF,330000.0,247500.0,71,1
818,SAN DIEGO,CA,92121,CDC SMALL BUS. FINAN CORP,CA,561790,2003-02-27,2003-01-01,60,22,1.0,0,0,0,0,N,N,P I F,100000.0,50000.0,56,0
819,SPARKS,NV,89436,NEVADA ST. DEVEL CORP,NV,447110,2003-02-27,2003-01-01,84,11,1.0,0,0,0,0,N,N,P I F,100000.0,50000.0,44,0
820,SAN ANTONIO,TX,78227,WELLS FARGO BANK NATL ASSOC,TX,621210,2006-02-08,2006-01-01,289,5,1.0,5,0,0,1,-,N,P I F,998000.0,748500.0,62,-5
821,DEWITT,IA,52742,FIRST CENTRAL STATE BANK,IA,0,1997-03-03,1997-01-01,60,9,1.0,0,0,1,0,N,Y,P I F,75000.0,60000.0,0,0
822,DENVER,CO,80216,WELLS FARGO BANK NATL ASSOC,CO,332312,2003-02-27,2003-01-01,30,5,1.0,0,0,0,1,Y,N,CHGOFF,100000.0,50000.0,33,0
823,ARLINGTON,TX,76006,JPMORGAN CHASE BANK NATL ASSOC,TX,541990,2006-02-08,2006-01-01,36,7,1.0,0,7,0,1,Y,N,CHGOFF,200000.0,100000.0,54,7
824,IRVINE,CA,92618,BANK OF AMERICA NATL ASSOC,CA,611430,2003-02-27,2003-01-01,83,4,1.0,0,0,0,0,Y,N,P I F,50000.0,25000.0,61,0
825,AURORA,CO,80012,WELLS FARGO BANK NATL ASSOC,IL,624410,2006-02-08,2006-01-01,37,25,2.0,0,25,0,1,-,N,CHGOFF,150000.0,127500.0,62,25
826,CALDWELL,ID,7006,ZIONS FIRST NATIONAL BANK,ID,722110,2003-02-27,2003-01-01,6,46,1.0,0,0,0,0,N,N,P I F,100000.0,50000.0,72,0
827,HOUSTON,TX,77012,JPMORGAN CHASE BANK NATL ASSOC,TX,332710,2003-03-03,2003-01-01,60,4,1.0,0,0,0,0,N,N,P I F,55000.0,27500.0,33,0
828,BERKELEY,CA,94709,WELLS FARGO BANK NATL ASSOC,CA,611699,2006-02-08,2006-01-01,108,2,2.0,4,6,0,1,-,N,P I F,120000.0,102000.0,61,2
829,MINNEAPOLIS,MN,55411,U.S. BANK NATIONAL ASSOCIATION,MN,0,1997-03-03,1997-01-01,83,4,1.0,0,0,0,0,N,N,P I F,150000.0,112500.0,0,0
830,ASTORIA,NY,11102,JPMORGAN CHASE BANK NATL ASSOC,IL,561510,2003-03-03,2003-01-01,84,2,2.0,0,0,0,0,Y,N,P I F,75000.0,37500.0,56,0
831,OREM,UT,84058,ZIONS FIRST NATIONAL BANK,UT,561730,2006-02-08,2006-01-01,21,1,1.0,2,1,0,1,Y,N,CHGOFF,40000.0,20000.0,56,-1
832,DICKSON CITY,PA,18519,FIDELITY DEPOSIT & DISCOUNT BK,PA,234110,1997-03-03,1997-01-01,84,4,2.0,0,0,0,1,N,Y,P I F,50000.0,40000.0,23,0
833,EL PASO,TX,79915,JPMORGAN CHASE BANK NATL ASSOC,TX,235710,2003-03-03,2003-01-01,84,6,1.0,0,0,0,1,Y,N,P I F,20000.0,10000.0,23,0
834,MINNEAPOLIS,MN,55415,U.S. BANK NATIONAL ASSOCIATION,MN,541110,2006-02-08,2006-01-01,39,1,1.0,0,1,0,1,Y,N,CHGOFF,15000.0,7500.0,54,1
835,SAN FRANACISCO,CA,94110,"CAPITAL ACCESS GROUP, INC.",CA,421510,1997-03-03,1997-01-01,240,15,1.0,4,0,0,0,N,N,P I F,566000.0,566000.0,42,-4
836,NORTH LAS VEGAS,NV,89031,BANK OF AMERICA NATL ASSOC,NV,561740,2003-03-03,2003-01-01,36,1,1.0,0,0,0,0,Y,N,P I F,30000.0,15000.0,56,0
837,LINCOLN,NE,68502,UNION BANK AND TRUST COMPANY,NE,511210,2006-02-08,2006-01-01,83,2,1.0,1,1,0,1,Y,N,P I F,100000.0,50000.0,51,0
838,BLOOMINGTON,MN,55425,WELLS FARGO BANK NATL ASSOC,IL,0,1997-03-03,1997-01-01,240,5,1.0,1,4,0,0,N,N,P I F,134000.0,134000.0,0,3
839,LA PUENTE,CA,91744,BANK OF AMERICA NATL ASSOC,CA,811111,2003-03-25,2003-01-01,36,8,1.0,0,0,0,0,Y,N,P I F,50000.0,25000.0,81,0
840,MILFORD,CT,45150,CITIZENS BANK NATL ASSOC,RI,621111,2006-02-08,2006-01-01,24,1,1.0,1,1,0,2,Y,N,P I F,100000.0,50000.0,62,0
841,LOS ANGELES,CA,90014,BANK OF AMERICA NATL ASSOC,CA,423940,2003-03-25,2003-01-01,36,4,1.0,0,0,0,0,Y,N,P I F,50000.0,25000.0,42,0
842,LAS VEGAS,NV,89118,BANK OF AMERICA NATL ASSOC,NV,524210,2003-03-25,2003-01-01,60,5,1.0,0,0,0,0,N,N,P I F,70000.0,35000.0,52,0
843,HIGHLANDS RANCH,CO,80126,WELLS FARGO BANK NATL ASSOC,CO,541820,2006-02-08,2006-01-01,83,1,1.0,0,1,0,1,Y,N,P I F,30000.0,15000.0,54,1
844,CROTON ON HUDSON,NY,10520,JPMORGAN CHASE BANK NATL ASSOC,IL,812112,2003-03-26,2003-01-01,11,1,2.0,0,0,0,0,N,N,CHGOFF,100000.0,50000.0,81,0
845,FLORAL PARK,NY,11001,JPMORGAN CHASE BANK NATL ASSOC,NY,722320,2003-03-26,2003-01-01,13,1,1.0,0,0,0,0,N,N,P I F,15000.0,7500.0,72,0
846,COLTS NECK,NJ,7722,BANK OF AMERICA NATL ASSOC,NJ,235990,2006-02-08,2006-01-01,84,4,1.0,0,4,0,2,Y,N,P I F,25000.0,12500.0,23,4
847,EL PASO,TX,79901,JPMORGAN CHASE BANK NATL ASSOC,TX,445299,2003-03-27,2003-01-01,60,6,1.0,0,0,0,1,N,N,P I F,40000.0,20000.0,44,0
848,DALLAS,TX,75218,JPMORGAN CHASE BANK NATL ASSOC,TX,621511,2006-02-08,2006-01-01,27,7,1.0,2,9,0,1,Y,N,P I F,100000.0,50000.0,62,7
849,CLIFTON,NJ,7012,BANK OF AMERICA NATL ASSOC,NJ,485320,2003-03-27,2003-01-01,24,6,1.0,0,0,0,0,N,N,CHGOFF,25000.0,12500.0,48,0
850,NESCONSET,NY,11767,BANK OF AMERICA NATL ASSOC,NY,235510,2003-03-27,2003-01-01,84,3,1.0,0,0,0,0,Y,N,P I F,50000.0,25000.0,23,0
851,BROOKLYN,NY,11237,JPMORGAN CHASE BANK NATL ASSOC,IL,315991,2003-03-28,2003-01-01,36,1,1.0,0,0,0,0,N,N,P I F,35000.0,17500.0,31,0
852,SUTHERLAND,NE,69165,THE HERSHEY STATE BANK,NE,451110,1997-03-03,1997-01-01,60,2,1.0,0,0,0,0,N,Y,P I F,26400.0,21120.0,45,0
853,ISLANDIA,NY,11749,BANK OF AMERICA NATL ASSOC,NY,541618,2003-03-28,2003-01-01,60,3,2.0,0,0,0,0,N,N,P I F,10000.0,5000.0,54,0
854,BOUNTIFUL,UT,84087,ZIONS FIRST NATIONAL BANK,UT,238190,2006-02-08,2006-01-01,84,3,2.0,0,3,0,1,Y,N,P I F,10000.0,5000.0,23,3
855,ISLANDIA,NY,11749,BANK OF AMERICA NATL ASSOC,NY,541618,2003-03-28,2003-01-01,84,3,2.0,0,0,0,0,Y,N,P I F,15000.0,7500.0,54,0
856,UPPER MARLBORO (MARLBORO),MD,20774,BBCN BANK,CA,541430,2006-02-08,2006-01-01,7,3,1.0,2,3,0,1,-,N,P I F,10000.0,8500.0,54,1
857,CLEARWATER,FL,33762,BANK OF AMERICA NATL ASSOC,FL,326199,2003-03-28,2003-01-01,60,12,1.0,0,0,0,0,N,N,P I F,100000.0,50000.0,32,0
858,LOS ANGELES,CA,91345,BANK OF AMERICA NATL ASSOC,CA,531390,2006-02-08,2006-01-01,240,65,1.0,3,65,0,1,-,N,P I F,343000.0,343000.0,53,62
859,TORRANCE,CA,90505,BANK OF AMERICA NATL ASSOC,CA,424990,2003-03-28,2003-01-01,15,2,1.0,0,0,0,0,Y,N,CHGOFF,45000.0,22500.0,42,0
860,COLORADO SPRINGS,CO,80915,WELLS FARGO BANK NATL ASSOC,CO,333515,2003-03-28,2003-01-01,119,9,1.0,0,0,0,1,-,N,P I F,100000.0,50000.0,33,0
861,HOUSTON,TX,77057,JPMORGAN CHASE BANK NATL ASSOC,TX,421450,2006-02-08,2006-01-01,47,5,1.0,3,5,0,1,-,N,P I F,5000.0,4250.0,42,2
862,BLANCO,TX,78606,JPMORGAN CHASE BANK NATL ASSOC,IL,532230,2003-03-31,2003-01-01,84,3,1.0,0,0,0,2,N,N,P I F,63000.0,31500.0,53,0
863,ODIN,IL,62870,PEOPLES NATL BANK NATL ASSOC,IL,621910,2006-02-08,2006-01-01,84,1,1.0,0,0,0,2,N,N,P I F,116000.0,98600.0,62,0
864,BRIGHTON,CO,48116,CITIZENS BANK NATL ASSOC,RI,0,1997-03-03,1997-01-01,120,1,2.0,0,0,0,0,-,N,P I F,118000.0,88500.0,0,0
865,BROWNSVILLE,TX,78521,JPMORGAN CHASE BANK NATL ASSOC,TX,484121,2003-03-31,2003-01-01,52,1,1.0,0,0,0,0,Y,N,CHGOFF,20000.0,10000.0,48,0
866,NORTHPORT,AL,11768,BANK OF AMERICA NATL ASSOC,AL,448140,2003-03-31,2003-01-01,84,1,2.0,0,0,0,0,Y,N,P I F,35000.0,17500.0,44,0
867,IRVING,TX,75038,JPMORGAN CHASE BANK NATL ASSOC,TX,541511,1997-03-03,1997-01-01,2,19,1.0,0,0,0,0,-,N,P I F,600000.0,450000.0,54,0
868,NEW BRAUNFELS,TX,78130,FIRST COMM. BANK NATL ASSOC,TX,235510,2003-03-31,2003-01-01,60,12,1.0,0,0,0,2,N,N,P I F,35000.0,17500.0,23,0
869,HOUSTON,TX,77034,JPMORGAN CHASE BANK NATL ASSOC,TX,624410,2003-03-31,2003-01-01,60,16,2.0,0,0,0,0,N,N,P I F,90000.0,45000.0,62,0
870,HOUSTON,TX,77091,JPMORGAN CHASE BANK NATL ASSOC,TX,0,1997-03-03,1997-01-01,60,10,1.0,0,0,0,0,-,N,P I F,50000.0,25000.0,0,0
871,BROOKLYN,NY,11204,JPMORGAN CHASE BANK NATL ASSOC,IL,442110,2003-03-31,2003-01-01,84,3,2.0,0,0,0,0,Y,N,P I F,100000.0,50000.0,44,0
872,SHELBYVILLE,IN,75973,"PNC BANK, NATIONAL ASSOCIATION",KY,0,1997-03-03,1997-01-01,120,2,2.0,0,0,0,0,N,N,P I F,161000.0,120750.0,0,0
873,SPRING,TX,77380,JPMORGAN CHASE BANK NATL ASSOC,TX,541410,2003-04-01,2003-01-01,12,3,2.0,0,0,0,0,N,N,CHGOFF,100000.0,50000.0,54,0
874,ST. CLOUD,MN,34769,STEARNS BK NATL ASSOC,MN,0,1997-03-03,1997-01-01,84,4,2.0,0,0,0,0,N,Y,P I F,80000.0,64000.0,0,0
875,BELLEROSE,NY,11426,BANK OF AMERICA NATL ASSOC,NY,422410,2003-04-01,2003-01-01,84,1,1.0,0,0,0,0,Y,N,P I F,35000.0,17500.0,42,0
876,EAST NORTHPORT,NY,11713,JPMORGAN CHASE BANK NATL ASSOC,IL,445299,2003-04-01,2003-01-01,60,1,2.0,0,0,1,0,N,N,P I F,130000.0,65000.0,44,0
877,WEST HARTFORD,CT,6110,BANK OF AMERICA NATL ASSOC,CT,621210,1997-03-03,1997-01-01,120,4,1.0,0,0,0,0,N,Y,P I F,85000.0,68000.0,62,0
878,STATEN ISLAND,NY,10306,JPMORGAN CHASE BANK NATL ASSOC,NY,454390,2003-04-02,2003-01-01,60,1,1.0,0,0,0,0,N,N,P I F,35300.0,17650.0,45,0
879,STATEN ISLAND,NY,10306,JPMORGAN CHASE BANK NATL ASSOC,NY,454390,2003-04-02,2003-01-01,84,1,1.0,0,0,0,0,Y,N,P I F,14000.0,7000.0,45,0
880,LAURELTON,NY,11413,BANCO POPULAR NORTH AMERICA,NY,485320,2003-04-02,2003-01-01,60,6,1.0,0,0,0,0,N,N,P I F,30000.0,15000.0,48,0
881,LARAMIE,WY,82070,CAPITAL WEST BANK,WY,541940,1997-03-03,1997-01-01,180,6,1.0,0,0,0,0,N,N,P I F,245000.0,183750.0,54,0
882,NORTH RICHLAND HILLS,TX,76180,JPMORGAN CHASE BANK NATL ASSOC,TX,541612,2003-04-02,2003-01-01,60,1,1.0,0,0,0,1,N,N,P I F,25000.0,12500.0,54,0
883,BISMARCK,ND,58504,AMERICAN BANK CENTER,ND,621310,1997-03-03,1997-01-01,60,4,1.0,0,0,0,0,N,Y,P I F,16200.0,12960.0,62,0
884,NEW YORK,NY,10019,JPMORGAN CHASE BANK NATL ASSOC,NY,446191,2003-04-04,2003-01-01,84,4,1.0,0,0,0,0,N,N,P I F,25000.0,12500.0,44,0
885,WARWICK,RI,2889,CITIZENS BANK NATL ASSOC,RI,0,1997-03-03,1997-01-01,120,45,1.0,0,0,1,0,N,Y,P I F,100000.0,80000.0,0,0
886,STATEN ISLAND,NY,10314,JPMORGAN CHASE BANK NATL ASSOC,NY,532490,2003-04-04,2003-01-01,84,3,1.0,0,0,0,0,Y,N,P I F,50000.0,25000.0,53,0
887,OCALA,FL,34471,BANK OF AMERICA NATL ASSOC,NC,0,1997-03-03,1997-01-01,180,1,2.0,0,0,0,0,N,N,P I F,318000.0,238500.0,0,0
888,MARBLE FALLS,TX,78654,SECURITY STATE BANK & TRUST,TX,624410,2006-02-08,2006-01-01,62,13,1.0,0,0,0,2,N,N,CHGOFF,233000.0,174750.0,62,0
889,FARGO,ND,58103,DAKOTA CERT. DEVEL CO,ND,443120,1997-03-03,1997-01-01,2,11,1.0,0,0,0,0,N,Y,P I F,45000.0,36000.0,44,0
890,THE COLONY,TX,75056,JPMORGAN CHASE BANK NATL ASSOC,TX,522310,2003-04-08,2003-01-01,60,2,2.0,0,0,0,1,N,N,P I F,40000.0,20000.0,52,0
891,BRONX,NY,10454,JPMORGAN CHASE BANK NATL ASSOC,NY,541511,2003-04-09,2003-01-01,84,2,1.0,0,0,0,0,N,N,P I F,20000.0,10000.0,54,0
892,BRIDGEPORT,CT,6606,BANK OF AMERICA NATL ASSOC,CT,235990,2003-04-10,2003-01-01,60,1,1.0,0,0,0,1,N,N,P I F,12000.0,6000.0,23,0
893,JACKSON HEIGHTS,NY,11372,JPMORGAN CHASE BANK NATL ASSOC,NY,446120,2003-04-10,2003-01-01,39,1,1.0,0,0,0,0,N,N,CHGOFF,16000.0,8000.0,44,0
894,MILFORD,CT,6460,CITIZENS BANK NATL ASSOC,RI,0,1980-07-10,1980-01-01,96,4,2.0,0,0,0,0,N,N,CHGOFF,25000.0,22500.0,0,0
895,CROSSETT,AR,71635,FIRST NATL BK OF CROSSETT,AR,541940,1997-03-03,1997-01-01,228,2,2.0,0,0,0,0,N,N,P I F,206000.0,154500.0,54,0
896,MONTCLAIR,CA,7042,JPMORGAN CHASE BANK NATL ASSOC,CA,812320,2003-04-11,2003-01-01,60,9,1.0,0,0,0,0,N,N,P I F,49000.0,24500.0,81,0
897,VANCOUVER,WA,98661,U.S. BANK NATIONAL ASSOCIATION,WA,0,1997-03-03,1997-01-01,84,4,2.0,0,0,0,0,N,Y,P I F,55000.0,44000.0,0,0
898,MONTCLAIR,CA,7042,JPMORGAN CHASE BANK NATL ASSOC,CA,812320,2003-04-11,2003-01-01,36,9,1.0,0,0,0,0,N,N,P I F,10000.0,5000.0,81,0
899,LOUISVILE,KY,40243,"METRO BANK, INC.",KY,443120,1997-03-03,1997-01-01,60,1,1.0,0,0,0,0,Y,N,P I F,50000.0,25000.0,44,0
900,SAN DIEGO,CA,92101,CDC SMALL BUS. FINAN CORP,CA,424470,2003-04-11,2003-01-01,74,5,1.0,0,0,0,0,Y,N,P I F,100000.0,50000.0,42,0
901,SANTA CRUZ,CA,95065,WELLS FARGO BANK NATL ASSOC,SD,0,1997-03-03,1997-01-01,96,3,1.0,0,0,0,0,-,N,P I F,45000.0,33750.0,0,0
902,ESCONDIDO,CA,92025,WELLS FARGO BANK NATL ASSOC,CA,811192,2003-04-11,2003-01-01,36,3,1.0,0,0,0,0,Y,N,P I F,22000.0,11000.0,81,0
903,WOODBRIDGE,VA,22191,BANK OF AMERICA NATL ASSOC,NC,325611,1997-03-03,1997-01-01,73,16,2.0,0,0,0,0,-,N,CHGOFF,290000.0,217500.0,32,0
904,FRESNO,CA,93710,CALIFORNIA BANK & TRUST,CA,541410,2003-04-11,2003-01-01,60,7,1.0,0,0,0,0,N,N,P I F,20000.0,10000.0,54,0
905,BROOKLIN,MA,2146,CAMDEN NATIONAL BANK,ME,0,1997-03-03,1997-01-01,12,5,1.0,0,0,0,0,-,N,P I F,50000.0,25000.0,0,0
906,DALLAS,TX,75219,JPMORGAN CHASE BANK NATL ASSOC,TX,524210,2003-04-11,2003-01-01,35,1,1.0,0,0,0,1,N,N,CHGOFF,15000.0,7500.0,52,0
907,TOLEDO,OH,43606,THE HUNTINGTON NATIONAL BANK,OH,0,1997-03-03,1997-01-01,60,3,1.0,0,0,0,0,-,N,P I F,50000.0,25000.0,0,0
908,SACRAMENTO,CA,95831,WELLS FARGO BANK NATL ASSOC,CA,531210,2003-04-18,2003-01-01,84,1,1.0,0,0,0,0,Y,N,P I F,50000.0,25000.0,53,0
909,CHESAPEAKE,VA,23323,BANK OF AMERICA NATL ASSOC,VA,0,1997-03-03,1997-01-01,78,8,2.0,0,0,0,0,N,Y,P I F,25000.0,20000.0,0,0
910,MIAMI,FL,33145,BANK OF AMERICA NATL ASSOC,NC,315233,2003-04-18,2003-01-01,0,20,1.0,0,0,0,0,N,N,CHGOFF,150000.0,75000.0,31,0
911,SACRAMENTO,CA,95820,WELLS FARGO BANK NATL ASSOC,CA,0,1997-03-03,1997-01-01,120,16,1.0,0,0,0,0,-,N,P I F,600000.0,450000.0,0,0
912,DEERFIELD BEACH,FL,33441,BANK OF AMERICA NATL ASSOC,NC,337122,2003-04-29,2003-01-01,84,11,1.0,0,0,0,0,N,N,P I F,100000.0,50000.0,33,0
913,DALLAS,TX,75234,JPMORGAN CHASE BANK NATL ASSOC,TX,421310,1997-03-03,1997-01-01,70,5,1.0,0,0,0,0,-,N,CHGOFF,700000.0,525000.0,42,0
914,NORTH MIAMI BEACH,FL,33179,BANK OF AMERICA NATL ASSOC,NC,424320,2003-04-29,2003-01-01,60,20,1.0,0,0,0,0,N,N,P I F,60000.0,30000.0,42,0
915,TONALEA,AZ,86044,CALIFORNIA BANK & TRUST,CA,238390,2003-04-29,2003-01-01,6,11,1.0,0,0,0,0,Y,N,CHGOFF,30000.0,15000.0,23,0
916,BLUE SPRINGS,MO,64015,U.S. BANK NATIONAL ASSOCIATION,MO,0,1997-03-03,1997-01-01,9,13,1.0,0,0,0,0,-,N,CHGOFF,80000.0,56000.0,0,0
917,ATLANTA,GA,30341,BANK OF AMERICA NATL ASSOC,GA,541211,2003-04-29,2003-01-01,60,5,1.0,0,0,0,0,N,N,P I F,63000.0,31500.0,54,0
918,MIAMI,FL,33166,BANK OF AMERICA NATL ASSOC,NC,0,1997-03-05,1997-01-01,240,7,1.0,5,0,0,0,N,N,P I F,162000.0,162000.0,0,-5
919,LA QUINTA,CA,92253,CDC SMALL BUS. FINAN CORP,CA,541219,2003-04-29,2003-01-01,36,2,2.0,0,0,0,0,Y,N,P I F,50000.0,25000.0,54,0
920,IRVINE,CA,92618,BANK OF AMERICA NATL ASSOC,CA,327331,1997-03-03,1997-01-01,300,200,1.0,0,0,0,0,-,N,P I F,335000.0,251250.0,32,0
921,PLAINVILLE,CT,2762,BANK OF AMERICA NATL ASSOC,CT,221210,2003-05-07,2003-01-01,60,4,1.0,0,0,0,0,N,N,P I F,27500.0,13750.0,22,0
922,STATE COLLEGE,PA,16803,MANUFACTURERS & TRADERS TR CO,PA,722110,2003-05-12,2003-01-01,84,18,2.0,0,0,0,0,N,N,P I F,60000.0,30000.0,72,0
923,CASPER,WY,82604,WELLS FARGO BANK NATL ASSOC,WY,325211,1997-03-03,1997-01-01,240,31,1.0,3,28,0,0,N,N,P I F,120000.0,120000.0,32,25
924,PROVIDENCE,RI,2903,CITIZENS BANK NATL ASSOC,RI,541611,2003-05-13,2003-01-01,180,5,1.0,0,0,0,0,N,N,P I F,210000.0,105000.0,54,0
925,SANTA ANA,CA,92705,WELLS FARGO BANK NATL ASSOC,CA,238320,2003-05-13,2003-01-01,60,126,1.0,0,0,0,0,N,N,P I F,100000.0,50000.0,23,0
926,BROOKHAVEN,MS,39601,TRUSTMARK NATIONAL BANK,MS,484220,2003-05-14,2003-01-01,36,1,2.0,0,0,0,2,N,N,P I F,23400.0,11700.0,48,0
927,ST. PETERSBURG,FL,33716,GULFCOAST BUS. FINANCE INC.,FL,0,1997-03-03,1997-01-01,84,8,2.0,0,0,0,0,-,N,P I F,235000.0,176250.0,0,0
928,CLOVIS,CA,88101,WESTERN BANK OF CLOVIS,CA,0,1997-03-03,1997-01-01,84,2,2.0,0,0,0,0,N,Y,P I F,15000.0,12000.0,0,0
929,GUNTOWN,MS,38849,BANCORPSOUTH BANK,MS,484220,2003-05-16,2003-01-01,48,1,2.0,0,0,0,2,Y,N,P I F,23600.0,11800.0,48,0
930,TERRY,MS,39170,TRUSTMARK NATIONAL BANK,MS,561730,2003-05-20,2003-01-01,62,2,2.0,0,0,0,2,N,N,P I F,40800.0,20400.0,56,0
931,HELENA,MT,59601,MOUNTAIN W. BANK NATL ASSOC,MT,0,1997-03-03,1997-01-01,240,4,2.0,0,0,1,2,-,N,P I F,233000.0,174750.0,0,0
932,WARREN,MI,2885,CITIZENS BANK NATL ASSOC,RI,611620,2003-05-22,2003-01-01,83,6,1.0,0,0,0,2,Y,N,P I F,36000.0,18000.0,61,0
933,NILES,IL,60714,1ST SOURCE BANK,IL,0,1997-03-03,1997-01-01,216,20,1.0,0,0,1,0,-,N,P I F,310000.0,232500.0,0,0
934,WARREN,MI,2885,CITIZENS BANK NATL ASSOC,RI,611620,2003-05-22,2003-01-01,60,6,1.0,0,0,0,2,N,N,P I F,27000.0,13500.0,61,0
935,COLUMBUS,OH,39702,JPMORGAN CHASE BANK NATL ASSOC,OH,811121,2003-05-22,2003-01-01,13,6,1.0,0,0,0,2,N,N,P I F,15200.0,7600.0,81,0
936,SACRAMENTO,CA,95831,WELLS FARGO BANK NATL ASSOC,CA,541330,2003-05-27,2003-01-01,60,28,1.0,0,0,0,0,Y,N,P I F,200000.0,100000.0,54,0
937,BATH,NY,18014,FIVE STAR BANK,NY,811411,2003-05-28,2003-01-01,36,3,1.0,0,0,0,2,Y,N,P I F,18000.0,9000.0,81,0
938,WHEELING,WV,26003,"WESBANCO BANK, INC.",IL,541940,1997-03-03,1997-01-01,180,5,1.0,0,0,0,0,-,N,P I F,211700.0,158775.0,54,0
939,JACKSON,MS,39201,TRUSTMARK NATIONAL BANK,MS,484121,2003-05-29,2003-01-01,36,6,1.0,0,0,0,1,N,N,P I F,13700.0,6850.0,48,0
940,SAGINAW,MI,76179,"FIRSTMERIT BANK, N.A.",IL,454210,1997-03-03,1997-01-01,78,8,1.0,0,0,0,0,-,N,P I F,150000.0,112500.0,45,0
941,EAST MEADOW,NY,11554,BANK OF AMERICA NATL ASSOC,NY,812112,2003-05-29,2003-01-01,57,5,1.0,0,0,0,0,N,N,CHGOFF,25000.0,12500.0,81,0
942,PAGE,AZ,86040,BANK OF THE WEST,AZ,0,1997-03-03,1997-01-01,120,3,1.0,0,0,0,0,-,N,P I F,40000.0,32000.0,0,0
943,WAUTOMA,WI,54982,"FIRSTMERIT BANK, N.A.",WI,811121,2003-06-02,2003-01-01,84,1,2.0,0,0,0,0,Y,N,P I F,10000.0,5000.0,81,0
944,CARTERVILLE,IL,62918,BANTERRA BANK,IL,621210,1997-03-03,1997-01-01,180,5,1.0,0,0,0,0,-,N,P I F,220000.0,165000.0,62,0
945,SOUTHINGTON,CT,6489,BANK OF AMERICA NATL ASSOC,CT,722211,2003-06-03,2003-01-01,240,4,1.0,0,0,0,1,N,N,P I F,115000.0,57500.0,72,0
946,HARTFORD,CT,6105,BANK OF AMERICA NATL ASSOC,CT,442210,2003-06-04,2003-01-01,84,9,2.0,0,0,0,1,Y,N,P I F,50000.0,25000.0,44,0
947,HUNTINGTON BEACH,CA,92647,BANK OF AMERICA NATL ASSOC,CA,421830,1997-03-03,1997-01-01,300,13,1.0,0,0,0,0,-,N,P I F,730000.0,547500.0,42,0
948,SPRINGFIELD,MO,1108,U.S. BANK NATIONAL ASSOCIATION,MO,722211,2003-06-04,2003-01-01,5,3,2.0,0,0,0,0,N,N,CHGOFF,60000.0,30000.0,72,0
949,COOKEVILLE,TN,38401,REGIONS BANK,TN,621310,2006-02-08,2006-01-01,120,4,2.0,0,0,0,2,N,N,P I F,300000.0,225000.0,62,0
950,SOUTHBOROUGH,MA,1772,CITIZENS BANK NATL ASSOC,MA,452990,1997-03-03,1997-01-01,276,5,1.0,0,0,0,0,-,N,P I F,680000.0,510000.0,45,0
951,AMHERST,NY,1002,MANUFACTURERS & TRADERS TR CO,NY,451211,2003-06-05,2003-01-01,60,5,2.0,0,0,0,0,N,N,P I F,50000.0,25000.0,45,0
952,FRAZER,PA,19355,WELLS FARGO BANK NATL ASSOC,PA,0,1997-03-03,1997-01-01,216,11,1.0,0,0,0,0,-,N,P I F,439000.0,329250.0,0,0
953,AMHERST,NY,1002,MANUFACTURERS & TRADERS TR CO,NY,451211,2003-06-05,2003-01-01,84,5,2.0,0,0,0,0,N,N,P I F,75000.0,37500.0,45,0
954,WATERBURY,CT,6704,BANK OF AMERICA NATL ASSOC,CT,0,1997-03-03,1997-01-01,168,48,1.0,0,0,0,0,-,N,P I F,800000.0,600000.0,0,0
955,MCCOMB,MS,39648,TRUSTMARK NATIONAL BANK,MS,446120,2003-06-06,2003-01-01,84,5,1.0,0,0,0,2,N,N,P I F,10200.0,5100.0,44,0
956,GUILFORD,CT,6437,CITIZENS BANK NATL ASSOC,RI,323122,1997-03-03,1997-01-01,120,33,1.0,0,0,0,0,-,N,P I F,925000.0,693750.0,32,0
957,RUMFORD,RI,2916,CITIZENS BANK NATL ASSOC,RI,541350,2003-06-09,2003-01-01,60,1,1.0,0,0,0,0,N,N,P I F,10000.0,5000.0,54,0
958,WARREN,MI,1083,CITIZENS BANK NATL ASSOC,RI,531312,2003-06-11,2003-01-01,240,2,2.0,0,0,0,0,N,N,P I F,100000.0,50000.0,53,0
959,HAMPSTEAD,NH,3841,CITIZENS BANK NATL ASSOC,NH,812112,2003-06-11,2003-01-01,84,6,2.0,0,0,0,0,Y,N,P I F,5000.0,2500.0,81,0
960,RED LODGE,MT,59068,FIRST INTERSTATE BANK,MT,0,1997-03-03,1997-01-01,240,15,2.0,0,0,0,2,N,N,P I F,280000.0,210000.0,0,0
961,NEENAH,WI,54956,ASSOCIATED BANK NATL ASSOC,WI,445310,2003-06-12,2003-01-01,72,9,1.0,0,0,0,0,N,N,P I F,27600.0,13800.0,44,0
962,TYNGSBORO,MA,1879,ENTERPRISE BK & TR CO,MA,713940,2003-06-12,2003-01-01,60,1,2.0,0,0,0,0,N,N,P I F,28000.0,14000.0,71,0
963,MIAMI,FL,33166,BANK OF AMERICA NATL ASSOC,NC,484110,2003-06-13,2003-01-01,84,5,1.0,0,0,0,0,N,N,P I F,150000.0,75000.0,48,0
964,DENVER,CO,80223,WELLS FARGO BANK NATL ASSOC,CO,541511,2003-06-13,2003-01-01,82,9,2.0,0,0,0,1,Y,N,P I F,100000.0,50000.0,54,0
965,SIDNEY,MT,59270,STOCKMAN BANK OF MONTANA,MT,0,1997-03-03,1997-01-01,108,13,1.0,0,0,0,2,N,N,P I F,75000.0,60000.0,0,0
966,PETAL,MS,39465,TRUSTMARK NATIONAL BANK,MS,484220,2003-06-16,2003-01-01,36,1,2.0,0,0,0,2,N,N,P I F,12300.0,6150.0,48,0
967,POMONA,CA,91768,WELLS FARGO BANK NATL ASSOC,CA,423690,2003-06-16,2003-01-01,36,6,1.0,0,0,0,0,Y,N,P I F,50000.0,25000.0,42,0
968,TUSTIN,CA,92780,WELLS FARGO BANK NATL ASSOC,CA,561790,2003-06-16,2003-01-01,83,1,1.0,0,0,0,0,Y,N,P I F,17600.0,8800.0,56,0
969,MISSOULA,MT,59801,FIRST SECURITY BK OF MISSOULA,MT,0,1997-03-03,1997-01-01,60,1,1.0,0,0,0,0,N,Y,P I F,47000.0,37600.0,0,0
970,MOUNTAIN VIEW,CA,94041,WELLS FARGO BANK NATL ASSOC,CA,442110,2003-06-16,2003-01-01,36,2,1.0,0,0,0,0,Y,N,P I F,50000.0,25000.0,44,0
971,SAINT LOUIS,MO,63128,U.S. BANK NATIONAL ASSOCIATION,OH,722110,2003-06-16,2003-01-01,17,14,1.0,0,0,0,0,N,N,CHGOFF,88000.0,44000.0,72,0
972,MILLDALE,CT,6467,BANK OF AMERICA NATL ASSOC,CT,531312,2003-06-18,2003-01-01,240,2,1.0,0,0,0,2,N,N,P I F,105000.0,52500.0,53,0
973,REVERE,MA,2151,CITIZENS BANK NATL ASSOC,RI,238210,2003-06-18,2003-01-01,27,1,1.0,0,0,0,0,N,N,CHGOFF,25000.0,12500.0,23,0
974,NEWTON UPPER FALLS,MA,2464,BANK OF AMERICA NATL ASSOC,DE,446120,2003-06-18,2003-01-01,84,2,1.0,0,0,0,0,N,N,P I F,150000.0,75000.0,44,0
975,REVERE,MA,2151,CITIZENS BANK NATL ASSOC,RI,238210,2003-06-20,2003-01-01,60,1,1.0,0,0,0,0,N,N,P I F,25500.0,12750.0,23,0
976,WESSON,MS,39191,TRUSTMARK NATIONAL BANK,MS,722110,2003-06-20,2003-01-01,48,3,2.0,0,0,0,2,N,N,P I F,63500.0,31750.0,72,0
977,LAUREL,MD,39443,YELLOWSTONE BANK,MT,321920,2003-06-20,2003-01-01,83,4,1.0,0,0,0,2,Y,N,P I F,20200.0,10100.0,32,0
978,PITTSFIELD,MA,1201,BERKSHIRE BANK,MA,454311,2003-06-25,2003-01-01,60,1,2.0,0,0,0,0,N,N,P I F,66800.0,33400.0,45,0
979,JACKSON,MS,39204,TRUSTMARK NATIONAL BANK,MS,447110,2003-06-26,2003-01-01,59,1,2.0,0,0,0,1,N,N,P I F,15300.0,7650.0,44,0
980,DAVENPORT,IA,52806,WELLS FARGO BANK NATL ASSOC,IA,492110,2003-06-27,2003-01-01,84,50,1.0,0,0,1,0,Y,N,P I F,50000.0,25000.0,49,0
981,MILWAUKEE,WI,53203,U.S. BANK NATIONAL ASSOCIATION,WI,511120,2003-06-27,2003-01-01,83,2,1.0,0,0,0,0,Y,N,P I F,25000.0,12500.0,51,0
982,PLEASANTON,CA,94588,WELLS FARGO BANK NATL ASSOC,CA,811111,2006-02-08,2006-01-01,240,3,2.0,4,3,0,1,-,N,P I F,322000.0,322000.0,81,-1
983,DAVENPORT,IA,52806,WELLS FARGO BANK NATL ASSOC,IA,492110,2003-07-01,2003-01-01,84,50,1.0,0,0,1,0,Y,N,P I F,150000.0,75000.0,49,0
984,LOS ANGELES,CA,91325,BANK OF AMERICA NATL ASSOC,CA,524210,2006-02-08,2006-01-01,240,3,1.0,3,3,0,1,-,N,P I F,331000.0,331000.0,52,0
985,EASTHAMPTON,MA,1027,FLORENCE SAVINGS BANK,MA,812199,2003-07-01,2003-01-01,60,2,2.0,0,0,0,0,N,N,P I F,33000.0,16500.0,81,0
986,BEAUMONT,TX,77707,BBCN BANK,TX,561310,2003-07-01,2003-01-01,13,4,1.0,0,0,0,0,Y,N,P I F,100000.0,50000.0,56,0
987,FREDERICKSBURG,VA,22408,UNION FIRST MARKET BANK,VA,561730,2006-02-08,2006-01-01,36,2,1.0,0,2,0,2,-,N,P I F,12000.0,6000.0,56,2
988,DOTHAN,AL,36301,AMERIS BANK,AL,621511,2003-07-02,2003-01-01,60,2,2.0,0,0,0,0,N,N,P I F,40000.0,20000.0,62,0
989,ORANGE,CA,92868,WELLS FARGO BANK NATL ASSOC,CA,541110,2006-02-08,2006-01-01,36,5,1.0,0,0,0,1,-,N,P I F,10000.0,5000.0,54,0
990,DOTHAN,AL,36301,AMERIS BANK,AL,621511,2003-07-02,2003-01-01,24,2,2.0,0,0,0,0,Y,N,P I F,35000.0,17500.0,62,0
991,ASHLAND,OR,1721,JPMORGAN CHASE BANK NATL ASSOC,OH,423930,2003-07-02,2003-01-01,84,6,2.0,0,0,1,0,N,N,P I F,30000.0,15000.0,42,0
992,WINNECONNE,WI,54986,ASSOCIATED BANK NATL ASSOC,WI,238210,2003-07-03,2003-01-01,84,6,1.0,0,0,0,0,Y,N,P I F,25000.0,12500.0,23,0
993,SAN MARCOS,CA,92069,WELLS FARGO BANK NATL ASSOC,CA,238330,2006-02-08,2006-01-01,36,3,1.0,0,0,0,1,-,N,P I F,23500.0,11750.0,23,0
994,COLUMBUS,OH,39701,JPMORGAN CHASE BANK NATL ASSOC,OH,238210,2003-07-03,2003-01-01,70,12,1.0,0,0,0,2,N,N,CHGOFF,75500.0,37750.0,23,0
995,CHICOPEE,MA,1020,BANK OF AMERICA NATL ASSOC,MA,611519,2003-07-07,2003-01-01,84,1,2.0,0,0,0,0,N,N,P I F,10000.0,5000.0,61,0
996,LAGUNA BEACH,CA,92651,WELLS FARGO BANK NATL ASSOC,CA,448120,2006-02-08,2006-01-01,48,6,1.0,0,0,0,1,-,N,P I F,40000.0,20000.0,44,0
997,CHICOPEE,MA,1020,BANK OF AMERICA NATL ASSOC,MA,611519,2003-07-07,2003-01-01,60,1,2.0,0,0,0,0,N,N,P I F,7300.0,3650.0,61,0
998,OCEANSIDE,CA,92054,BANK OF AMERICA NATL ASSOC,CA,512110,2006-02-08,2006-01-01,18,3,2.0,0,0,0,1,-,N,CHGOFF,50000.0,25000.0,51,0
999,CAMBRIA,CA,53923,HERITAGE OAKS BANK,CA,624120,2003-07-07,2003-01-01,83,58,1.0,0,0,0,0,Y,N,P I F,80000.0,40000.0,62,0
1000,LOS ANGELES,CA,90015,BANK OF AMERICA NATL ASSOC,CA,621310,2006-02-08,2006-01-01,63,38,1.0,0,38,0,1,Y,N,CHGOFF,200000.0,100000.0,62,38
